{"type":"FeatureCollection","features":[{"type":"Feature","properties":{},"geometry":{"type":"LineString","coordinates":[[-124.7598,48.4945],[-124.5819,48.4439],[-124.4128,48.3958],[-124.2255,48.35],[-124.0296,48.3022],[-123.8564,48.26],[-123.6469,48.2229],[-123.5391,48.2172],[-123.3871,48.2489],[-123.2003,48.332],[-123.142,48.4001],[-123.1665,48.4575],[-123.2154,48.546],[-123.2264,48.5773],[-123.2355,48.6379],[-123.2125,48.6853],[-123.014,48.7641],[-123.0051,48.7862],[-123.0294,48.8219],[-123.1837,48.918],[-123.3136,48.993]]}},{"type":"Feature","properties":{},"geometry":{"type":"MultiLineString","coordinates":[[[-57.0881,2.0],[-57.0927,2.0058],[-57.1189,2.014],[-57.1494,2.0]],[[-59.7498,2.0],[-59.7435,2.1216],[-59.7552,2.2741],[-59.8491,2.327],[-59.8896,2.363],[-59.9608,2.5884],[-59.9943,2.69],[-59.9959,2.7654],[-59.9723,2.9905],[-59.9457,3.0878],[-59.873,3.2831],[-59.8311,3.3492],[-59.8288,3.3986],[-59.8331,3.4621],[-59.8544,3.5875],[-59.7316,3.6665],[-59.679,3.6998],[-59.6702,3.7527],[-59.6044,3.8197],[-59.5754,3.8835],[-59.5511,3.9335],[-59.5578,3.96],[-59.5864,3.9754],[-59.6202,4.0232],[-59.6912,4.1604],[-59.7169,4.1882],[-59.7385,4.2268],[-59.7275,4.2876],[-59.6997,4.3535],[-59.7033,4.3811],[-59.7458,4.4167],[-59.8333,4.4759],[-59.9061,4.4803],[-59.9624,4.5017],[-60.045,4.5046],[-60.1112,4.5112],[-60.1486,4.5332],[-60.1409,4.5696],[-60.1246,4.5977],[-60.069,4.6667],[-60.0318,4.7405],[-60.0267,4.8127],[-60.0155,4.9075],[-59.9994,4.9899],[-59.9907,5.0828],[-60.0781,5.144],[-60.106,5.1942],[-60.142,5.2388],[-60.1817,5.2388],[-60.2417,5.258],[-60.3352,5.1993],[-60.4088,5.2101],[-60.4595,5.1881],[-60.5764,5.1925],[-60.6514,5.2212],[-60.7421,5.202]]]}},{"type":"Feature","properties":{},"geometry":{"type":"LineString","coordinates":[[-54.6163,2.3268],[-54.6619,2.3276],[-54.6974,2.3598],[-54.7029,2.3979],[-54.7222,2.4417],[-54.7668,2.4547],[-54.8517,2.4396],[-54.8761,2.4504],[-54.9266,2.4973],[-54.9684,2.5483],[-54.9787,2.5977],[-55.0058,2.593],[-55.0703,2.5483],[-55.1141,2.5392],[-55.1489,2.5508],[-55.1877,2.5475],[-55.2861,2.4996],[-55.344,2.4888],[-55.3854,2.4406],[-55.6589,2.4188],[-55.7306,2.4062],[-55.8937,2.4895],[-55.9359,2.5166],[-55.9575,2.5205],[-55.9756,2.516],[-55.9935,2.4975],[-56.0203,2.3928],[-56.0451,2.3644],[-56.0878,2.3413],[-56.1294,2.2995],[-56.1377,2.259],[-56.0737,2.2368],[-56.0201,2.1582],[-55.962,2.0951],[-55.9153,2.0395],[-55.9193,2.0]]}},{"type":"Feature","properties":{},"geometry":{"type":"LineString","coordinates":[[-54.6163,2.3268],[-54.592,2.3138],[-54.5505,2.2931],[-54.5151,2.2454],[-54.4331,2.2075],[-54.293,2.1542],[-54.228,2.1533],[-54.1674,2.1371],[-54.13,2.1211],[-54.0898,2.1505],[-53.9464,2.2326],[-53.8766,2.2783],[-53.8295,2.3129],[-53.7942,2.346],[-53.7678,2.3548],[-53.7501,2.335],[-53.7347,2.3085],[-53.6837,2.2929],[-53.564,2.2619],[-53.509,2.2531],[-53.4318,2.2794],[-53.366,2.3242],[-53.3344,2.3398],[-53.2855,2.2952],[-53.2522,2.2323],[-53.2298,2.2049],[-53.1801,2.2113],[-53.0823,2.2017],[-53.0097,2.1817],[-52.9648,2.1836],[-52.9035,2.2115],[-52.8704,2.2667],[-52.7834,2.3172],[-52.7006,2.3637],[-52.6532,2.4257],[-52.583,2.5289],[-52.5595,2.5731],[-52.5547,2.6476],[-52.4559,2.8642],[-52.4184,2.9039],[-52.3964,2.9722],[-52.3567,3.0516],[-52.3567,3.1177],[-52.3279,3.1817],[-52.2712,3.2371],[-52.2294,3.2717],[-52.1626,3.3647],[-52.1161,3.4523],[-52.0,3.646]]}},{"type":"Feature","properties":{},"geometry":{"type":"LineString","coordinates":[[-71.7792,19.7182],[-71.7574,19.6882],[-71.7115,19.4866],[-71.707,19.422],[-71.7532,19.3245],[-71.7465,19.2859],[-71.6472,19.196],[-71.6453,19.1635],[-71.657,19.1307],[-71.7421,19.0455],[-71.8071,18.987],[-71.7864,18.92],[-71.7336,18.8564],[-71.7271,18.8032],[-71.7432,18.7329],[-71.8242,18.6455],[-71.8665,18.6142],[-71.9869,18.6103],[-72.0004,18.5979],[-71.9404,18.5126],[-71.8726,18.4162],[-71.7619,18.3413],[-71.7372,18.2708],[-71.7638,18.204],[-71.7683,18.0392]]}},{"type":"Feature","properties":{},"geometry":{"type":"LineString","coordinates":[[-90.0952,13.7365],[-90.1059,13.783],[-90.1048,13.8348],[-90.0482,13.9041],[-89.9427,13.9974],[-89.8727,14.0456],[-89.84,14.0551],[-89.7937,14.0501],[-89.7493,14.077],[-89.7111,14.1413],[-89.6713,14.1827],[-89.5703,14.2247],[-89.5472,14.2413],[-89.555,14.2773],[-89.5769,14.3471],[-89.5736,14.3901],[-89.5405,14.4099],[-89.5009,14.4138],[-89.4188,14.4311],[-89.3832,14.4276],[-89.3626,14.416]]}},{"type":"Feature","properties":{},"geometry":{"type":"LineString","coordinates":[[-89.3626,14.416],[-89.3373,14.4114],[-89.1701,14.3603],[-89.1205,14.3702],[-89.0571,14.3292],[-89.0269,14.297],[-89.0002,14.2527],[-88.8683,14.1637],[-88.846,14.1248],[-88.7474,14.0723],[-88.7076,14.0321],[-88.6656,14.0155],[-88.5831,14.0001],[-88.5126,13.979],[-88.5043,13.9642],[-88.4976,13.9045],[-88.4827,13.8542],[-88.4491,13.851],[-88.4085,13.8754],[-88.2762,13.9427],[-88.151,13.9873],[-88.0805,13.9606],[-88.0387,13.9046],[-87.991,13.8796],[-87.892,13.895],[-87.8023,13.89],[-87.7315,13.8411],[-87.7153,13.8127],[-87.7585,13.6499],[-87.7742,13.5803],[-87.7819,13.5214],[-87.7565,13.506],[-87.7317,13.4831],[-87.737,13.4514],[-87.8142,13.3992]]}},{"type":"Feature","properties":{},"geometry":{"type":"LineString","coordinates":[[-87.3373,12.9793],[-87.0592,12.9915],[-87.0093,13.0078],[-86.9589,13.0537],[-86.9332,13.1175],[-86.9288,13.1794],[-86.9182,13.2236],[-86.8736,13.2665],[-86.7921,13.2798],[-86.7293,13.2844],[-86.7107,13.3134],[-86.7296,13.4072],[-86.7635,13.6352],[-86.7706,13.6988],[-86.759,13.7461],[-86.7336,13.7635],[-86.6102,13.7749],[-86.3769,13.7556],[-86.3318,13.7701],[-86.2382,13.8995],[-86.1512,13.9946],[-86.0892,14.0372],[-86.0404,14.0502],[-85.9838,13.9657],[-85.7867,13.8445],[-85.7534,13.852],[-85.7339,13.8587],[-85.7277,13.8761],[-85.7312,13.9319],[-85.6819,13.9826],[-85.5798,14.0282],[-85.4771,14.1087],[-85.3738,14.2239],[-85.2842,14.2916],[-85.2083,14.3118],[-85.1795,14.3433],[-85.1976,14.386],[-85.1915,14.4466],[-85.1613,14.5252],[-85.1173,14.5706],[-85.0594,14.583],[-85.0365,14.6077],[-85.0487,14.6447],[-85.0373,14.6856],[-84.9851,14.7524],[-84.8604,14.8097],[-84.7892,14.7904],[-84.7298,14.7134],[-84.646,14.6611],[-84.5377,14.6334],[-84.4535,14.6437],[-84.3937,14.6918],[-84.3398,14.7063],[-84.2919,14.6874],[-84.2667,14.6981],[-84.264,14.7385],[-84.2392,14.7478],[-84.1924,14.726],[-84.1508,14.7204],[-84.1144,14.731],[-84.1003,14.7506],[-84.0929,14.7709],[-84.0658,14.7861],[-83.9723,14.7711],[-83.8673,14.7945],[-83.7509,14.8563],[-83.6736,14.8836],[-83.6355,14.8764],[-83.5897,14.9076],[-83.5365,14.977],[-83.415,15.0081],[-83.1575,14.9931]]}},{"type":"Feature","properties":{},"geometry":{"type":"LineString","coordinates":[[-57.5955,3.3685],[-57.596,3.3686],[-57.6028,3.371],[-57.6467,3.3945],[-57.6561,3.4237],[-57.6495,3.5174],[-57.7204,3.5883],[-57.8327,3.676],[-57.8666,3.7873],[-57.9077,3.8567],[-58.0322,4.0019],[-58.0543,4.1017],[-58.0545,4.1719],[-58.0107,4.2365],[-57.9498,4.3499],[-57.9247,4.4531],[-57.9063,4.5068],[-57.8747,4.5771],[-57.846,4.6682],[-57.8679,4.7243],[-57.9049,4.7793],[-57.9171,4.8204],[-57.8811,4.8806],[-57.8449,4.9231],[-57.8041,4.9291],[-57.752,4.9545],[-57.7111,4.9911],[-57.6489,5.0007],[-57.5709,5.0045],[-57.4122,5.0046],[-57.331,5.0202],[-57.3058,5.0496],[-57.3096,5.1059],[-57.2693,5.157],[-57.2269,5.1785],[-57.2098,5.1954],[-57.2073,5.2142],[-57.2184,5.2315],[-57.2353,5.2429],[-57.2796,5.2468],[-57.3186,5.3353],[-57.2919,5.374],[-57.2575,5.4451],[-57.2479,5.4853],[-57.1948,5.5484]]}},{"type":"Feature","properties":{},"geometry":{"type":"LineString","coordinates":[[-54.0821,3.3269],[-54.0632,3.3533],[-54.0095,3.4485],[-54.006,3.5305],[-53.9905,3.5895],[-54.0059,3.6204],[-54.0342,3.6294],[-54.082,3.706],[-54.1128,3.7694],[-54.1974,3.8344],[-54.2555,3.9011],[-54.3507,4.0541],[-54.3422,4.14],[-54.3692,4.1709],[-54.3984,4.2025],[-54.3962,4.2414],[-54.416,4.3376],[-54.4407,4.428],[-54.4496,4.485],[-54.4261,4.583],[-54.4403,4.692],[-54.4711,4.7493],[-54.4797,4.8365],[-54.4733,4.9147],[-54.4469,4.9588],[-54.4522,5.0135],[-54.3317,5.1874],[-54.2402,5.2882],[-54.156,5.359]]}},{"type":"Feature","properties":{},"geometry":{"type":"LineString","coordinates":[[-88.2283,15.729],[-88.2714,15.6949],[-88.3645,15.616],[-88.5333,15.4812],[-88.6845,15.3605],[-88.8299,15.251],[-88.961,15.1525],[-88.9764,15.1427],[-89.1426,15.0723],[-89.1703,15.0399],[-89.2061,14.9006],[-89.2224,14.8661],[-89.1922,14.7887],[-89.1622,14.6693],[-89.1718,14.6069],[-89.2867,14.53],[-89.3394,14.4607],[-89.3626,14.416]]}},{"type":"Feature","properties":{},"geometry":{"type":"LineString","coordinates":[[-77.3742,8.6583],[-77.3931,8.6447],[-77.4483,8.5659],[-77.4785,8.4984],[-77.4073,8.4272],[-77.3859,8.3517],[-77.3455,8.2695],[-77.2826,8.187],[-77.2123,8.0339],[-77.196,7.9725],[-77.216,7.9325],[-77.283,7.9081],[-77.3456,7.8365],[-77.3627,7.7491],[-77.3508,7.7058],[-77.5383,7.5663],[-77.5866,7.5431],[-77.6186,7.5646],[-77.6586,7.6346],[-77.7063,7.6912],[-77.732,7.7109],[-77.7469,7.7119],[-77.7619,7.6988],[-77.7688,7.6681],[-77.7439,7.537],[-77.7647,7.4837],[-77.8283,7.4428],[-77.9012,7.2294]]}},{"type":"Feature","properties":{},"geometry":{"type":"LineString","coordinates":[[-60.7421,5.202],[-60.954,5.4374],[-61.1672,5.6742],[-61.3768,5.907],[-61.3908,5.9388],[-61.3031,6.0495],[-61.225,6.1292],[-61.1595,6.1744],[-61.1287,6.2143],[-61.1523,6.3851],[-61.151,6.4465],[-61.1816,6.5134],[-61.2036,6.5884],[-61.1772,6.6509],[-61.1456,6.6946],[-61.1048,6.7114],[-61.0071,6.7266],[-60.938,6.7328],[-60.9136,6.7578],[-60.8734,6.7869],[-60.8209,6.7885],[-60.7179,6.7683],[-60.671,6.806],[-60.5861,6.8571],[-60.395,6.9454],[-60.3521,7.0029],[-60.322,7.092],[-60.3255,7.134],[-60.3451,7.15],[-60.3924,7.1645],[-60.4649,7.1665],[-60.5232,7.1437],[-60.5832,7.1562],[-60.6333,7.2111],[-60.6362,7.2566],[-60.6066,7.3208],[-60.6237,7.3633],[-60.7192,7.4987],[-60.7186,7.5359],[-60.6494,7.5966],[-60.6101,7.6483],[-60.5564,7.772],[-60.5136,7.8132],[-60.3806,7.8276],[-60.3468,7.854],[-60.2789,7.9194],[-60.1782,7.9941],[-60.0324,8.0536],[-59.9907,8.162],[-59.9649,8.1916],[-59.8491,8.2487],[-59.8289,8.2791],[-59.8316,8.306],[-60.0175,8.5493]]}},{"type":"Feature","properties":{},"geometry":{"type":"LineString","coordinates":[[-60.7421,5.202],[-60.712,5.1916],[-60.672,5.1644],[-60.635,5.082],[-60.6045,4.9946],[-60.6039,4.9494],[-60.6276,4.8925],[-60.6792,4.8271],[-60.7417,4.7741],[-60.8334,4.7292],[-60.9063,4.6868],[-60.9664,4.5747],[-61.0029,4.5353],[-61.0363,4.5193],[-61.1024,4.5047],[-61.2094,4.5081],[-61.2801,4.5169],[-61.3675,4.433],[-61.4794,4.4022],[-61.5542,4.2878],[-61.8208,4.197],[-62.0816,4.1263],[-62.1531,4.0984],[-62.4106,4.1567],[-62.4725,4.1385],[-62.544,4.0843],[-62.6097,4.0423],[-62.6653,4.0396],[-62.7121,4.0179],[-62.7399,3.9403],[-62.7646,3.673],[-62.857,3.5934],[-62.9686,3.594],[-63.0453,3.6865],[-63.1362,3.7564],[-63.2947,3.9222],[-63.3387,3.9439],[-63.3798,3.9429],[-63.5268,3.8937],[-63.5966,3.9151],[-63.6529,3.9408],[-63.747,3.9326],[-63.9146,3.9306],[-64.0215,3.9291],[-64.0734,3.9744],[-64.1217,4.067],[-64.1543,4.1002],[-64.1925,4.1268],[-64.2557,4.1403],[-64.5255,4.14],[-64.5764,4.1399],[-64.6136,4.1577],[-64.6655,4.2371],[-64.7222,4.2744],[-64.7887,4.276],[-64.8179,4.2323],[-64.7026,4.0893],[-64.669,4.0118],[-64.5679,3.8998],[-64.2753,3.6627],[-64.2211,3.5874],[-64.2271,3.4912],[-64.2288,3.344],[-64.2188,3.2047],[-64.1435,3.0049],[-64.0378,2.8015],[-64.009,2.6719],[-64.0287,2.5761],[-64.0488,2.5251],[-64.0466,2.5024],[-64.0249,2.4819],[-63.9242,2.4524],[-63.7126,2.434],[-63.5846,2.4339],[-63.3893,2.4119],[-63.3749,2.3404],[-63.3939,2.2225],[-63.4325,2.1556],[-63.4639,2.136],[-63.5702,2.1205],[-63.6822,2.0481],[-63.7915,2.0]]}},{"type":"Feature","properties":{},"geometry":{"type":"LineString","coordinates":[[-84.3483,10.9799],[-84.4018,10.9745],[-84.4892,10.9916],[-84.6342,11.0456],[-84.7012,11.0522],[-84.7974,11.0059],[-84.9092,10.9453],[-85.179,11.0399],[-85.3684,11.1065],[-85.5387,11.1663],[-85.5842,11.1894],[-85.6214,11.1845],[-85.6537,11.1531],[-85.6906,11.0975],[-85.7026,11.0815],[-85.7223,11.0663],[-85.7443,11.0621]]}},{"type":"Feature","properties":{},"geometry":{"type":"LineString","coordinates":[[-82.8794,8.0707],[-82.8833,8.1306],[-82.9129,8.1996],[-82.9484,8.2569],[-83.0234,8.316],[-83.0273,8.3377],[-82.9975,8.3678],[-82.8616,8.4535],[-82.8448,8.4894],[-82.8426,8.5639],[-82.8557,8.6353],[-82.917,8.7403],[-82.882,8.8053],[-82.8119,8.8574],[-82.74,8.8986],[-82.7278,8.916],[-82.7411,8.9517],[-82.7831,8.9903],[-82.8813,9.0559],[-82.9404,9.0601],[-82.9428,9.2489],[-82.9399,9.4492],[-82.925,9.469],[-82.8889,9.481],[-82.8601,9.5115],[-82.844,9.5708],[-82.801,9.5918],[-82.7234,9.5461],[-82.6441,9.5059],[-82.6113,9.5192],[-82.5865,9.5388],[-82.5692,9.5582],[-82.5636,9.5767]]}},{"type":"Feature","properties":{},"geometry":{"type":"LineString","coordinates":[[-67.1314,2.0],[-67.1138,2.0506],[-67.1314,2.1013],[-67.1655,2.1426],[-67.2152,2.2755],[-67.1976,2.3328],[-67.2108,2.3901],[-67.2528,2.4295],[-67.3122,2.4717],[-67.3916,2.5599],[-67.4864,2.6437],[-67.5349,2.6767],[-67.568,2.69],[-67.5967,2.7693],[-67.6187,2.7936],[-67.6672,2.8002],[-67.7665,2.8333],[-67.8591,2.7936],[-67.8613,2.8553],[-67.8348,2.8928],[-67.5148,3.1872],[-67.3536,3.3227],[-67.3363,3.3426],[-67.3222,3.374],[-67.3112,3.4159],[-67.3477,3.4638],[-67.4987,3.6911],[-67.5511,3.7338],[-67.6026,3.7688],[-67.6616,3.8643],[-67.7323,4.0865],[-67.7832,4.1982],[-67.7986,4.2839],[-67.7954,4.3807],[-67.8143,4.4551],[-67.8553,4.5069],[-67.8553,4.6655],[-67.8143,4.9308],[-67.8042,5.1325],[-67.8249,5.2705],[-67.7884,5.3755],[-67.6946,5.4475],[-67.6423,5.5588],[-67.6313,5.7094],[-67.5752,5.8331],[-67.4739,5.93],[-67.4394,6.0255],[-67.4716,6.1198],[-67.482,6.1803],[-67.5681,6.2418],[-67.7272,6.2849],[-67.8592,6.2899],[-67.9389,6.2419],[-68.1431,6.1975],[-68.4718,6.1565],[-68.7365,6.1568],[-68.9372,6.1982],[-69.0899,6.1844],[-69.1945,6.1153],[-69.2681,6.0997],[-69.3108,6.1376],[-69.3571,6.148],[-69.4271,6.124],[-69.4392,6.1349],[-69.5948,6.3215],[-69.739,6.4944],[-69.9042,6.7003],[-70.095,6.9379],[-70.1292,6.9536],[-70.1881,6.952],[-70.2661,6.9479],[-70.3875,6.9726],[-70.4707,7.0071],[-70.5355,7.0406],[-70.6551,7.0828],[-70.7371,7.0901],[-70.8107,7.0776],[-71.0133,6.9945],[-71.1286,6.9867],[-71.2178,6.9852],[-71.4572,7.0263],[-71.6209,7.0329],[-71.8113,7.0058],[-71.8927,6.9903],[-72.0066,7.0326],[-72.0843,7.0969],[-72.1567,7.2497],[-72.2077,7.3702],[-72.2963,7.3945],[-72.3946,7.4151],[-72.443,7.4549],[-72.472,7.5243],[-72.479,7.6132],[-72.4689,7.758],[-72.4596,7.8099],[-72.446,7.9661],[-72.3917,8.0477],[-72.3576,8.0873],[-72.3642,8.1528],[-72.3904,8.287],[-72.4166,8.382],[-72.5257,8.4897],[-72.6654,8.6276],[-72.7255,8.8483],[-72.7964,9.109],[-72.8521,9.1352],[-72.9045,9.1221],[-72.9601,9.1352],[-73.0093,9.24],[-73.0584,9.2596],[-73.1367,9.2228],[-73.1932,9.1941],[-73.3367,9.1679],[-73.3662,9.1941],[-73.3563,9.2269],[-73.2956,9.322],[-73.2243,9.4436],[-73.1413,9.5546],[-73.0641,9.6682],[-73.0065,9.7891],[-72.9674,10.0297],[-72.9404,10.1958],[-72.8693,10.4912],[-72.7391,10.7272],[-72.6901,10.8359],[-72.5723,10.9772],[-72.518,11.0539],[-72.4461,11.1143],[-72.2485,11.1964],[-72.0123,11.6019],[-71.9581,11.6664],[-71.7195,11.7268],[-71.5361,11.7741],[-71.4002,11.8235],[-71.3556,11.8497],[-71.3197,11.8619]]}},{"type":"Feature","properties":{},"geometry":{"type":"LineString","coordinates":[[-130.622,54.7089],[-130.5753,54.7697],[-130.4932,54.8342],[-130.3125,54.9459],[-130.2141,55.0259],[-130.064,55.2261],[-130.0179,55.2849],[-130.0149,55.3317],[-130.0218,55.3718],[-130.0376,55.4165],[-130.0685,55.4828],[-130.11,55.5809],[-130.1225,55.691],[-130.0916,55.7862],[-130.0251,55.8882],[-130.0141,55.9505],[-130.0229,56.0145],[-130.056,56.0652],[-130.0979,56.1093],[-130.2147,56.0828],[-130.4131,56.1225],[-130.4771,56.2306],[-130.6491,56.2637],[-130.7417,56.3408],[-130.9302,56.3786],[-131.0829,56.4048],[-131.1994,56.4492],[-131.3358,56.5012],[-131.4719,56.5567],[-131.5751,56.5988],[-131.6515,56.5961],[-131.8243,56.59],[-131.8331,56.6848],[-131.886,56.7421],[-131.8662,56.7928],[-131.9625,56.8187],[-132.1043,56.8568],[-132.0629,56.9534],[-132.0315,57.0265],[-132.157,57.0482],[-132.338,57.0795],[-132.2794,57.1453],[-132.2322,57.1985],[-132.3017,57.2763],[-132.4425,57.4067],[-132.5505,57.4999],[-132.6915,57.6451],[-132.8155,57.7727],[-132.9168,57.877],[-133.0014,57.949],[-133.1204,58.0777],[-133.2753,58.2229],[-133.4226,58.3371],[-133.4011,58.4109],[-133.5464,58.5035],[-133.6739,58.5971],[-133.8207,58.705],[-133.9657,58.7579],[-134.0692,58.7955],[-134.2185,58.8499],[-134.297,58.8985],[-134.3296,58.9397],[-134.3635,58.9687],[-134.3931,59.0092],[-134.4102,59.0562],[-134.4408,59.0853],[-134.622,59.1553],[-134.6772,59.1993],[-134.8024,59.25],[-134.9072,59.2712],[-134.9438,59.2883],[-135.0713,59.4414],[-135.0508,59.4961],[-135.0367,59.5507],[-135.051,59.5787],[-135.2608,59.695],[-135.3679,59.7433],[-135.4759,59.7933],[-135.7026,59.7288],[-135.9346,59.6626],[-136.0972,59.6384],[-136.3218,59.6048],[-136.2471,59.5329],[-136.278,59.4803],[-136.3478,59.456],[-136.4663,59.4591],[-136.4667,59.2799],[-136.5787,59.1523],[-136.8133,59.15],[-136.9393,59.1061],[-137.1262,59.0409],[-137.2776,58.9882],[-137.4386,58.9031],[-137.5209,58.9154],[-137.4842,58.9912],[-137.5437,59.1194],[-137.5933,59.2263],[-137.6966,59.2811],[-137.8706,59.3736],[-138.0011,59.4429],[-138.1875,59.5419],[-138.3176,59.6111],[-138.4536,59.6834],[-138.6323,59.7783],[-138.7055,59.9013],[-138.8688,59.9457],[-139.0434,59.9932],[-139.054,60.0]]}},{"type":"Feature","properties":{},"geometry":{"type":"LineString","coordinates":[[-123.3136,48.993],[-123.1821,48.993],[-123.0864,48.993],[-123.0492,48.993],[-122.9417,48.993],[-122.7888,48.993],[-122.6864,48.993]]}},{"type":"Feature","properties":{},"geometry":{"type":"LineString","coordinates":[[-88.8941,15.8906],[-88.9372,15.8898],[-89.1136,15.9007],[-89.2328,15.8887],[-89.2375,15.8944],[-89.2276,16.1428],[-89.2124,16.5271],[-89.2013,16.809],[-89.1904,17.0847],[-89.1822,17.2912],[-89.1711,17.5723],[-89.1615,17.8148]]}},{"type":"Feature","properties":{},"geometry":{"type":"LineString","coordinates":[[-67.301,2.0],[-67.3206,2.0321],[-67.3519,2.0858],[-67.4004,2.1167],[-67.4578,2.1211],[-67.4996,2.1079],[-67.5561,2.073],[-67.6092,2.0351],[-67.6411,2.0]]}},{"type":"Feature","properties":{},"geometry":{"type":"LineString","coordinates":[[-117.1283,32.5334],[-116.8421,32.5548],[-116.556,32.5762],[-116.2698,32.5976],[-115.9837,32.619],[-115.6975,32.6405],[-115.4114,32.6619],[-115.1252,32.6833],[-114.8391,32.7047],[-114.7248,32.7153],[-114.788,32.5648],[-114.836,32.5083],[-114.3617,32.3603],[-113.8875,32.2123],[-113.4132,32.0643],[-112.939,31.9163],[-112.4647,31.7682],[-111.9905,31.6202],[-111.5162,31.4722],[-111.042,31.3242],[-110.6885,31.3249],[-110.3351,31.3255],[-109.9817,31.3261],[-109.6282,31.3268],[-109.2748,31.3275],[-109.0478,31.3279],[-108.9213,31.3281],[-108.5679,31.3288],[-108.2144,31.3294],[-108.2138,31.4419],[-108.2132,31.5544],[-108.2125,31.6669],[-108.2118,31.7793],[-107.992,31.7782],[-107.7722,31.777],[-107.5524,31.7759],[-107.3325,31.7748],[-107.1127,31.7736],[-106.8929,31.7725],[-106.673,31.7713],[-106.4532,31.7702],[-106.4454,31.7684],[-106.436,31.7645],[-106.347,31.679],[-106.2557,31.5447],[-106.1481,31.4509],[-106.0241,31.3978],[-105.8127,31.241],[-105.514,30.9808],[-105.2758,30.8073],[-105.0982,30.7206],[-104.9788,30.6459],[-104.9179,30.5834],[-104.8359,30.4477],[-104.6813,30.1344],[-104.6813,29.9905],[-104.6222,29.8543],[-104.504,29.6777],[-104.4006,29.5738],[-104.3122,29.5424],[-104.2155,29.4799],[-104.1106,29.3861],[-103.9897,29.3232],[-103.8529,29.2911],[-103.664,29.2069],[-103.4229,29.0707],[-103.2577,29.0011],[-103.1683,28.9982],[-103.09,29.0419],[-103.0228,29.1322],[-102.9568,29.1904],[-102.892,29.2164],[-102.8657,29.258],[-102.8778,29.3153],[-102.834,29.444],[-102.7342,29.644],[-102.6149,29.7523],[-102.4762,29.7691],[-102.3857,29.8067],[-102.3431,29.865],[-102.2689,29.8712],[-102.1631,29.8253],[-101.9909,29.7957],[-101.7523,29.7825],[-101.6116,29.787],[-101.5687,29.8092],[-101.5464,29.8081],[-101.5446,29.7835],[-101.5093,29.7731],[-101.4404,29.7768],[-101.3803,29.7426],[-101.3035,29.6341],[-101.039,29.4604],[-101.0386,29.4603],[-101.0163,29.4007],[-100.9241,29.3147],[-100.7546,29.1825],[-100.6586,29.0685],[-100.6363,28.9728],[-100.5497,28.8213],[-100.3989,28.6142],[-100.3317,28.5025],[-100.3482,28.4864],[-100.3363,28.4281],[-100.296,28.3277],[-100.2213,28.2426],[-100.1119,28.173],[-100.0014,28.0478],[-99.8896,27.8673],[-99.7543,27.7299],[-99.5953,27.6359],[-99.5053,27.5483],[-99.4843,27.4674],[-99.4858,27.398],[-99.5101,27.3403],[-99.4998,27.2855],[-99.4551,27.2337],[-99.4403,27.1701],[-99.4577,27.0817],[-99.4565,27.0567],[-99.4565,27.0566],[-99.4435,27.0367],[-99.3025,26.8847],[-99.2299,26.7619],[-99.1724,26.5659],[-99.1721,26.5641],[-99.1078,26.4469],[-99.0153,26.399],[-98.8732,26.3812],[-98.7652,26.3404],[-98.6914,26.2765],[-98.5983,26.2379],[-98.4859,26.2246],[-98.3781,26.1824],[-98.275,26.1112],[-98.0828,26.0644],[-97.8014,26.0421],[-97.5872,25.9842],[-97.4403,25.8908],[-97.3756,25.8718],[-97.3582,25.8705],[-97.3497,25.8848],[-97.3387,25.9112],[-97.2818,25.9416],[-97.1462,25.9615]]}},{"type":"Feature","properties":{},"geometry":{"type":"LineString","coordinates":[[-92.2351,14.5454],[-92.209,14.571],[-92.1871,14.6301],[-92.1599,14.691],[-92.1765,14.7613],[-92.1864,14.8184],[-92.1557,14.9013],[-92.1586,14.9636],[-92.1442,15.0019],[-92.0987,15.0267],[-92.0748,15.0742],[-92.2043,15.2377],[-92.2043,15.275],[-92.1872,15.3209],[-92.0822,15.4956],[-91.9573,15.7032],[-91.8194,15.9324],[-91.7366,16.0702],[-91.434,16.0704],[-91.2338,16.0706],[-90.9796,16.0708],[-90.7032,16.0711],[-90.522,16.0712],[-90.4472,16.0727],[-90.4599,16.1624],[-90.4501,16.2614],[-90.417,16.3513],[-90.417,16.391],[-90.4711,16.4396],[-90.5758,16.4678],[-90.6341,16.5107],[-90.6344,16.5651],[-90.66,16.6309],[-90.7107,16.7081],[-90.816,16.7871],[-90.9758,16.8678],[-91.1119,16.9762],[-91.2242,17.1123],[-91.3192,17.1998],[-91.3923,17.2364],[-91.4096,17.2559],[-91.1955,17.2541],[-90.993,17.2524],[-90.9916,17.4475],[-90.9904,17.6207],[-90.9891,17.8164],[-90.622,17.8161],[-90.1836,17.8157],[-89.7288,17.8153],[-89.3715,17.815],[-89.1615,17.8148],[-89.1624,17.902],[-89.1335,17.9708],[-89.0504,17.9997],[-88.9426,17.9396],[-88.8978,17.9145],[-88.8574,17.9288],[-88.8063,17.9655],[-88.7436,18.0716],[-88.5862,18.2905],[-88.523,18.4459],[-88.4613,18.4768],[-88.3724,18.4823],[-88.2957,18.4724],[-88.2489,18.4133],[-88.0396,18.4164],[-88.0418,18.1954],[-87.8256,18.1815]]}},{"type":"Feature","properties":{},"geometry":{"type":"LineString","coordinates":[[-84.3483,10.9799],[-84.2555,10.9007],[-84.205,10.8413],[-84.1966,10.8017],[-84.1683,10.7804],[-84.0962,10.7757],[-83.9193,10.7354],[-83.8112,10.7432],[-83.7129,10.7859],[-83.6589,10.8369],[-83.642,10.9172]]}},{"type":"Feature","properties":{},"geometry":{"type":"LineString","coordinates":[[-122.6864,48.993],[-122.26,48.993],[-121.8336,48.993],[-121.4072,48.993],[-120.9809,48.993],[-120.5545,48.993],[-120.1281,48.993],[-119.7017,48.993],[-119.2753,48.9931],[-118.8489,48.9931],[-118.4226,48.9931],[-117.9962,48.9931],[-117.5698,48.9931],[-117.1434,48.9931],[-117.0391,48.9931],[-116.717,48.9931],[-116.2906,48.9931],[-116.0485,48.9931],[-115.8643,48.9931],[-115.4379,48.9931],[-115.0115,48.9931],[-114.5851,48.9931],[-114.1587,48.9931],[-114.0625,48.9931],[-113.7324,48.9931],[-113.306,48.9931],[-112.8796,48.9931],[-112.4532,48.9931],[-112.0268,48.9931],[-111.6004,48.9931],[-111.1741,48.9931],[-110.7477,48.9931],[-110.3213,48.9931],[-109.9994,48.9931],[-109.8949,48.9931],[-109.4685,48.9931],[-109.0422,48.9931],[-108.6158,48.9931],[-108.1894,48.9931],[-107.763,48.9931],[-107.3366,48.9931],[-106.9102,48.9931],[-106.4839,48.9931],[-106.0575,48.9931],[-105.6311,48.9931],[-105.2047,48.9931],[-104.7783,48.9931],[-104.3519,48.9931],[-104.0339,48.9931],[-103.9256,48.9931],[-103.4992,48.9931],[-103.0728,48.9931],[-102.6464,48.9931],[-102.22,48.9931],[-101.7937,48.9931],[-101.3673,48.9931],[-100.9409,48.9931],[-100.5145,48.9931],[-100.0881,48.9931],[-99.6617,48.9931],[-99.2354,48.9931],[-98.809,48.9932],[-98.3826,48.9932],[-97.9562,48.9932],[-97.5298,48.9932],[-97.1034,48.9932],[-96.6771,48.9932],[-96.2507,48.9932],[-95.8243,48.9932],[-95.3979,48.9932],[-95.162,48.9918],[-95.1582,49.2031],[-95.1553,49.3697],[-94.9393,49.3494],[-94.8748,49.319],[-94.8543,49.3046],[-94.8604,49.2586],[-94.8426,49.1192],[-94.8035,49.003],[-94.7128,48.8634],[-94.7126,48.863],[-94.7051,48.8085],[-94.6754,48.7744],[-94.6209,48.7426],[-94.4142,48.7041],[-94.0552,48.659],[-93.8516,48.6073],[-93.8035,48.5489],[-93.7077,48.5255],[-93.5643,48.5369],[-93.4636,48.5613],[-93.3778,48.6166],[-93.2579,48.6289],[-93.1552,48.6254],[-93.0517,48.6199],[-92.9963,48.6118],[-92.8367,48.5678],[-92.7327,48.5318],[-92.5833,48.4651],[-92.5006,48.4353],[-92.4609,48.3659],[-92.4146,48.2766],[-92.3484,48.2766],[-92.2987,48.3289],[-92.1718,48.3384],[-92.0052,48.3018],[-91.8584,48.1976],[-91.6473,48.1046],[-91.5183,48.0583],[-91.3872,48.0585],[-91.2207,48.1046],[-91.0435,48.1937],[-90.916,48.2092],[-90.8403,48.2005],[-90.7973,48.1311],[-90.7444,48.1046],[-90.6071,48.1126],[-90.3201,48.0992],[-90.0918,48.1181],[-90.04,48.0782],[-89.9936,48.0153],[-89.901,47.9955],[-89.7754,48.0153],[-89.5506,47.9999],[-89.4984,47.9979],[-89.4556,47.9962],[-89.2732,48.02],[-89.1856,48.0474],[-89.0626,48.0938],[-88.8987,48.1557],[-88.6118,48.264],[-88.3782,48.3031],[-88.1607,48.2254],[-87.9875,48.1569],[-87.9205,48.1304],[-87.7439,48.0605],[-87.4942,47.9618],[-87.208,47.8485],[-86.9218,47.7352],[-86.6722,47.6364],[-86.4956,47.5666],[-86.4286,47.5401],[-86.2345,47.46],[-86.0404,47.38],[-85.8463,47.3],[-85.6523,47.22],[-85.4582,47.14],[-85.2641,47.0599],[-85.07,46.9799],[-84.876,46.8999],[-84.8271,46.7669],[-84.7794,46.6373],[-84.6658,46.5433],[-84.5618,46.4574],[-84.5016,46.4619],[-84.4405,46.4981],[-84.4017,46.5156],[-84.3367,46.5185],[-84.1922,46.5496],[-84.1495,46.5428],[-84.1252,46.5272],[-84.1232,46.5029],[-84.1281,46.4836],[-84.1505,46.4448],[-84.1152,46.3708],[-84.1078,46.2886],[-84.0884,46.2265],[-84.0292,46.147],[-83.9778,46.0849],[-83.913,46.0729],[-83.7632,46.1091],[-83.6693,46.1227],[-83.6159,46.1168],[-83.5248,46.0587],[-83.4801,46.0238],[-83.4695,45.9947],[-83.5927,45.8172],[-83.3973,45.729],[-83.1793,45.6328],[-82.9194,45.518],[-82.7604,45.4477],[-82.5511,45.3474],[-82.5152,45.2044],[-82.4851,45.0838],[-82.4466,44.9155],[-82.4074,44.7439],[-82.3683,44.573],[-82.3268,44.3916],[-82.2812,44.1922],[-82.2408,44.0153],[-82.1966,43.8222],[-82.1378,43.5709],[-82.1904,43.4741],[-82.3048,43.2632],[-82.4082,43.0726],[-82.4172,43.0174],[-82.4883,42.7395],[-82.5453,42.6247],[-82.6451,42.558],[-82.7442,42.4935],[-82.8678,42.3852],[-83.0037,42.3317],[-83.0731,42.3003],[-83.1095,42.2507],[-83.1497,42.1419],[-83.1419,41.9759],[-83.1217,41.95],[-83.03,41.833],[-82.8662,41.753],[-82.69,41.6752],[-82.4391,41.6749],[-82.2133,41.7787],[-81.9742,41.8887],[-81.7609,41.9868],[-81.5073,42.1035],[-81.2776,42.2092],[-81.0282,42.2472],[-80.6826,42.2998],[-80.5208,42.3244],[-80.2476,42.366],[-80.0357,42.4415],[-79.762,42.539],[-79.4462,42.6515],[-79.1737,42.7485],[-79.0367,42.8023],[-78.9392,42.8637],[-78.9151,42.9091],[-78.9209,42.9352],[-78.946,42.9613],[-78.9808,42.9806],[-79.0117,42.997],[-79.0262,43.0173],[-79.0291,43.0618],[-79.048,43.0873],[-79.066,43.1061],[-79.0592,43.2781],[-79.083,43.3314],[-79.1719,43.4666],[-79.0025,43.5272],[-78.8456,43.5833],[-78.7204,43.6249],[-78.4583,43.6315],[-78.2148,43.6307],[-77.8792,43.6296],[-77.5965,43.6286],[-77.2667,43.6275],[-77.0734,43.6268],[-76.82,43.6288],[-76.6965,43.7848],[-76.5861,43.9243],[-76.4646,44.0576],[-76.2485,44.2141],[-76.1858,44.2422],[-76.1512,44.3039],[-76.0202,44.3626],[-75.8759,44.417],[-75.8193,44.468],[-75.792,44.4971],[-75.4013,44.7723],[-75.1794,44.8994],[-74.9961,44.9701],[-74.8566,45.0039],[-74.7625,44.9991],[-74.7089,45.0039],[-74.6632,45.0039],[-74.4304,45.0042],[-74.0143,45.0047],[-73.5981,45.0052],[-73.3522,45.0054],[-73.182,45.0056],[-72.7659,45.0061],[-72.3498,45.0066],[-71.9336,45.0071],[-71.5175,45.0076],[-71.419,45.2003],[-71.3273,45.2901],[-71.2016,45.2603],[-71.1346,45.2628],[-71.0845,45.294],[-71.0602,45.3091],[-70.9999,45.3372],[-70.9602,45.3331],[-70.9262,45.2907],[-70.898,45.2625],[-70.865,45.2707],[-70.8368,45.3107],[-70.8378,45.3662],[-70.7992,45.4048],[-70.7533,45.4107],[-70.7109,45.4095],[-70.6898,45.4283],[-70.6921,45.4554],[-70.7074,45.4989],[-70.7022,45.5514],[-70.5964,45.644],[-70.4666,45.7068],[-70.4211,45.7382],[-70.4079,45.8019],[-70.3335,45.8681],[-70.2962,45.9061],[-70.2872,45.9392],[-70.3064,45.9798],[-70.3045,46.0574],[-70.2789,46.15],[-70.2483,46.2509],[-70.1797,46.3418],[-70.0672,46.441],[-70.0382,46.5714],[-70.0077,46.7089],[-69.8717,46.8429],[-69.7175,46.9949],[-69.6298,47.0814],[-69.4715,47.2387],[-69.3589,47.3507],[-69.3021,47.402],[-69.2429,47.463],[-69.1463,47.4448],[-69.0502,47.4266],[-69.0643,47.3381],[-69.0537,47.2946],[-69.0486,47.2737],[-69.0031,47.2364],[-68.9372,47.2113],[-68.8874,47.2028],[-68.8287,47.2033],[-68.6685,47.2534],[-68.4804,47.2858],[-68.3769,47.3162],[-68.358,47.3445],[-68.3109,47.3545],[-68.2355,47.3459],[-68.0968,47.2748],[-67.9348,47.1676],[-67.8068,47.0828],[-67.8029,46.9357],[-67.8004,46.7799],[-67.7977,46.6156],[-67.7958,46.4984],[-67.7925,46.3374],[-67.7899,46.2093],[-67.7865,46.0422],[-67.7846,45.9528],[-67.767,45.927],[-67.7776,45.8918],[-67.7823,45.8742],[-67.7811,45.8601],[-67.7741,45.8425],[-67.7753,45.8179],[-67.7917,45.7956],[-67.7999,45.7698],[-67.8022,45.7275],[-67.7846,45.7017],[-67.7553,45.6865],[-67.7307,45.6865],[-67.699,45.6712],[-67.6579,45.6442],[-67.5957,45.6207],[-67.5312,45.6125],[-67.4866,45.6184],[-67.4326,45.6031],[-67.4139,45.5656],[-67.4244,45.5304],[-67.4549,45.514],[-67.4878,45.501],[-67.4937,45.4741],[-67.4772,45.4459],[-67.4538,45.4213],[-67.4279,45.378],[-67.4385,45.3404],[-67.462,45.3087],[-67.4725,45.2759],[-67.4526,45.2477],[-67.3998,45.2102],[-67.3669,45.1738],[-67.3153,45.1538],[-67.2907,45.1679],[-67.2707,45.1867],[-67.2496,45.2008],[-67.2132,45.1925],[-67.171,45.182],[-67.1248,45.1694]]}},{"type":"Feature","properties":{},"geometry":{"type":"LineString","coordinates":[[-56.5559,2.0],[-56.5627,2.0051],[-56.6272,2.016],[-56.7044,2.0365],[-56.7612,2.1149],[-56.8198,2.2266],[-56.8405,2.2771],[-56.8864,2.326],[-56.9315,2.3954],[-56.9452,2.4568],[-56.9793,2.5132],[-56.9971,2.5322],[-57.0235,2.609],[-57.0289,2.6375],[-57.0419,2.6411],[-57.0604,2.6657],[-57.0969,2.7478],[-57.1051,2.7683],[-57.1211,2.7755],[-57.1636,2.8333],[-57.1974,2.8533],[-57.2098,2.8828],[-57.2069,2.9634],[-57.225,3.0031],[-57.2306,3.0786],[-57.2316,3.1089],[-57.249,3.1423],[-57.2779,3.1643],[-57.2829,3.2189],[-57.29,3.3536],[-57.3037,3.3771],[-57.4256,3.3755],[-57.4379,3.3623],[-57.4906,3.3543],[-57.5496,3.3528],[-57.5955,3.3685]]}},{"type":"Feature","properties":{},"geometry":{"type":"LineString","coordinates":[[-54.6163,2.3268],[-54.6047,2.3358],[-54.5684,2.3426],[-54.536,2.3433],[-54.4856,2.4161],[-54.402,2.4615],[-54.2567,2.7137],[-54.1955,2.8179],[-54.1881,2.8749],[-54.1707,2.9936],[-54.2031,3.1382],[-54.188,3.1788],[-54.0836,3.3248],[-54.0821,3.3269]]}}]}