{"type":"FeatureCollection","features":[{"type":"Feature","properties":{},"geometry":{"type":"Polygon","coordinates":[[[-77.1074,42.521],[-77.191,42.4254],[-77.203,42.4374],[-77.1699,42.512],[-77.1481,42.5684],[-77.1134,42.5688],[-77.0775,42.6485],[-77.0576,42.6445],[-77.1074,42.521]]]}},{"type":"Feature","properties":{},"geometry":{"type":"Polygon","coordinates":[[[-98.0158,50.3041],[-98.0721,50.2741],[-98.1506,50.2403],[-98.2422,50.2139],[-98.3301,50.2018],[-98.4019,50.2035],[-98.4546,50.211],[-98.5193,50.242],[-98.5515,50.2871],[-98.5486,50.4213],[-98.5681,50.4884],[-98.608,50.5676],[-98.716,50.7374],[-98.8147,50.864],[-98.8532,50.9455],[-98.9409,51.0076],[-98.9909,51.0763],[-99.0065,51.1139],[-99.0082,51.1395],[-98.9883,51.1523],[-98.941,51.1154],[-98.8812,51.0369],[-98.8672,51.0279],[-98.8472,51.0391],[-98.8294,51.0719],[-98.8361,51.0998],[-98.8564,51.1091],[-98.8969,51.1881],[-98.9529,51.2021],[-98.9788,51.2229],[-99.026,51.2672],[-99.0772,51.3394],[-99.1375,51.5031],[-99.1625,51.5435],[-99.2576,51.5626],[-99.3195,51.617],[-99.3698,51.6354],[-99.4255,51.6271],[-99.5266,51.5462],[-99.5416,51.5781],[-99.5381,51.6604],[-99.5491,51.6993],[-99.5454,51.7137],[-99.491,51.7576],[-99.443,51.7773],[-99.39,51.7812],[-99.3377,51.7588],[-99.2915,51.7156],[-99.2389,51.6463],[-99.2173,51.6362],[-99.1806,51.6527],[-99.1659,51.6754],[-99.1773,51.7625],[-99.1663,51.7767],[-99.1054,51.7361],[-99.064,51.6864],[-98.999,51.5106],[-98.9561,51.4326],[-98.9182,51.3953],[-98.907,51.4039],[-98.9013,51.428],[-98.9105,51.5127],[-98.9717,51.6755],[-98.9292,51.7022],[-98.8937,51.7089],[-98.8648,51.7075],[-98.8328,51.6843],[-98.7896,51.6387],[-98.7575,51.5878],[-98.7522,51.5521],[-98.7794,51.4657],[-98.7775,51.4101],[-98.7539,51.3628],[-98.7049,51.3259],[-98.5915,51.269],[-98.5718,51.2433],[-98.583,51.2181],[-98.633,51.165],[-98.6691,51.1037],[-98.7182,51.0878],[-98.7236,51.0592],[-98.7539,51.0163],[-98.7605,50.995],[-98.7404,50.9347],[-98.7202,50.9117],[-98.5002,50.86],[-98.4101,50.8233],[-98.2438,50.719],[-98.1735,50.6604],[-98.0714,50.5516],[-97.9712,50.4701],[-97.9508,50.4199],[-97.9592,50.3572],[-98.0158,50.3041]]]}},{"type":"Feature","properties":{},"geometry":{"type":"Polygon","coordinates":[[[-99.7748,51.5896],[-99.8576,51.6431],[-99.9351,51.7175],[-99.9504,51.7629],[-99.8988,51.8409],[-99.9534,51.9993],[-99.9841,52.0403],[-99.9998,52.0444],[-100.0054,52.0157],[-99.9844,51.8123],[-99.9987,51.7441],[-100.011,51.7308],[-100.0254,51.7273],[-100.0492,51.7555],[-100.1134,51.8907],[-100.1592,52.1159],[-100.165,52.2542],[-100.1557,52.3057],[-100.1363,52.3513],[-100.0268,52.4639],[-99.9923,52.5665],[-100.0453,52.6485],[-100.0624,52.7628],[-100.0957,52.7955],[-100.2413,52.8648],[-100.2683,52.8717],[-100.2917,52.859],[-100.3257,52.8332],[-100.3429,52.807],[-100.3257,52.7937],[-100.2787,52.7818],[-100.2422,52.6398],[-100.2608,52.6212],[-100.2751,52.6233],[-100.3007,52.6508],[-100.3392,52.6716],[-100.3583,52.713],[-100.4175,52.7729],[-100.4395,52.9244],[-100.4532,52.953],[-100.5226,52.9675],[-100.5639,52.9962],[-100.5995,52.998],[-100.6654,52.9802],[-100.6668,52.9594],[-100.6211,52.886],[-100.678,52.7784],[-100.7462,52.7517],[-100.8234,52.753],[-100.8394,52.7668],[-100.8254,52.7985],[-100.8331,52.8125],[-100.9146,52.8144],[-100.941,52.8445],[-100.9925,52.8804],[-100.984,52.9308],[-100.9939,52.9867],[-101.0068,53.0083],[-101.1018,53.0808],[-101.0907,53.1001],[-101.0506,53.1235],[-100.9637,53.1473],[-100.8952,53.0985],[-100.8199,53.0906],[-100.7255,53.0978],[-100.644,53.1151],[-100.5897,53.1382],[-100.5435,53.1705],[-100.515,53.1711],[-100.3346,53.1071],[-100.1052,53.0542],[-99.8435,52.9746],[-99.7905,52.9454],[-99.7568,52.9134],[-99.6992,52.9151],[-99.6849,52.9103],[-99.6781,52.8998],[-99.7049,52.8119],[-99.6619,52.6098],[-99.661,52.5385],[-99.6755,52.4729],[-99.7134,52.4074],[-99.8389,52.243],[-99.8269,52.1515],[-99.8089,52.0946],[-99.7493,52.0277],[-99.7444,52.0047],[-99.7444,51.9729],[-99.7556,51.9386],[-99.7976,51.8758],[-99.8027,51.8302],[-99.7812,51.7611],[-99.746,51.7521],[-99.6659,51.8537],[-99.6469,51.8425],[-99.6424,51.7201],[-99.62,51.651],[-99.6241,51.6285],[-99.6445,51.6166],[-99.6741,51.6131],[-99.7748,51.5896]]]}},{"type":"Feature","properties":{},"geometry":{"type":"Polygon","coordinates":[[[-68.2165,51.3451],[-68.2044,51.3058],[-68.2228,51.265],[-68.3133,51.192],[-68.3523,51.149],[-68.4472,51.1202],[-68.5287,51.0746],[-68.6422,50.9907],[-68.7398,50.716],[-68.7441,50.7763],[-68.7351,50.8418],[-68.7428,50.9216],[-68.7822,51.0039],[-68.8681,51.0939],[-68.9952,51.1804],[-69.1484,51.2743],[-69.1756,51.3237],[-69.1605,51.3909],[-69.1336,51.5183],[-69.1548,51.5801],[-69.2498,51.6822],[-69.2325,51.6995],[-69.2019,51.6844],[-69.1383,51.6563],[-69.1179,51.6605],[-69.099,51.7088],[-69.0916,51.8133],[-69.063,51.838],[-69.0427,51.6755],[-69.0104,51.6333],[-68.9787,51.6307],[-68.9348,51.6484],[-68.856,51.7206],[-68.8075,51.683],[-68.7678,51.6837],[-68.6996,51.6914],[-68.636,51.7098],[-68.5961,51.7564],[-68.535,51.7552],[-68.5007,51.8108],[-68.4569,51.8828],[-68.4368,51.874],[-68.4288,51.8588],[-68.4431,51.8178],[-68.4834,51.702],[-68.4611,51.6724],[-68.3187,51.6417],[-68.2518,51.6859],[-68.2065,51.7069],[-68.1966,51.6921],[-68.269,51.6151],[-68.2673,51.5724],[-68.2909,51.5366],[-68.2857,51.5071],[-68.2513,51.4655],[-68.2551,51.3985],[-68.2165,51.3451]],[[-68.58,51.4568],[-68.5624,51.4804],[-68.5394,51.4732],[-68.4729,51.4016],[-68.4363,51.3763],[-68.3914,51.3676],[-68.4073,51.4418],[-68.3965,51.5033],[-68.4045,51.5319],[-68.4865,51.5911],[-68.6055,51.6306],[-68.7215,51.6322],[-68.7829,51.6202],[-68.8441,51.6],[-68.9594,51.5355],[-69.0545,51.4721],[-69.1015,51.4103],[-69.0916,51.3683],[-69.0627,51.3321],[-69.0463,51.3023],[-69.0146,51.2796],[-68.9244,51.2415],[-68.8647,51.1981],[-68.7576,51.1648],[-68.6831,51.1562],[-68.5962,51.1678],[-68.5371,51.1999],[-68.4679,51.2137],[-68.4272,51.2322],[-68.3995,51.2565],[-68.4034,51.285],[-68.492,51.3486],[-68.5383,51.3929],[-68.58,51.4568]]]}},{"type":"Feature","properties":{},"geometry":{"type":"Polygon","coordinates":[[[-108.6343,56.4877],[-108.692,56.4897],[-108.715,56.5213],[-108.7214,56.6105],[-108.7356,56.6677],[-108.7866,56.6901],[-108.859,56.7088],[-108.8701,56.7477],[-108.8374,56.784],[-108.7646,56.8131],[-108.7028,56.7915],[-108.6345,56.7149],[-108.5708,56.6963],[-108.5296,56.7037],[-108.4945,56.6926],[-108.4247,56.6291],[-108.4115,56.4644],[-108.324,56.4406],[-108.2184,56.4354],[-108.134,56.4262],[-108.0744,56.3823],[-108.1106,56.3079],[-108.1894,56.271],[-108.1905,56.2535],[-108.1742,56.2337],[-108.1793,56.143],[-108.1222,56.0628],[-108.1354,56.0378],[-108.1782,56.0149],[-108.2192,55.9655],[-108.2466,55.9149],[-108.2997,55.8579],[-108.4864,55.7645],[-108.5721,55.6975],[-108.6048,55.6484],[-108.5975,55.5849],[-108.6266,55.5521],[-108.6647,55.5685],[-108.6865,55.6285],[-108.6777,55.6948],[-108.6881,55.7492],[-108.7163,55.8416],[-108.7591,55.9032],[-108.918,55.9331],[-109.0336,55.9301],[-109.1002,55.9808],[-109.1579,56.068],[-109.1371,56.1081],[-109.0864,56.1221],[-108.8748,56.0795],[-108.6715,55.9788],[-108.6178,55.8873],[-108.5995,55.8482],[-108.5196,55.8789],[-108.467,55.9358],[-108.4668,56.0329],[-108.4327,56.1041],[-108.352,56.156],[-108.2728,56.1906],[-108.2685,56.2444],[-108.3146,56.2903],[-108.3445,56.2835],[-108.3764,56.285],[-108.4887,56.3289],[-108.5394,56.3662],[-108.5345,56.4283],[-108.5303,56.4788],[-108.5612,56.5097],[-108.6343,56.4877]]]}},{"type":"Feature","properties":{},"geometry":{"type":"Polygon","coordinates":[[[-105.0419,21.7958],[-105.0633,21.8086],[-105.0416,21.8012],[-105.0419,21.7958]]]}},{"type":"Feature","properties":{},"geometry":{"type":"Polygon","coordinates":[[[-98.2011,57.4055],[-98.0979,57.3916],[-98.0243,57.3987],[-97.9949,57.3872],[-98.0276,57.3624],[-98.1087,57.3171],[-98.1897,57.2153],[-98.2258,57.1361],[-98.2502,57.1119],[-98.3918,57.0942],[-98.5612,57.0608],[-98.6852,56.9785],[-98.7789,56.887],[-98.8546,56.8408],[-98.9392,56.8408],[-99.0021,56.8625],[-99.068,56.8461],[-99.2182,56.7357],[-99.3415,56.7335],[-99.4704,56.733],[-99.5527,56.7108],[-99.544,56.6833],[-99.5485,56.6539],[-99.5709,56.6414],[-99.6427,56.681],[-99.6861,56.7304],[-99.6633,56.7534],[-99.546,56.7759],[-99.4072,56.9027],[-99.3783,56.9598],[-99.3285,56.9876],[-99.2258,56.9514],[-99.1555,56.9558],[-99.1245,57.0046],[-99.0689,57.0492],[-99.0146,57.0847],[-99.0105,57.0503],[-99.0368,56.9745],[-99.0064,56.9269],[-98.9046,56.9248],[-98.8733,56.9461],[-98.88,57.0039],[-98.8574,57.0597],[-98.7747,57.0726],[-98.6953,57.1172],[-98.6615,57.1804],[-98.651,57.2189],[-98.6681,57.2618],[-98.6321,57.2757],[-98.5418,57.2749],[-98.5083,57.2993],[-98.5177,57.3505],[-98.5366,57.4564],[-98.5932,57.5288],[-98.5959,57.5854],[-98.5559,57.611],[-98.5396,57.596],[-98.5443,57.5663],[-98.5277,57.543],[-98.4717,57.5488],[-98.3974,57.5891],[-98.2935,57.6378],[-98.206,57.6535],[-98.2075,57.6249],[-98.224,57.5802],[-98.2711,57.5301],[-98.2946,57.4932],[-98.2011,57.4055]]]}},{"type":"Feature","properties":{},"geometry":{"type":"Polygon","coordinates":[[[-106.2513,47.55],[-106.2686,47.5481],[-106.2516,47.5996],[-106.2513,47.644],[-106.2854,47.6974],[-106.3179,47.7551],[-106.3359,47.7849],[-106.3602,47.8131],[-106.3844,47.8479],[-106.4198,47.8758],[-106.454,47.8792],[-106.4801,47.8583],[-106.5205,47.8278],[-106.5502,47.785],[-106.5558,47.7495],[-106.5993,47.7525],[-106.6835,47.7385],[-106.7677,47.7243],[-106.8133,47.7155],[-106.8378,47.6936],[-106.8497,47.6494],[-106.8625,47.6313],[-106.879,47.6488],[-106.9057,47.6718],[-106.944,47.6667],[-106.9927,47.6439],[-107.0154,47.6449],[-107.0296,47.6657],[-107.1826,47.6845],[-107.3062,47.685],[-107.3327,47.6846],[-107.3858,47.6536],[-107.4289,47.6346],[-107.5072,47.6243],[-107.6122,47.6234],[-107.7189,47.5631],[-107.8461,47.4678],[-107.9114,47.3904],[-107.9238,47.407],[-107.9091,47.4711],[-107.9161,47.5089],[-107.9299,47.5425],[-107.9488,47.558],[-107.9824,47.5692],[-108.0444,47.5804],[-108.1701,47.5838],[-108.1963,47.6016],[-108.1727,47.6131],[-108.0452,47.614],[-107.9594,47.6014],[-107.931,47.5876],[-107.8894,47.5377],[-107.8412,47.5261],[-107.7788,47.5695],[-107.7121,47.6132],[-107.685,47.6462],[-107.6879,47.6714],[-107.7138,47.6876],[-107.6046,47.6761],[-107.4551,47.6624],[-107.4218,47.68],[-107.3802,47.7158],[-107.3358,47.728],[-107.2945,47.7215],[-107.2309,47.7241],[-107.1207,47.725],[-106.9898,47.7164],[-106.9295,47.725],[-106.9382,47.7463],[-106.9331,47.7639],[-106.8805,47.7779],[-106.821,47.7831],[-106.7692,47.7883],[-106.7376,47.8056],[-106.7088,47.8221],[-106.6548,47.8409],[-106.5962,47.8595],[-106.5822,47.8788],[-106.5658,47.9075],[-106.5745,47.9363],[-106.5899,47.9582],[-106.5379,47.9829],[-106.4328,48.0271],[-106.4058,48.0208],[-106.3664,48.0147],[-106.3252,47.9851],[-106.3312,47.9496],[-106.3579,47.9252],[-106.3447,47.8788],[-106.2849,47.8373],[-106.2533,47.8147],[-106.2673,47.7935],[-106.2529,47.7693],[-106.241,47.739],[-106.2319,47.691],[-106.2167,47.6284],[-106.2172,47.5854],[-106.2513,47.55]]]}},{"type":"Feature","properties":{},"geometry":{"type":"Polygon","coordinates":[[[-132.3836,60.0],[-132.3636,59.9859],[-132.3232,59.9508],[-132.2766,59.9015],[-132.23,59.8487],[-132.2253,59.838],[-132.2145,59.8156],[-132.2023,59.7699],[-132.1232,59.694],[-132.0889,59.6437],[-132.0954,59.6071],[-132.1248,59.6038],[-132.1591,59.6255],[-132.2135,59.6883],[-132.3161,59.8349],[-132.3992,59.9218],[-132.5279,60.0],[-132.3836,60.0]]]}},{"type":"Feature","properties":{},"geometry":{"type":"Polygon","coordinates":[[[-99.1503,26.7513],[-99.1191,26.7494],[-99.113,26.7271],[-99.1494,26.6521],[-99.1495,26.5917],[-99.1721,26.5642],[-99.2,26.5615],[-99.2433,26.5836],[-99.2549,26.6698],[-99.2832,26.7595],[-99.3308,26.8034],[-99.3941,26.795],[-99.3857,26.8067],[-99.3638,26.8213],[-99.368,26.8859],[-99.4008,26.9543],[-99.4636,27.0254],[-99.4565,27.0567],[-99.4146,27.0441],[-99.3685,27.0018],[-99.2774,26.9212],[-99.218,26.9102],[-99.2177,26.8049],[-99.1836,26.7595],[-99.1503,26.7513]]]}},{"type":"Feature","properties":{},"geometry":{"type":"Polygon","coordinates":[[[-68.7046,53.7745],[-68.7261,53.689],[-68.707,53.6099],[-68.7155,53.5826],[-68.7772,53.5773],[-68.8532,53.5938],[-68.8694,53.5759],[-68.8691,53.5233],[-68.9004,53.4833],[-68.935,53.4688],[-68.9758,53.4558],[-69.0552,53.4277],[-69.085,53.4442],[-69.0452,53.4921],[-68.9838,53.5588],[-68.9467,53.6091],[-68.8676,53.6449],[-68.827,53.6757],[-68.8369,53.7171],[-68.8657,53.7368],[-68.8504,53.7549],[-68.8055,53.765],[-68.7807,53.775],[-68.7666,53.7963],[-68.8137,53.8459],[-68.9072,53.8763],[-68.967,53.9076],[-69.0076,53.9397],[-69.0608,53.9576],[-69.225,53.9489],[-69.2425,53.9611],[-69.2305,53.9791],[-69.2001,53.9892],[-69.1709,53.9899],[-69.1544,53.9999],[-69.1598,54.0231],[-69.1461,54.0396],[-69.1156,54.0227],[-69.0616,54.0074],[-69.0221,54.0282],[-69.0049,54.0417],[-68.9791,54.0114],[-68.9494,53.9999],[-68.9026,53.9853],[-68.8637,53.952],[-68.8464,53.9105],[-68.7326,53.8359],[-68.6848,53.8121],[-68.6797,53.7984],[-68.7046,53.7745]]]}},{"type":"Feature","properties":{},"geometry":{"type":"Polygon","coordinates":[[[-70.2744,54.4359],[-70.3121,54.4081],[-70.4194,54.3587],[-70.4975,54.4071],[-70.5171,54.4407],[-70.4596,54.4318],[-70.4244,54.41],[-70.3574,54.4295],[-70.2144,54.4794],[-70.0953,54.4728],[-69.9695,54.49],[-69.9316,54.5158],[-69.9119,54.5521],[-69.9119,54.6169],[-69.9201,54.6544],[-69.9597,54.6845],[-70.0292,54.6762],[-70.008,54.7218],[-69.9834,54.7416],[-69.9349,54.7324],[-69.9002,54.7043],[-69.86,54.6217],[-69.8396,54.5562],[-69.8395,54.5246],[-69.7742,54.4919],[-69.7656,54.4661],[-69.882,54.4562],[-69.9487,54.4253],[-69.9882,54.4253],[-70.0153,54.4385],[-70.155,54.4358],[-70.2327,54.4441],[-70.2744,54.4359]]]}},{"type":"Feature","properties":{},"geometry":{"type":"Polygon","coordinates":[[[-122.2423,40.8059],[-122.2289,40.7934],[-122.1156,40.7998],[-122.0947,40.7835],[-122.1017,40.7663],[-122.1512,40.7458],[-122.2407,40.7543],[-122.3643,40.7244],[-122.4106,40.7214],[-122.4262,40.7437],[-122.4171,40.7684],[-122.3952,40.8291],[-122.3622,40.8196],[-122.351,40.7841],[-122.3013,40.8038],[-122.2589,40.8607],[-122.2317,40.871],[-122.2423,40.8059]]]}},{"type":"Feature","properties":{},"geometry":{"type":"Polygon","coordinates":[[[-87.5421,34.8506],[-87.3828,34.8515],[-87.2676,34.8076],[-87.0061,34.6825],[-86.935,34.6104],[-86.8985,34.5748],[-86.9587,34.5651],[-87.3231,34.7666],[-87.5125,34.792],[-87.6368,34.765],[-87.7004,34.7734],[-87.6611,34.8136],[-87.5421,34.8506]]]}},{"type":"Feature","properties":{},"geometry":{"type":"Polygon","coordinates":[[[-76.5535,51.364],[-76.5632,51.3445],[-76.7512,51.2882],[-77.0259,51.3287],[-76.9826,51.3432],[-76.9032,51.3546],[-76.8616,51.3797],[-76.8395,51.4043],[-76.8195,51.4158],[-76.7622,51.3908],[-76.6772,51.3734],[-76.5535,51.364]]]}},{"type":"Feature","properties":{},"geometry":{"type":"Polygon","coordinates":[[[-91.3899,51.071],[-91.5416,51.0855],[-91.5913,51.1179],[-91.6468,51.1536],[-91.6086,51.166],[-91.5043,51.1622],[-91.4415,51.1629],[-91.4167,51.1433],[-91.4178,51.1195],[-91.3899,51.071]]]}},{"type":"Feature","properties":{},"geometry":{"type":"Polygon","coordinates":[[[-91.9495,51.9821],[-91.8954,51.9519],[-91.9104,51.9111],[-91.9317,51.8942],[-91.9681,51.9244],[-91.9912,51.9368],[-91.9704,51.9577],[-91.9495,51.9821]]]}},{"type":"Feature","properties":{},"geometry":{"type":"Polygon","coordinates":[[[-78.5498,51.0337],[-78.813,51.0974],[-78.8274,51.1523],[-78.7943,51.1459],[-78.7204,51.1089],[-78.6163,51.0771],[-78.5498,51.0337]]]}},{"type":"Feature","properties":{},"geometry":{"type":"Polygon","coordinates":[[[-78.6964,47.5767],[-78.7628,47.5703],[-78.787,47.5949],[-78.798,47.6256],[-78.8128,47.6564],[-78.7919,47.691],[-78.7241,47.6837],[-78.6119,47.6806],[-78.5712,47.6562],[-78.5838,47.6246],[-78.6042,47.6083],[-78.6279,47.5969],[-78.6964,47.5767]]]}},{"type":"Feature","properties":{},"geometry":{"type":"Polygon","coordinates":[[[-77.2354,47.5495],[-77.177,47.547],[-77.1288,47.5608],[-77.1015,47.5451],[-77.0653,47.5085],[-76.9629,47.5023],[-76.9348,47.4875],[-76.9656,47.4423],[-77.1194,47.4773],[-77.1847,47.4562],[-77.1786,47.4115],[-77.165,47.3894],[-77.1813,47.369],[-77.2594,47.3467],[-77.2885,47.386],[-77.2703,47.4629],[-77.3044,47.5132],[-77.322,47.5735],[-77.3037,47.6069],[-77.2883,47.6137],[-77.2732,47.5913],[-77.2354,47.5495]]]}},{"type":"Feature","properties":{},"geometry":{"type":"Polygon","coordinates":[[[-96.2052,55.2714],[-96.0547,55.2871],[-95.8532,55.3606],[-95.7888,55.4002],[-95.7021,55.4014],[-95.6757,55.3641],[-95.7334,55.3075],[-95.83,55.2801],[-96.1065,55.2172],[-96.2292,55.2125],[-96.2846,55.2377],[-96.2052,55.2714]]]}},{"type":"Feature","properties":{},"geometry":{"type":"Polygon","coordinates":[[[-102.3362,54.6548],[-102.2872,54.7154],[-102.1972,54.738],[-102.1161,54.7076],[-102.1058,54.5984],[-102.1278,54.4937],[-102.169,54.4553],[-102.256,54.4487],[-102.3402,54.4749],[-102.3783,54.5164],[-102.3633,54.5775],[-102.3362,54.6548]]]}},{"type":"Feature","properties":{},"geometry":{"type":"Polygon","coordinates":[[[-105.7278,54.4142],[-105.7141,54.4925],[-105.6832,54.509],[-105.643,54.4885],[-105.5676,54.4595],[-105.5531,54.3904],[-105.5697,54.3274],[-105.6356,54.2683],[-105.6726,54.2223],[-105.7067,54.1498],[-105.7141,54.086],[-105.7554,54.0551],[-105.8048,54.0778],[-105.8099,54.1609],[-105.8125,54.2341],[-105.7278,54.4142]]]}},{"type":"Feature","properties":{},"geometry":{"type":"Polygon","coordinates":[[[-70.9355,53.483],[-70.9041,53.458],[-70.8608,53.4516],[-70.8433,53.427],[-70.8647,53.4068],[-70.9805,53.4309],[-71.0483,53.5007],[-71.1254,53.5653],[-71.1168,53.5908],[-71.0188,53.5957],[-70.9498,53.565],[-70.9325,53.5188],[-70.9355,53.483]]]}},{"type":"Feature","properties":{},"geometry":{"type":"Polygon","coordinates":[[[-60.7238,52.4439],[-60.7085,52.4092],[-60.6571,52.3577],[-60.6038,52.3285],[-60.6004,52.3201],[-60.6479,52.3154],[-60.7386,52.3784],[-60.7895,52.4242],[-60.917,52.4768],[-60.9675,52.5162],[-61.1501,52.5894],[-61.2969,52.6034],[-61.1386,52.6192],[-60.9044,52.5496],[-60.7238,52.4439]]]}},{"type":"Feature","properties":{},"geometry":{"type":"Polygon","coordinates":[[[-83.6881,48.3392],[-83.7812,48.3045],[-83.8321,48.3149],[-83.9251,48.3071],[-83.8541,48.3368],[-83.7211,48.4208],[-83.6399,48.4275],[-83.6178,48.4259],[-83.5725,48.4244],[-83.4292,48.506],[-83.468,48.4337],[-83.6109,48.3783],[-83.6881,48.3392]]]}},{"type":"Feature","properties":{},"geometry":{"type":"Polygon","coordinates":[[[-107.0589,55.8551],[-107.011,55.8901],[-106.9472,55.9208],[-106.8968,55.9274],[-106.8804,55.9083],[-106.9839,55.8321],[-106.9733,55.815],[-107.0094,55.8056],[-107.0625,55.82],[-107.0589,55.8551]]]}},{"type":"Feature","properties":{},"geometry":{"type":"Polygon","coordinates":[[[-106.5141,55.6392],[-106.5237,55.6571],[-106.5507,55.6676],[-106.5392,55.6888],[-106.4409,55.7281],[-106.3436,55.7599],[-106.3302,55.7398],[-106.3591,55.6908],[-106.3413,55.6619],[-106.386,55.6483],[-106.4722,55.6309],[-106.5141,55.6392]]]}},{"type":"Feature","properties":{},"geometry":{"type":"Polygon","coordinates":[[[-103.798,58.669],[-103.7858,58.691],[-103.6627,58.7017],[-103.6213,58.6776],[-103.5999,58.6611],[-103.6229,58.607],[-103.6684,58.545],[-103.771,58.5739],[-103.8194,58.5829],[-103.8362,58.6091],[-103.798,58.669]]]}},{"type":"Feature","properties":{},"geometry":{"type":"Polygon","coordinates":[[[-69.1225,56.3322],[-69.077,56.2718],[-68.8078,56.0887],[-68.7951,56.0548],[-69.1212,56.2475],[-69.1889,56.3259],[-69.1953,56.4275],[-69.2736,56.5037],[-69.2186,56.563],[-69.1275,56.6499],[-69.1364,56.6064],[-69.1535,56.5069],[-69.1225,56.3322]]]}}]}