{"type":"FeatureCollection","features":[{"type":"Feature","properties":{},"geometry":{"type":"LineString","coordinates":[[-8.6834,27.6565],[-8.8178,27.6564],[-8.8139,27.6139],[-8.7846,27.5309],[-8.7744,27.4605],[-8.789,27.4166],[-8.8027,27.3609],[-8.7968,27.3082],[-8.7744,27.2506],[-8.7539,27.191],[-8.7539,27.151],[-8.7949,27.1207],[-8.8891,27.1041],[-9.0019,27.0904],[-9.0844,27.0904],[-9.2084,27.1002],[-9.2856,27.0982],[-9.353,27.0982],[-9.413,27.0885],[-9.4873,27.0504],[-9.5698,26.9908],[-9.6733,26.9107],[-9.7353,26.8609],[-9.8179,26.8502],[-9.9003,26.8502],[-9.9809,26.8902],[-10.0327,26.9107],[-10.0668,26.9088],[-10.123,26.8805],[-10.1894,26.8609],[-10.2514,26.8609],[-10.3549,26.901],[-10.479,26.9605],[-10.5513,26.9908],[-10.6543,27.0006],[-10.7578,27.0201],[-10.8301,27.0103],[-10.9228,27.0103],[-11.0468,26.9703],[-11.1503,26.941],[-11.2636,26.9107],[-11.3926,26.8834],[-11.3613,26.7936],[-11.3168,26.7447],[-11.3168,26.6842],[-11.3379,26.6334],[-11.3999,26.5836],[-11.4707,26.5201],[-11.5117,26.4703],[-11.5532,26.401],[-11.584,26.3609],[-11.6372,26.2955],[-11.6845,26.2135],[-11.6992,26.1627],[-11.7182,26.1041],[-11.7549,26.0865],[-11.8808,26.0709],[-11.9609,26.0504],[-12.0308,26.0309],[-12.0568,25.9963],[-12.061,25.9908],[-12.081,25.9205],[-12.081,25.8707],[-12.101,25.8307],[-12.1309,25.7311],[-12.1709,25.6402],[-12.2011,25.5201],[-12.231,25.4205],[-12.271,25.2603],[-12.311,25.1109],[-12.3608,24.9703],[-12.4009,24.8805],[-12.4311,24.8307],[-12.501,24.7701],[-12.561,24.731],[-12.6308,24.6803],[-12.7109,24.6305],[-12.8208,24.5709],[-12.9111,24.5201],[-12.9479,24.4973],[-12.9912,24.4703],[-13.061,24.401],[-13.1211,24.3004],[-13.1611,24.2203],[-13.2309,24.0904],[-13.2808,24.0201],[-13.311,23.9811],[-13.3911,23.941],[-13.481,23.9107],[-13.5811,23.8707],[-13.6611,23.8306],[-13.771,23.7906],[-13.8408,23.7506],[-13.8911,23.691],[-13.9311,23.6207],[-13.9809,23.5201],[-14.021,23.4108],[-14.041,23.3404],[-14.1011,23.1002],[-14.1211,22.9606],[-14.1411,22.8707],[-14.1709,22.7604],[-14.1909,22.5904],[-14.1909,22.4508],[-14.2109,22.3707],[-14.2212,22.3102],[-14.271,22.2408],[-14.311,22.191],[-14.3808,22.1207],[-14.4409,22.0807],[-14.4609,22.0406],[-14.521,21.9909],[-14.581,21.9108],[-14.6308,21.8609],[-14.6211,21.8209],[-14.6108,21.7506],[-14.6411,21.6803],[-14.6709,21.6002],[-14.751,21.5006],[-14.8408,21.4508],[-14.9711,21.441],[-15.1509,21.441],[-15.291,21.4508],[-15.4609,21.4508],[-15.6108,21.4703],[-15.7509,21.4908],[-15.9209,21.5006],[-16.041,21.5006],[-16.1909,21.4811],[-16.581,21.4811],[-16.7309,21.4703],[-16.9511,21.4303],[-17.003,21.4207]]}},{"type":"Feature","properties":{},"geometry":{"type":"LineString","coordinates":[[-124.7598,48.4945],[-124.5819,48.4439],[-124.4128,48.3958],[-124.2255,48.35],[-124.0296,48.3022],[-123.8564,48.26],[-123.6469,48.2229],[-123.5391,48.2172],[-123.3871,48.2489],[-123.2003,48.332],[-123.142,48.4001],[-123.1665,48.4575],[-123.2154,48.546],[-123.2264,48.5773],[-123.2355,48.6379],[-123.2125,48.6853],[-123.014,48.7641],[-123.0051,48.7862],[-123.0294,48.8219],[-123.1837,48.918],[-123.3136,48.993]]}},{"type":"Feature","properties":{},"geometry":{"type":"LineString","coordinates":[[2.5249,51.0971],[2.5361,51.0495],[2.5748,50.9886],[2.6014,50.9553],[2.5793,50.9118],[2.5968,50.8759],[2.6691,50.8114],[2.7594,50.7506],[2.8398,50.7118],[2.8624,50.716],[2.922,50.727],[3.0229,50.7669],[3.1069,50.7794],[3.1549,50.7489],[3.182,50.7317],[3.235,50.663],[3.2498,50.5912],[3.2733,50.5315],[3.3162,50.5074],[3.4769,50.4995],[3.5954,50.4774],[3.6268,50.4573],[3.6673,50.3248],[3.6893,50.3061],[3.7189,50.3217],[3.748,50.3435],[3.7886,50.347],[3.8581,50.3386],[3.9497,50.3359],[4.0441,50.3213],[4.1746,50.2465],[4.1696,50.2218],[4.1441,50.1784],[4.1353,50.1438],[4.1577,50.1299],[4.1922,50.0942],[4.1839,50.0528],[4.1503,50.0239],[4.1368,50.0],[4.137,49.9845],[4.1493,49.9716],[4.1761,49.9603],[4.3687,49.945],[4.545,49.9603],[4.6562,50.0025],[4.6751,50.0469],[4.7066,50.097],[4.7729,50.1391],[4.8187,50.1532],[4.8606,50.1359],[4.79,49.9596],[4.8415,49.9145],[4.8491,49.8471],[4.8676,49.7881],[4.9306,49.7893],[5.0,49.7793]]}},{"type":"Feature","properties":{},"geometry":{"type":"LineString","coordinates":[[-56.4828,1.9421],[-56.5255,1.9273],[-56.5635,1.9072],[-56.6165,1.9227],[-56.6898,1.9143],[-56.7662,1.8922],[-56.8367,1.8812],[-56.9695,1.9164],[-57.01,1.9213],[-57.0376,1.9365],[-57.0927,2.0058],[-57.1189,2.014],[-57.1896,1.9816],[-57.2756,1.9592],[-57.3175,1.9635],[-57.3668,1.9401],[-57.4127,1.9089],[-57.5004,1.7738],[-57.5458,1.7261],[-57.5944,1.7041],[-57.6917,1.7048],[-57.7957,1.7],[-57.8734,1.6673],[-57.9464,1.6506],[-57.9828,1.6484],[-57.9951,1.5743],[-58.0118,1.54],[-58.0347,1.5202],[-58.0913,1.5144],[-58.1422,1.517],[-58.1731,1.5479],[-58.2304,1.5633],[-58.2811,1.5743],[-58.3142,1.5919],[-58.3407,1.5876],[-58.3627,1.5567],[-58.3804,1.5302],[-58.3958,1.4817],[-58.473,1.4663],[-58.5061,1.4386],[-58.4869,1.3478],[-58.4957,1.3123],[-58.5119,1.2847],[-58.6051,1.2791],[-58.6846,1.2811],[-58.7303,1.2475],[-58.7872,1.2085],[-58.8218,1.2012],[-58.8625,1.2036],[-58.9166,1.2489],[-58.9685,1.3046],[-59.1004,1.3437],[-59.2312,1.376],[-59.317,1.4646],[-59.3373,1.5082],[-59.3777,1.5273],[-59.4794,1.6324],[-59.5357,1.7],[-59.5966,1.718],[-59.6666,1.7463],[-59.6638,1.7952],[-59.6685,1.8423],[-59.6985,1.8615],[-59.7407,1.8742],[-59.7562,1.9006],[-59.7518,1.9624],[-59.7435,2.1216],[-59.7552,2.2741],[-59.8491,2.327],[-59.8896,2.363],[-59.9608,2.5884],[-59.9943,2.69],[-59.9959,2.7654],[-59.9723,2.9905],[-59.9457,3.0878],[-59.873,3.2831],[-59.8311,3.3492],[-59.8288,3.3986],[-59.8331,3.4621],[-59.8544,3.5875],[-59.7316,3.6665],[-59.679,3.6998],[-59.6702,3.7527],[-59.6044,3.8197],[-59.5754,3.8835],[-59.5511,3.9335],[-59.5578,3.96],[-59.5864,3.9754],[-59.6202,4.0232],[-59.6912,4.1604],[-59.7169,4.1882],[-59.7385,4.2268],[-59.7275,4.2876],[-59.6997,4.3535],[-59.7033,4.3811],[-59.7458,4.4167],[-59.8333,4.4759],[-59.9061,4.4803],[-59.9624,4.5017],[-60.045,4.5046],[-60.1112,4.5112],[-60.1486,4.5332],[-60.1409,4.5696],[-60.1246,4.5977],[-60.069,4.6667],[-60.0318,4.7405],[-60.0267,4.8127],[-60.0155,4.9075],[-59.9994,4.9899],[-59.9907,5.0828],[-60.0781,5.144],[-60.106,5.1942],[-60.142,5.2388],[-60.1817,5.2388],[-60.2417,5.258],[-60.3352,5.1993],[-60.4088,5.2101],[-60.4595,5.1881],[-60.5764,5.1925],[-60.6514,5.2212],[-60.7421,5.202]]}},{"type":"Feature","properties":{},"geometry":{"type":"LineString","coordinates":[[-7.2186,55.092],[-7.3769,55.0277],[-7.4014,55.0033],[-7.446,54.9051],[-7.4512,54.8771],[-7.5022,54.8254],[-7.5504,54.7679],[-7.6064,54.7457],[-7.69,54.728],[-7.7375,54.7105],[-7.7973,54.7193],[-7.8729,54.7178],[-7.9106,54.6983],[-7.9087,54.6833],[-7.8862,54.6661],[-7.8199,54.6397],[-7.7463,54.6158],[-7.7544,54.5949],[-7.7938,54.5712],[-8.0443,54.5125],[-8.119,54.477],[-8.1448,54.4535],[-8.1182,54.4143],[-7.9185,54.2966],[-7.8844,54.2838],[-7.8549,54.2153],[-7.6788,54.1867],[-7.6065,54.1438],[-7.5444,54.1336],[-7.4094,54.1373],[-7.3552,54.1212],[-7.3245,54.1334],[-7.3067,54.156],[-7.193,54.2141],[-7.1554,54.2395],[-7.1781,54.2749],[-7.2026,54.3018],[-7.1335,54.3554],[-7.0497,54.4083],[-7.0077,54.4067],[-6.9362,54.3743],[-6.8772,54.3291],[-6.8693,54.2941],[-6.8583,54.2687],[-6.8026,54.2144],[-6.7666,54.1956],[-6.6695,54.1847],[-6.6468,54.1634],[-6.6642,54.0848],[-6.6498,54.0586],[-6.5481,54.0573],[-6.4403,54.0636],[-6.4026,54.0606],[-6.3637,54.0771],[-6.3037,54.0949],[-6.218,54.0887]]}},{"type":"Feature","properties":{},"geometry":{"type":"LineString","coordinates":[[-11.5075,6.9065],[-11.4545,6.9512],[-11.3767,7.0947],[-11.2677,7.2326],[-11.1661,7.3144],[-11.0854,7.3986],[-11.0002,7.463],[-10.8781,7.5382],[-10.6913,7.7364],[-10.6475,7.7594],[-10.6176,7.8964],[-10.5708,8.0712],[-10.5167,8.1253],[-10.3896,8.1576],[-10.3598,8.1879],[-10.3146,8.3109],[-10.2857,8.4541],[-10.2832,8.4851]]}},{"type":"Feature","properties":{},"geometry":{"type":"LineString","coordinates":[[-8.4864,7.5585],[-8.43,7.6019],[-8.3518,7.5906],[-8.2319,7.5567],[-8.206,7.5902],[-8.1154,7.7607],[-8.1178,7.824],[-8.1268,7.8677],[-8.0738,7.9844],[-8.0318,8.0297],[-8.0099,8.0785],[-8.0167,8.1449],[-8.0486,8.1697],[-8.0905,8.1652],[-8.1406,8.1815],[-8.2171,8.2197],[-8.2561,8.2537],[-8.2441,8.4079],[-8.237,8.4557],[-8.2099,8.4833],[-8.1678,8.4907],[-8.0491,8.4953],[-7.9531,8.4777],[-7.8688,8.4675],[-7.8236,8.4676],[-7.7874,8.422],[-7.739,8.3753],[-7.6961,8.3756],[-7.6812,8.4103],[-7.691,8.5625],[-7.7196,8.643],[-7.784,8.7206],[-7.951,8.7868],[-7.955,8.8794],[-7.9382,8.9798],[-7.9021,9.0171],[-7.778,9.0808],[-7.7998,9.1151],[-7.8394,9.1516],[-7.9181,9.1885],[-7.9,9.3087],[-7.8962,9.4159],[-7.9627,9.4039],[-8.031,9.3976],[-8.0887,9.4307],[-8.137,9.4957],[-8.146,9.6748],[-8.1459,9.8817],[-8.1552,9.9732],[-8.1366,10.0221],[-8.0778,10.0671],[-8.0135,10.1253],[-7.9906,10.1625]]}},{"type":"Feature","properties":{},"geometry":{"type":"LineString","coordinates":[[-54.6163,2.3268],[-54.6619,2.3276],[-54.6974,2.3598],[-54.7029,2.3979],[-54.7222,2.4417],[-54.7668,2.4547],[-54.8517,2.4396],[-54.8761,2.4504],[-54.9266,2.4973],[-54.9684,2.5483],[-54.9787,2.5977],[-55.0058,2.593],[-55.0703,2.5483],[-55.1141,2.5392],[-55.1489,2.5508],[-55.1877,2.5475],[-55.2861,2.4996],[-55.344,2.4888],[-55.3854,2.4406],[-55.6589,2.4188],[-55.7306,2.4062],[-55.8937,2.4895],[-55.9359,2.5166],[-55.9575,2.5205],[-55.9756,2.516],[-55.9935,2.4975],[-56.0203,2.3928],[-56.0451,2.3644],[-56.0878,2.3413],[-56.1294,2.2995],[-56.1377,2.259],[-56.0737,2.2368],[-56.0201,2.1582],[-55.962,2.0951],[-55.9153,2.0395],[-55.9216,1.9767],[-55.9296,1.8875],[-55.9633,1.8571],[-56.0199,1.8422],[-56.2271,1.8854],[-56.3859,1.9239],[-56.4528,1.9323],[-56.4828,1.9421]]}},{"type":"Feature","properties":{},"geometry":{"type":"LineString","coordinates":[[-11.3894,12.4044],[-11.3824,12.4792],[-11.4488,12.5319],[-11.4506,12.5577],[-11.4441,12.6276],[-11.4144,12.7755],[-11.4174,12.8319],[-11.3904,12.942],[-11.4339,12.9916],[-11.4441,13.0282],[-11.4928,13.087],[-11.5488,13.1703],[-11.5617,13.237],[-11.5813,13.29],[-11.635,13.3699],[-11.6745,13.3824],[-11.7583,13.3945],[-11.7722,13.3671],[-11.8034,13.3273],[-11.8317,13.3158],[-11.8778,13.3645],[-11.8952,13.4063],[-11.8946,13.4445],[-11.9571,13.5109],[-12.0542,13.6331],[-12.0441,13.7339],[-11.9842,13.7881],[-11.9664,13.829],[-11.9609,13.8753],[-11.9881,13.9308],[-12.0201,13.9747],[-12.0112,14.0718],[-12.0192,14.2065],[-12.0684,14.2742],[-12.1129,14.3233],[-12.1752,14.3767],[-12.2284,14.4586],[-12.2068,14.5711],[-12.1865,14.6481],[-12.2806,14.809]]}},{"type":"Feature","properties":{},"geometry":{"type":"LineString","coordinates":[[-54.6163,2.3268],[-54.592,2.3138],[-54.5505,2.2931],[-54.5151,2.2454],[-54.4331,2.2075],[-54.293,2.1542],[-54.228,2.1533],[-54.1674,2.1371],[-54.13,2.1211],[-54.0898,2.1505],[-53.9464,2.2326],[-53.8766,2.2783],[-53.8295,2.3129],[-53.7942,2.346],[-53.7678,2.3548],[-53.7501,2.335],[-53.7347,2.3085],[-53.6837,2.2929],[-53.564,2.2619],[-53.509,2.2531],[-53.4318,2.2794],[-53.366,2.3242],[-53.3344,2.3398],[-53.2855,2.2952],[-53.2522,2.2323],[-53.2298,2.2049],[-53.1801,2.2113],[-53.0823,2.2017],[-53.0097,2.1817],[-52.9648,2.1836],[-52.9035,2.2115],[-52.8704,2.2667],[-52.7834,2.3172],[-52.7006,2.3637],[-52.6532,2.4257],[-52.583,2.5289],[-52.5595,2.5731],[-52.5547,2.6476],[-52.4559,2.8642],[-52.4184,2.9039],[-52.3964,2.9722],[-52.3567,3.0516],[-52.3567,3.1177],[-52.3279,3.1817],[-52.2712,3.2371],[-52.2294,3.2717],[-52.1626,3.3647],[-52.1161,3.4523],[-51.9995,3.6469],[-51.9906,3.702],[-51.9443,3.7351],[-51.9289,3.777],[-51.8795,3.8286],[-51.8275,3.8696],[-51.8053,3.9299],[-51.7671,3.9927],[-51.6835,4.0397],[-51.6526,4.0613]]}},{"type":"Feature","properties":{},"geometry":{"type":"LineString","coordinates":[[2.7065,6.3693],[2.708,6.4277],[2.7357,6.5957],[2.7537,6.6618],[2.7746,6.7117],[2.7529,6.7716],[2.7318,6.8528],[2.7214,6.9803],[2.7477,7.0198],[2.7568,7.0679],[2.7506,7.1432],[2.7505,7.3951],[2.7658,7.4225],[2.7839,7.4434],[2.7851,7.4769],[2.751,7.5419],[2.7193,7.6163],[2.7204,7.7231],[2.7077,7.8266],[2.686,7.8738],[2.7023,8.0498],[2.7115,8.273],[2.7031,8.3718],[2.7236,8.4419],[2.7346,8.614],[2.7329,8.7825],[2.7748,9.0485],[2.8981,9.0614],[3.045,9.0838],[3.1104,9.1883],[3.1481,9.3206],[3.1362,9.4516],[3.1647,9.4947],[3.2234,9.5656],[3.3295,9.667],[3.3252,9.7785],[3.3545,9.8128],[3.4048,9.8386],[3.4767,9.8519],[3.5572,9.9073],[3.6021,10.0046],[3.6459,10.1601],[3.5766,10.2683],[3.5779,10.2925],[3.6042,10.3507],[3.6466,10.409],[3.6802,10.4278],[3.7585,10.4127],[3.7718,10.4176],[3.7838,10.4359],[3.8345,10.6074],[3.8297,10.6538],[3.7568,10.7687],[3.7449,10.8504],[3.7342,10.9719],[3.7164,11.0796],[3.6954,11.1203],[3.6562,11.1546],[3.6389,11.1768],[3.4878,11.3954],[3.4906,11.4992],[3.5539,11.6319],[3.5954,11.6963]]}},{"type":"Feature","properties":{},"geometry":{"type":"LineString","coordinates":[[-71.7792,19.7182],[-71.7574,19.6882],[-71.7115,19.4866],[-71.707,19.422],[-71.7532,19.3245],[-71.7465,19.2859],[-71.6472,19.196],[-71.6453,19.1635],[-71.657,19.1307],[-71.7421,19.0455],[-71.8071,18.987],[-71.7864,18.92],[-71.7336,18.8564],[-71.7271,18.8032],[-71.7432,18.7329],[-71.8242,18.6455],[-71.8665,18.6142],[-71.9869,18.6103],[-72.0004,18.5979],[-71.9404,18.5126],[-71.8726,18.4162],[-71.7619,18.3413],[-71.7372,18.2708],[-71.7638,18.204],[-71.7683,18.0392]]}},{"type":"Feature","properties":{},"geometry":{"type":"LineString","coordinates":[[-90.0952,13.7365],[-90.1059,13.783],[-90.1048,13.8348],[-90.0482,13.9041],[-89.9427,13.9974],[-89.8727,14.0456],[-89.84,14.0551],[-89.7937,14.0501],[-89.7493,14.077],[-89.7111,14.1413],[-89.6713,14.1827],[-89.5703,14.2247],[-89.5472,14.2413],[-89.555,14.2773],[-89.5769,14.3471],[-89.5736,14.3901],[-89.5405,14.4099],[-89.5009,14.4138],[-89.4188,14.4311],[-89.3832,14.4276],[-89.3626,14.416]]}},{"type":"Feature","properties":{},"geometry":{"type":"LineString","coordinates":[[1.4283,42.5959],[1.3495,42.6907],[1.2933,42.71],[1.2083,42.7132],[1.1112,42.742],[1.01,42.7789],[0.7644,42.838],[0.6968,42.8451],[0.6698,42.8357],[0.6518,42.8004],[0.642,42.7007],[0.6316,42.6896],[0.5177,42.6863],[0.3773,42.7001],[0.3129,42.6933],[0.2555,42.6929],[0.2014,42.7194],[-0.0412,42.6891],[-0.0815,42.7039],[-0.14,42.7489],[-0.2053,42.7853],[-0.2561,42.804],[-0.2993,42.8253],[-0.3386,42.8288],[-0.3984,42.8081],[-0.4812,42.7993],[-0.5498,42.802],[-0.5864,42.799],[-0.7402,42.9095],[-0.7627,42.9398],[-0.8392,42.9482],[-0.9338,42.9495],[-1.1755,43.0211],[-1.2855,43.0596],[-1.3015,43.0825],[-1.3,43.101],[-1.3188,43.097],[-1.3527,43.0642],[-1.3705,43.0376],[-1.394,43.0326],[-1.4288,43.0368],[-1.4609,43.0518],[-1.4805,43.0711],[-1.4594,43.105],[-1.4226,43.1491],[-1.4074,43.1971],[-1.4107,43.2401],[-1.4717,43.2677],[-1.5615,43.2792],[-1.6271,43.2825],[-1.7128,43.307],[-1.7533,43.3247],[-1.7927,43.3725],[-1.794,43.4073]]}},{"type":"Feature","properties":{},"geometry":{"type":"LineString","coordinates":[[1.4283,42.5959],[1.4589,42.6217],[1.5013,42.6427],[1.5682,42.635],[1.7099,42.6044],[1.7395,42.5759],[1.7402,42.5567],[1.7139,42.5256],[1.706,42.5033]]}},{"type":"Feature","properties":{},"geometry":{"type":"LineString","coordinates":[[1.706,42.5033],[1.8597,42.4571],[1.928,42.4263],[1.9515,42.3928],[1.9865,42.3585],[2.0327,42.3535],[2.0983,42.3861],[2.2004,42.4209],[2.3745,42.3903],[2.568,42.3458],[2.6517,42.3405],[2.6548,42.3621],[2.67,42.393],[2.7019,42.4085],[2.7494,42.413],[2.8156,42.4292],[2.8914,42.4561],[2.97,42.4672],[3.0527,42.4472],[3.1522,42.431],[3.2114,42.4312]]}},{"type":"Feature","properties":{},"geometry":{"type":"LineString","coordinates":[[1.4283,42.5959],[1.4148,42.5484],[1.422,42.5308],[1.4303,42.4979],[1.4282,42.4613],[1.4488,42.4374],[1.4862,42.4345],[1.534,42.4417],[1.5864,42.456],[1.6785,42.4967],[1.706,42.5033]]}},{"type":"Feature","properties":{},"geometry":{"type":"LineString","coordinates":[[-89.3626,14.416],[-89.3373,14.4114],[-89.1701,14.3603],[-89.1205,14.3702],[-89.0571,14.3292],[-89.0269,14.297],[-89.0002,14.2527],[-88.8683,14.1637],[-88.846,14.1248],[-88.7474,14.0723],[-88.7076,14.0321],[-88.6656,14.0155],[-88.5831,14.0001],[-88.5126,13.979],[-88.5043,13.9642],[-88.4976,13.9045],[-88.4827,13.8542],[-88.4491,13.851],[-88.4085,13.8754],[-88.2762,13.9427],[-88.151,13.9873],[-88.0805,13.9606],[-88.0387,13.9046],[-87.991,13.8796],[-87.892,13.895],[-87.8023,13.89],[-87.7315,13.8411],[-87.7153,13.8127],[-87.7585,13.6499],[-87.7742,13.5803],[-87.7819,13.5214],[-87.7565,13.506],[-87.7317,13.4831],[-87.737,13.4514],[-87.8142,13.3992]]}},{"type":"Feature","properties":{},"geometry":{"type":"LineString","coordinates":[[-87.3373,12.9793],[-87.0592,12.9915],[-87.0093,13.0078],[-86.9589,13.0537],[-86.9332,13.1175],[-86.9288,13.1794],[-86.9182,13.2236],[-86.8736,13.2665],[-86.7921,13.2798],[-86.7293,13.2844],[-86.7107,13.3134],[-86.7296,13.4072],[-86.7635,13.6352],[-86.7706,13.6988],[-86.759,13.7461],[-86.7336,13.7635],[-86.6102,13.7749],[-86.3769,13.7556],[-86.3318,13.7701],[-86.2382,13.8995],[-86.1512,13.9946],[-86.0892,14.0372],[-86.0404,14.0502],[-85.9838,13.9657],[-85.7867,13.8445],[-85.7534,13.852],[-85.7339,13.8587],[-85.7277,13.8761],[-85.7312,13.9319],[-85.6819,13.9826],[-85.5798,14.0282],[-85.4771,14.1087],[-85.3738,14.2239],[-85.2842,14.2916],[-85.2083,14.3118],[-85.1795,14.3433],[-85.1976,14.386],[-85.1915,14.4466],[-85.1613,14.5252],[-85.1173,14.5706],[-85.0594,14.583],[-85.0365,14.6077],[-85.0487,14.6447],[-85.0373,14.6856],[-84.9851,14.7524],[-84.8604,14.8097],[-84.7892,14.7904],[-84.7298,14.7134],[-84.646,14.6611],[-84.5377,14.6334],[-84.4535,14.6437],[-84.3937,14.6918],[-84.3398,14.7063],[-84.2919,14.6874],[-84.2667,14.6981],[-84.264,14.7385],[-84.2392,14.7478],[-84.1924,14.726],[-84.1508,14.7204],[-84.1144,14.731],[-84.1003,14.7506],[-84.0929,14.7709],[-84.0658,14.7861],[-83.9723,14.7711],[-83.8673,14.7945],[-83.7509,14.8563],[-83.6736,14.8836],[-83.6355,14.8764],[-83.5897,14.9076],[-83.5365,14.977],[-83.415,15.0081],[-83.1575,14.9931]]}},{"type":"Feature","properties":{},"geometry":{"type":"LineString","coordinates":[[-75.2845,-0.1065],[-75.4639,-0.0384],[-75.6173,0.0629],[-75.7767,0.0892],[-75.8798,0.151],[-75.9749,0.2477],[-76.0262,0.3131],[-76.0679,0.3456],[-76.2706,0.4394],[-76.311,0.4485],[-76.3882,0.405],[-76.4134,0.3788],[-76.418,0.3039],[-76.4273,0.2612],[-76.4946,0.2354],[-76.603,0.241],[-76.6785,0.2681],[-76.729,0.2721],[-76.7393,0.2508],[-76.7677,0.2416],[-76.8294,0.2477],[-76.9201,0.2685],[-77.0024,0.2963],[-77.1141,0.3551],[-77.1657,0.3477],[-77.2927,0.3604],[-77.3963,0.3939],[-77.4227,0.4248],[-77.4677,0.6365],[-77.4814,0.6512],[-77.5261,0.6604],[-77.6013,0.6895],[-77.6486,0.7236],[-77.6732,0.7822],[-77.7029,0.8378],[-77.8295,0.8254],[-78.037,0.8987],[-78.1807,0.9686],[-78.3121,1.0461],[-78.5115,1.1988],[-78.5876,1.2367],[-78.6817,1.2834],[-78.7371,1.3587],[-78.8289,1.4347],[-78.8597,1.4554]]}},{"type":"Feature","properties":{},"geometry":{"type":"LineString","coordinates":[[-57.5955,3.3685],[-57.596,3.3686],[-57.6028,3.371],[-57.6467,3.3945],[-57.6561,3.4237],[-57.6495,3.5174],[-57.7204,3.5883],[-57.8327,3.676],[-57.8666,3.7873],[-57.9077,3.8567],[-58.0322,4.0019],[-58.0543,4.1017],[-58.0545,4.1719],[-58.0107,4.2365],[-57.9498,4.3499],[-57.9247,4.4531],[-57.9063,4.5068],[-57.8747,4.5771],[-57.846,4.6682],[-57.8679,4.7243],[-57.9049,4.7793],[-57.9171,4.8204],[-57.8811,4.8806],[-57.8449,4.9231],[-57.8041,4.9291],[-57.752,4.9545],[-57.7111,4.9911],[-57.6489,5.0007],[-57.5709,5.0045],[-57.4122,5.0046],[-57.331,5.0202],[-57.3058,5.0496],[-57.3096,5.1059],[-57.2693,5.157],[-57.2269,5.1785],[-57.2098,5.1954],[-57.2073,5.2142],[-57.2184,5.2315],[-57.2353,5.2429],[-57.2796,5.2468],[-57.3186,5.3353],[-57.2919,5.374],[-57.2575,5.4451],[-57.2479,5.4853],[-57.1948,5.5484]]}},{"type":"Feature","properties":{},"geometry":{"type":"LineString","coordinates":[[-54.0821,3.3269],[-54.0632,3.3533],[-54.0095,3.4485],[-54.006,3.5305],[-53.9905,3.5895],[-54.0059,3.6204],[-54.0342,3.6294],[-54.082,3.706],[-54.1128,3.7694],[-54.1974,3.8344],[-54.2555,3.9011],[-54.3507,4.0541],[-54.3422,4.14],[-54.3692,4.1709],[-54.3984,4.2025],[-54.3962,4.2414],[-54.416,4.3376],[-54.4407,4.428],[-54.4496,4.485],[-54.4261,4.583],[-54.4403,4.692],[-54.4711,4.7493],[-54.4797,4.8365],[-54.4733,4.9147],[-54.4469,4.9588],[-54.4522,5.0135],[-54.3317,5.1874],[-54.2402,5.2882],[-54.156,5.359]]}},{"type":"Feature","properties":{},"geometry":{"type":"LineString","coordinates":[[4.2261,51.3865],[4.2115,51.3488],[4.1726,51.3071],[4.04,51.2471],[3.9021,51.2077],[3.8308,51.2126],[3.7819,51.2332],[3.7557,51.2549],[3.6818,51.2757],[3.5803,51.2862],[3.5171,51.2636],[3.472,51.2422],[3.4325,51.2458],[3.4028,51.2636],[3.3801,51.2911],[3.3501,51.3777]]}},{"type":"Feature","properties":{},"geometry":{"type":"LineString","coordinates":[[5.0,51.4499],[4.9926,51.4454],[4.9439,51.4078],[4.8481,51.4033],[4.8207,51.4121],[4.8161,51.4328],[4.8106,51.4527],[4.7842,51.4774],[4.7557,51.4911],[4.634,51.4217],[4.5888,51.4219],[4.5317,51.4486],[4.5034,51.4747],[4.4409,51.4598],[4.3848,51.4276],[4.404,51.3671],[4.3737,51.356],[4.3045,51.3615],[4.2261,51.3865]]}},{"type":"Feature","properties":{},"geometry":{"type":"LineString","coordinates":[[-7.4061,37.1794],[-7.4672,37.4281],[-7.496,37.5236],[-7.5035,37.5855],[-7.444,37.7283],[-7.3789,37.7864],[-7.2922,37.9065],[-7.1854,38.0064],[-7.0725,38.03],[-7.0228,38.0447],[-6.9811,38.122],[-6.9576,38.1879],[-6.9748,38.1944],[-7.1064,38.181],[-7.343,38.4574],[-7.3358,38.5015],[-7.306,38.5668],[-7.2864,38.6494],[-7.2815,38.7145],[-7.2199,38.7705],[-7.1255,38.827],[-7.0461,38.9071],[-7.0063,38.9853],[-6.998,39.0565],[-7.043,39.1071],[-7.1724,39.1352],[-7.3058,39.3381],[-7.3354,39.4651],[-7.3627,39.4783],[-7.4451,39.5362],[-7.5242,39.6447],[-7.5357,39.6616],[-7.4541,39.6807],[-7.1177,39.6817],[-7.0474,39.7056],[-7.0367,39.714],[-6.9754,39.7984],[-6.9112,39.9371],[-6.8961,40.0218],[-6.9164,40.0568],[-7.0278,40.1426],[-7.0326,40.1679],[-7.0147,40.2083],[-6.9484,40.2516],[-6.8589,40.3007],[-6.8101,40.3431],[-6.8218,40.3762],[-6.8479,40.411],[-6.8521,40.4433],[-6.8357,40.4831],[-6.8298,40.6191],[-6.8184,40.6541],[-6.8359,40.7775],[-6.8577,40.8783],[-6.9285,41.0092],[-6.9155,41.038],[-6.8828,41.0624],[-6.7758,41.1077],[-6.6902,41.2145],[-6.5659,41.3037],[-6.4031,41.3754],[-6.2894,41.455],[-6.2443,41.5159],[-6.2125,41.532],[-6.2217,41.5605],[-6.2431,41.6018],[-6.3081,41.6422],[-6.3917,41.6654],[-6.4847,41.6644],[-6.5422,41.6725],[-6.559,41.7041],[-6.5526,41.7895],[-6.5575,41.8741],[-6.5753,41.9131],[-6.6183,41.9424],[-6.7036,41.9346],[-6.7773,41.9585],[-6.8332,41.9642],[-6.8655,41.9452],[-7.0304,41.9506],[-7.0991,41.9642],[-7.1471,41.9811],[-7.1779,41.9717],[-7.1953,41.9552],[-7.1983,41.9294],[-7.2096,41.8953],[-7.2685,41.8644],[-7.4036,41.8337],[-7.5126,41.836],[-7.6126,41.858],[-7.6447,41.874],[-7.693,41.8885],[-7.8964,41.8706],[-7.9209,41.8836],[-7.991,41.8519],[-8.0944,41.8142],[-8.1525,41.812],[-8.1735,41.82],[-8.1812,41.837],[-8.2247,41.8958],[-8.2133,41.9271],[-8.13,42.0182],[-8.1393,42.04],[-8.1736,42.0694],[-8.2042,42.1118],[-8.2131,42.1337],[-8.2661,42.1374],[-8.3226,42.1151],[-8.5381,42.0693],[-8.5897,42.0527],[-8.683,42.0085],[-8.7771,41.9411]]}},{"type":"Feature","properties":{},"geometry":{"type":"LineString","coordinates":[[3.5954,11.6963],[3.6531,11.7318],[3.6647,11.7624],[3.6474,11.7996],[3.6184,11.8278],[3.6118,11.8873],[3.6201,11.927],[3.6406,11.9704],[3.6325,12.0616],[3.6342,12.2016],[3.6438,12.4053],[3.6467,12.53],[3.7692,12.6222],[3.9479,12.775],[4.0388,12.9347],[4.0874,13.0555],[4.1475,13.4577],[4.1908,13.4821],[4.2421,13.5011],[4.4214,13.6475],[4.5594,13.7018],[4.6648,13.7332],[4.8234,13.7598],[4.9217,13.7491],[5.0,13.7463]]}},{"type":"Feature","properties":{},"geometry":{"type":"LineString","coordinates":[[1.1872,6.0894],[1.1851,6.145],[1.1396,6.155],[1.0845,6.1738],[1.0499,6.2026],[1.0021,6.2685],[0.985,6.3203],[0.9122,6.3286],[0.8225,6.3864],[0.7369,6.4526],[0.7072,6.5187],[0.7154,6.5493],[0.7022,6.5807],[0.6728,6.5925],[0.5958,6.7422],[0.548,6.8025],[0.5256,6.8509],[0.5334,6.8883],[0.5231,6.9389],[0.5381,6.9797],[0.5795,7.0041],[0.5925,7.034],[0.5962,7.0966],[0.6195,7.2265],[0.6347,7.3537],[0.591,7.3888],[0.5373,7.3987],[0.5096,7.4351],[0.4989,7.4951],[0.4999,7.5469],[0.6052,7.7282],[0.5836,8.1458],[0.5993,8.2096],[0.6471,8.2535],[0.6881,8.3042],[0.6863,8.3549],[0.6162,8.4796],[0.4833,8.5753],[0.4153,8.6527],[0.3786,8.722],[0.3726,8.7593],[0.4531,8.8138],[0.4888,8.8515],[0.4932,8.8949],[0.4604,8.9742],[0.4662,9.1153],[0.4972,9.2212],[0.529,9.3583],[0.5257,9.3985],[0.4476,9.4802],[0.4053,9.4914],[0.371,9.4856],[0.2893,9.4318],[0.26,9.426],[0.2415,9.4419],[0.2334,9.4635],[0.2619,9.4956],[0.2515,9.5356],[0.2755,9.5706],[0.3273,9.5866],[0.3426,9.6041],[0.2728,9.6209],[0.2646,9.6447],[0.2695,9.6679],[0.2897,9.6723],[0.3117,9.671],[0.3239,9.6876],[0.3345,9.804],[0.3431,9.8446],[0.3518,9.9249],[0.3627,10.2365],[0.3786,10.2686],[0.3809,10.2919],[0.3318,10.3069],[0.216,10.3905],[0.1483,10.4548],[0.0893,10.5206],[0.0395,10.5639],[-0.0577,10.6306],[-0.0863,10.673],[-0.0902,10.7155],[-0.0606,10.8006],[-0.0139,10.8914],[0.0094,11.021],[-0.0047,11.0556],[-0.0686,11.1156]]}},{"type":"Feature","properties":{},"geometry":{"type":"LineString","coordinates":[[-2.6959,9.4813],[-2.6861,9.4317],[-2.7057,9.3514],[-2.7018,9.3017],[-2.6742,9.2826],[-2.6892,9.2186],[-2.7467,9.1096],[-2.7469,9.0451],[-2.6899,9.0251],[-2.6492,8.9566],[-2.6249,8.8396],[-2.6004,8.8004],[-2.598,8.7764],[-2.5569,8.493],[-2.5059,8.2088],[-2.5383,8.1716],[-2.5828,8.1608],[-2.6117,8.1476],[-2.62,8.1211],[-2.6009,8.0822],[-2.6133,8.0467],[-2.6688,8.0222],[-2.7898,7.9319],[-2.7981,7.896],[-2.8301,7.8191],[-2.8569,7.7721],[-2.8964,7.685],[-2.9591,7.4545],[-2.9823,7.2636],[-2.9858,7.2049],[-3.0102,7.1637],[-3.0377,7.1046],[-3.1689,6.941],[-3.2358,6.8072],[-3.2272,6.7491],[-3.2241,6.6908],[-3.2439,6.6487],[-3.2403,6.5356],[-3.224,6.4411],[-3.2006,6.3483],[-3.1056,6.0856],[-3.0562,5.9263],[-3.0253,5.7978],[-2.9983,5.7113],[-2.9728,5.6763],[-2.9623,5.643],[-2.8212,5.6192],[-2.7936,5.6001],[-2.755,5.4325],[-2.7619,5.3569],[-2.7896,5.3282],[-2.7887,5.2641],[-2.7952,5.1845],[-2.8157,5.153],[-2.8947,5.149],[-2.9484,5.1189],[-3.0191,5.1308],[-3.0867,5.1283],[-3.114,5.0887]]}},{"type":"Feature","properties":{},"geometry":{"type":"LineString","coordinates":[[-5.5236,10.426],[-5.507,10.4834],[-5.479,10.5651],[-5.4757,10.644],[-5.4571,10.7714],[-5.4686,10.931],[-5.4905,11.0424],[-5.4242,11.0887],[-5.3474,11.1303],[-5.2999,11.2059],[-5.2502,11.3758],[-5.2294,11.5225],[-5.2448,11.5768],[-5.2703,11.6199],[-5.2905,11.6833],[-5.302,11.7605],[-5.2881,11.8279],[-5.2302,11.8903],[-5.1575,11.9424],[-5.1059,11.9675],[-4.969,11.9933],[-4.798,12.0321],[-4.6993,12.0762],[-4.6272,12.1202],[-4.5869,12.155],[-4.546,12.2265],[-4.4799,12.2818],[-4.4287,12.3376],[-4.4216,12.4931],[-4.4219,12.5816],[-4.4599,12.6304],[-4.4806,12.6722],[-4.2271,12.7937],[-4.2252,12.8795],[-4.2606,12.9753],[-4.3102,13.0525],[-4.3287,13.119],[-4.2587,13.1973],[-4.1962,13.2562],[-4.151,13.3062],[-4.0512,13.3824],[-3.9473,13.4022],[-3.8535,13.3736],[-3.5758,13.1942],[-3.5276,13.1827],[-3.4699,13.1964],[-3.3967,13.2437],[-3.3017,13.2807],[-3.2667,13.4008],[-3.2702,13.5775],[-3.2486,13.6583],[-3.1984,13.6729],[-3.0387,13.6391],[-2.9972,13.6371],[-2.9508,13.6484],[-2.9171,13.6795],[-2.9185,13.7364],[-2.9259,13.7868],[-2.874,13.9507],[-2.7788,14.0737],[-2.5867,14.2276],[-2.5269,14.2583],[-2.4572,14.2741],[-2.1132,14.1684],[-2.0572,14.1946],[-1.973,14.4565],[-1.8798,14.4815],[-1.7678,14.486],[-1.6951,14.5085],[-1.6573,14.5268],[-1.4937,14.6261],[-1.205,14.7615],[-1.0496,14.8195],[-1.0192,14.8413],[-0.908,14.9374],[-0.7604,15.0478],[-0.6665,15.0698],[-0.5366,15.0779],[-0.4545,15.0596],[-0.4323,15.0285],[-0.4054,15.0125],[-0.2359,15.0594],[0.0073,14.9848],[0.2175,14.9115]]}},{"type":"Feature","properties":{},"geometry":{"type":"LineString","coordinates":[[-2.6959,9.4813],[-2.7172,9.4571],[-2.7666,9.4247],[-2.8167,9.4258],[-2.8751,9.5009],[-2.9009,9.5346],[-2.9481,9.6107],[-2.9883,9.6873],[-3.0426,9.7209],[-3.0958,9.7521],[-3.1607,9.8492],[-3.2235,9.8955],[-3.2897,9.8822],[-3.3863,9.9003],[-3.5811,9.9243],[-3.7906,9.9172],[-3.8777,9.8949],[-3.9635,9.8596],[-4.1812,9.7818],[-4.2672,9.7433],[-4.3322,9.6457],[-4.4062,9.648],[-4.4803,9.6792],[-4.5266,9.7235],[-4.6258,9.7136],[-4.7217,9.7566],[-4.8145,9.8412],[-4.8827,9.8689],[-4.9699,9.9301],[-4.994,10.0465],[-5.0493,10.1283],[-5.0999,10.2416],[-5.1753,10.2926],[-5.2623,10.3197],[-5.3823,10.314],[-5.4613,10.3595],[-5.5236,10.426]]}},{"type":"Feature","properties":{},"geometry":{"type":"LineString","coordinates":[[-8.4864,7.5585],[-8.4673,7.547],[-8.4372,7.5164],[-8.4088,7.4118],[-8.2966,7.074],[-8.3024,6.9809],[-8.3245,6.92],[-8.3251,6.8604],[-8.3326,6.8015],[-8.4012,6.7051],[-8.6036,6.5078],[-8.5879,6.4905],[-8.5396,6.4681],[-8.4904,6.4564],[-8.4499,6.4625],[-8.3993,6.4132],[-8.3449,6.3513],[-8.2871,6.319],[-8.2039,6.2907],[-8.131,6.2875],[-8.069,6.2984],[-7.9816,6.2862],[-7.8886,6.2349],[-7.8555,6.1502],[-7.8332,6.0764],[-7.8009,6.0389],[-7.7965,5.9751],[-7.7304,5.919],[-7.6361,5.9077],[-7.5139,5.842],[-7.4828,5.8455],[-7.4694,5.8537],[-7.4544,5.8413],[-7.4237,5.6513],[-7.3999,5.5506],[-7.4124,5.5099],[-7.4289,5.4779],[-7.4298,5.3245],[-7.4852,5.2364],[-7.4941,5.1398],[-7.5098,5.1085],[-7.5689,5.0807],[-7.5693,5.0065],[-7.585,4.9168],[-7.5912,4.8215],[-7.5746,4.5723],[-7.5716,4.3864],[-7.545,4.3513]]}},{"type":"Feature","properties":{},"geometry":{"type":"LineString","coordinates":[[-8.4864,7.5585],[-8.5223,7.5856],[-8.5644,7.6251],[-8.5789,7.6771],[-8.6073,7.688],[-8.6598,7.6884],[-8.7083,7.6589],[-8.7295,7.6053],[-8.7326,7.5435],[-8.7402,7.4957],[-8.7691,7.4668],[-8.828,7.392],[-8.8555,7.3228],[-8.8896,7.2627],[-8.9384,7.2661],[-8.961,7.2746],[-8.9766,7.2589],[-9.0523,7.2255],[-9.1176,7.2159],[-9.1348,7.2506],[-9.1728,7.2784],[-9.2152,7.3333],[-9.2633,7.3777],[-9.3553,7.4087],[-9.3916,7.3949],[-9.4351,7.3984],[-9.4638,7.4159],[-9.4598,7.4425],[-9.4115,7.51],[-9.384,7.5719],[-9.3689,7.6395],[-9.3691,7.7038],[-9.395,7.7946],[-9.4363,7.8667],[-9.4464,7.9085],[-9.4416,7.9679],[-9.4511,8.0232],[-9.4646,8.0521],[-9.4711,8.107],[-9.4841,8.157],[-9.5085,8.1762],[-9.5222,8.26],[-9.5183,8.3461],[-9.5539,8.3786],[-9.6102,8.4023],[-9.6432,8.436],[-9.6636,8.4735],[-9.6839,8.4844],[-9.7012,8.4822],[-9.7169,8.4589],[-9.7356,8.454],[-9.7683,8.5346],[-9.782,8.5377],[-9.8047,8.5192],[-10.0643,8.4299],[-10.0757,8.4646],[-10.0976,8.5058],[-10.1474,8.5197],[-10.2331,8.4888],[-10.2832,8.4851]]}},{"type":"Feature","properties":{},"geometry":{"type":"LineString","coordinates":[[-5.5236,10.426],[-5.5566,10.4399],[-5.6943,10.4332],[-5.8438,10.3895],[-5.8962,10.3547],[-5.9076,10.3072],[-5.9407,10.2751],[-5.9887,10.2391],[-6.0346,10.1948],[-6.1172,10.2019],[-6.1969,10.2321],[-6.2384,10.2616],[-6.2413,10.2792],[-6.215,10.3224],[-6.1926,10.3694],[-6.1907,10.4003],[-6.2178,10.4763],[-6.2397,10.5581],[-6.2306,10.5975],[-6.2502,10.7179],[-6.2611,10.7241],[-6.3657,10.6928],[-6.4042,10.6851],[-6.4259,10.6718],[-6.4326,10.6488],[-6.4075,10.5724],[-6.4239,10.5591],[-6.4826,10.5612],[-6.5646,10.5864],[-6.6541,10.6565],[-6.6764,10.6338],[-6.6861,10.578],[-6.692,10.512],[-6.6693,10.3922],[-6.6933,10.3494],[-6.7532,10.3571],[-6.8337,10.357],[-6.9038,10.3451],[-6.9503,10.3423],[-6.9795,10.2996],[-6.9917,10.2519],[-6.9638,10.1987],[-6.9682,10.1762],[-6.9895,10.1557],[-7.0171,10.1433],[-7.0397,10.1448],[-7.1049,10.2035],[-7.1823,10.2257],[-7.3632,10.2593],[-7.385,10.3401],[-7.4148,10.3413],[-7.4566,10.3839],[-7.498,10.4398],[-7.5328,10.4368],[-7.5621,10.4212],[-7.6612,10.4275],[-7.7491,10.3423],[-7.8142,10.2366],[-7.8841,10.1858],[-7.9609,10.1635],[-7.9906,10.1625]]}},{"type":"Feature","properties":{},"geometry":{"type":"LineString","coordinates":[[-15.043,10.9402],[-14.9991,10.9922],[-14.9444,11.0721],[-14.7793,11.4055],[-14.7203,11.4819],[-14.6829,11.5085],[-14.6048,11.5116],[-14.4525,11.5562],[-14.3278,11.6298],[-14.2656,11.6599],[-14.1223,11.652],[-13.9532,11.6646],[-13.7328,11.736],[-13.7286,11.8341],[-13.7307,11.9598],[-13.738,12.0097],[-13.8163,12.0545],[-13.8619,12.0933],[-13.9012,12.1429],[-13.9489,12.1782],[-13.9473,12.2152],[-13.8875,12.2469],[-13.8495,12.263],[-13.7597,12.2624],[-13.7301,12.2808],[-13.7079,12.3127],[-13.6824,12.3934],[-13.6736,12.4785],[-13.7326,12.5928],[-13.7293,12.6739]]}},{"type":"Feature","properties":{},"geometry":{"type":"LineString","coordinates":[[-11.3894,12.4044],[-11.4181,12.3777],[-11.4476,12.3192],[-11.4746,12.2472],[-11.5022,12.1986],[-11.4924,12.167],[-11.4146,12.104],[-11.3052,12.0154],[-11.2607,12.0041],[-11.2097,12.0249],[-11.1293,12.095],[-11.0658,12.1708],[-11.0045,12.2075],[-10.9332,12.2052],[-10.8762,12.1519],[-10.8065,12.0343],[-10.743,11.9273],[-10.7349,11.9165],[-10.7092,11.8987],[-10.6774,11.8994],[-10.6437,11.9255],[-10.619,11.9412],[-10.5895,11.9903],[-10.4658,12.1387],[-10.3728,12.1795],[-10.3399,12.1903],[-10.2749,12.2127],[-10.1671,12.1774],[-10.0106,12.1164],[-9.8207,12.0425],[-9.754,12.0299],[-9.7148,12.0425],[-9.6583,12.1431],[-9.5877,12.1825],[-9.4868,12.2287],[-9.405,12.2525],[-9.3581,12.2554],[-9.3402,12.2828],[-9.3315,12.3237],[-9.3408,12.366],[-9.3936,12.4422],[-9.3954,12.4647],[-9.3652,12.4793],[-9.3,12.4903],[-9.2156,12.4829],[-9.1205,12.4499],[-9.0431,12.4023],[-8.999,12.3459],[-8.9508,12.2256],[-8.9138,12.1086],[-8.8183,11.9225],[-8.8201,11.8071],[-8.822,11.6733],[-8.7797,11.6482],[-8.7331,11.6375],[-8.7114,11.6178],[-8.665,11.515],[-8.6211,11.4851],[-8.5687,11.4781],[-8.4707,11.4122],[-8.4075,11.3863],[-8.3985,11.3665],[-8.4007,11.3394],[-8.4253,11.3047],[-8.4635,11.2807],[-8.5203,11.236],[-8.5673,11.177],[-8.6639,11.0359],[-8.6667,11.0095],[-8.6462,10.9905],[-8.6062,10.987],[-8.5635,10.9967],[-8.4747,11.0484],[-8.4045,11.0299],[-8.3374,10.9906],[-8.3127,10.9498],[-8.3064,10.8961],[-8.3217,10.8269],[-8.3241,10.7495],[-8.3016,10.6176],[-8.2666,10.486],[-8.2315,10.438],[-8.0073,10.3219],[-7.9857,10.2784],[-7.9745,10.2295],[-7.9906,10.1625]]}},{"type":"Feature","properties":{},"geometry":{"type":"LineString","coordinates":[[-88.2283,15.729],[-88.2714,15.6949],[-88.3645,15.616],[-88.5333,15.4812],[-88.6845,15.3605],[-88.8299,15.251],[-88.961,15.1525],[-88.9764,15.1427],[-89.1426,15.0723],[-89.1703,15.0399],[-89.2061,14.9006],[-89.2224,14.8661],[-89.1922,14.7887],[-89.1622,14.6693],[-89.1718,14.6069],[-89.2867,14.53],[-89.3394,14.4607],[-89.3626,14.416]]}},{"type":"Feature","properties":{},"geometry":{"type":"LineString","coordinates":[[-77.3742,8.6583],[-77.3931,8.6447],[-77.4483,8.5659],[-77.4785,8.4984],[-77.4073,8.4272],[-77.3859,8.3517],[-77.3455,8.2695],[-77.2826,8.187],[-77.2123,8.0339],[-77.196,7.9725],[-77.216,7.9325],[-77.283,7.9081],[-77.3456,7.8365],[-77.3627,7.7491],[-77.3508,7.7058],[-77.5383,7.5663],[-77.5866,7.5431],[-77.6186,7.5646],[-77.6586,7.6346],[-77.7063,7.6912],[-77.732,7.7109],[-77.7469,7.7119],[-77.7619,7.6988],[-77.7688,7.6681],[-77.7439,7.537],[-77.7647,7.4837],[-77.8283,7.4428],[-77.9012,7.2294]]}},{"type":"Feature","properties":{},"geometry":{"type":"LineString","coordinates":[[-60.7421,5.202],[-60.954,5.4374],[-61.1672,5.6742],[-61.3768,5.907],[-61.3908,5.9388],[-61.3031,6.0495],[-61.225,6.1292],[-61.1595,6.1744],[-61.1287,6.2143],[-61.1523,6.3851],[-61.151,6.4465],[-61.1816,6.5134],[-61.2036,6.5884],[-61.1772,6.6509],[-61.1456,6.6946],[-61.1048,6.7114],[-61.0071,6.7266],[-60.938,6.7328],[-60.9136,6.7578],[-60.8734,6.7869],[-60.8209,6.7885],[-60.7179,6.7683],[-60.671,6.806],[-60.5861,6.8571],[-60.395,6.9454],[-60.3521,7.0029],[-60.322,7.092],[-60.3255,7.134],[-60.3451,7.15],[-60.3924,7.1645],[-60.4649,7.1665],[-60.5232,7.1437],[-60.5832,7.1562],[-60.6333,7.2111],[-60.6362,7.2566],[-60.6066,7.3208],[-60.6237,7.3633],[-60.7192,7.4987],[-60.7186,7.5359],[-60.6494,7.5966],[-60.6101,7.6483],[-60.5564,7.772],[-60.5136,7.8132],[-60.3806,7.8276],[-60.3468,7.854],[-60.2789,7.9194],[-60.1782,7.9941],[-60.0324,8.0536],[-59.9907,8.162],[-59.9649,8.1916],[-59.8491,8.2487],[-59.8289,8.2791],[-59.8316,8.306],[-60.0175,8.5493]]}},{"type":"Feature","properties":{},"geometry":{"type":"LineString","coordinates":[[-60.7421,5.202],[-60.712,5.1916],[-60.672,5.1644],[-60.635,5.082],[-60.6045,4.9946],[-60.6039,4.9494],[-60.6276,4.8925],[-60.6792,4.8271],[-60.7417,4.7741],[-60.8334,4.7292],[-60.9063,4.6868],[-60.9664,4.5747],[-61.0029,4.5353],[-61.0363,4.5193],[-61.1024,4.5047],[-61.2094,4.5081],[-61.2801,4.5169],[-61.3675,4.433],[-61.4794,4.4022],[-61.5542,4.2878],[-61.8208,4.197],[-62.0816,4.1263],[-62.1531,4.0984],[-62.4106,4.1567],[-62.4725,4.1385],[-62.544,4.0843],[-62.6097,4.0423],[-62.6653,4.0396],[-62.7121,4.0179],[-62.7399,3.9403],[-62.7646,3.673],[-62.857,3.5934],[-62.9686,3.594],[-63.0453,3.6865],[-63.1362,3.7564],[-63.2947,3.9222],[-63.3387,3.9439],[-63.3798,3.9429],[-63.5268,3.8937],[-63.5966,3.9151],[-63.6529,3.9408],[-63.747,3.9326],[-63.9146,3.9306],[-64.0215,3.9291],[-64.0734,3.9744],[-64.1217,4.067],[-64.1543,4.1002],[-64.1925,4.1268],[-64.2557,4.1403],[-64.5255,4.14],[-64.5764,4.1399],[-64.6136,4.1577],[-64.6655,4.2371],[-64.7222,4.2744],[-64.7887,4.276],[-64.8179,4.2323],[-64.7026,4.0893],[-64.669,4.0118],[-64.5679,3.8998],[-64.2753,3.6627],[-64.2211,3.5874],[-64.2271,3.4912],[-64.2288,3.344],[-64.2188,3.2047],[-64.1435,3.0049],[-64.0378,2.8015],[-64.009,2.6719],[-64.0287,2.5761],[-64.0488,2.5251],[-64.0466,2.5024],[-64.0249,2.4819],[-63.9242,2.4524],[-63.7126,2.434],[-63.5846,2.4339],[-63.3893,2.4119],[-63.3749,2.3404],[-63.3939,2.2225],[-63.4325,2.1556],[-63.4639,2.136],[-63.5702,2.1205],[-63.6822,2.0481],[-63.8445,1.9767],[-63.9372,1.967],[-63.9758,1.953],[-64.0085,1.9316],[-64.0355,1.9044],[-64.067,1.7705],[-64.1148,1.6193],[-64.205,1.5295],[-64.3042,1.4553],[-64.4051,1.4469],[-64.4861,1.4528],[-64.5263,1.431],[-64.5843,1.3699],[-64.6674,1.2938],[-64.7316,1.2533],[-64.8179,1.2571],[-64.9101,1.2197],[-65.0265,1.1584],[-65.1037,1.1081],[-65.1696,1.0222],[-65.264,0.9319],[-65.3609,0.8686],[-65.4072,0.7905],[-65.4734,0.6913],[-65.5561,0.688],[-65.5627,0.7475],[-65.523,0.8434],[-65.566,0.9261],[-65.6447,0.9704],[-65.6814,0.9835],[-65.7181,0.978],[-65.8113,0.9373],[-65.9259,0.8632],[-65.9964,0.8098],[-66.0601,0.7853],[-66.1912,0.7633],[-66.3017,0.7519],[-66.3471,0.7672],[-66.4292,0.8217],[-66.6191,0.9921],[-66.876,1.223]]}},{"type":"Feature","properties":{},"geometry":{"type":"LineString","coordinates":[[-16.5623,13.5873],[-16.3087,13.5969],[-16.0016,13.5928],[-15.6672,13.5883],[-15.5097,13.5862],[-15.4269,13.727],[-15.2695,13.7891],[-15.1083,13.8121],[-15.0245,13.806],[-14.9358,13.7852],[-14.766,13.6691],[-14.6602,13.6426],[-14.5709,13.6162],[-14.507,13.5597],[-14.4055,13.5037],[-14.3256,13.4886],[-14.278,13.4972],[-14.199,13.5188],[-14.147,13.5362],[-13.9774,13.5434],[-13.8528,13.4786],[-13.8267,13.4078],[-13.8475,13.3353],[-14.0149,13.2964],[-14.2467,13.2358],[-14.4386,13.2689],[-14.6719,13.3517],[-14.8083,13.4111],[-14.8651,13.4348],[-14.9503,13.4726],[-15.0246,13.5133],[-15.0964,13.5396],[-15.1511,13.5565],[-15.1916,13.5353],[-15.2121,13.4851],[-15.2445,13.4291],[-15.2862,13.396],[-15.4818,13.3763],[-15.6573,13.3558],[-15.7516,13.3384],[-15.8144,13.3251],[-15.8342,13.1565],[-16.033,13.1584],[-16.2283,13.1603],[-16.4309,13.1573],[-16.6488,13.1541],[-16.7045,13.1197],[-16.7633,13.0641]]}},{"type":"Feature","properties":{},"geometry":{"type":"LineString","coordinates":[[0.2175,14.9115],[0.2038,14.8651],[0.2028,14.7828],[0.1851,14.653],[0.1638,14.4972],[0.2506,14.3964],[0.3546,14.288],[0.3825,14.2458],[0.3548,14.139],[0.3741,14.0763],[0.4292,13.9721],[0.5223,13.8397],[0.6182,13.7034],[0.6845,13.6854],[0.7478,13.6745],[0.786,13.65],[0.8423,13.6264],[0.8979,13.6109],[0.9466,13.5811],[0.9777,13.5519],[1.0178,13.4679],[1.126,13.4124],[1.2012,13.3575],[1.1709,13.3296],[1.0769,13.3408],[0.9884,13.3648],[0.9767,13.3245],[0.9731,13.1704],[0.9873,13.0419],[1.0079,13.0248],[1.0968,13.0011],[1.3087,12.8343],[1.5005,12.6765],[1.5649,12.6354],[1.671,12.6198],[1.7898,12.6133],[1.841,12.6279],[1.9562,12.7074],[2.0174,12.7162],[2.0738,12.714],[2.1046,12.7013],[2.1597,12.6364],[2.2116,12.5384],[2.2263,12.4661],[2.2214,12.4272],[2.2038,12.4126],[2.1094,12.3939],[2.0685,12.3791],[2.0584,12.358],[2.073,12.3094],[2.0914,12.278],[2.1944,12.1365],[2.3434,11.946],[2.3892,11.8971]]}},{"type":"Feature","properties":{},"geometry":{"type":"LineString","coordinates":[[-84.3483,10.9799],[-84.4018,10.9745],[-84.4892,10.9916],[-84.6342,11.0456],[-84.7012,11.0522],[-84.7974,11.0059],[-84.9092,10.9453],[-85.179,11.0399],[-85.3684,11.1065],[-85.5387,11.1663],[-85.5842,11.1894],[-85.6214,11.1845],[-85.6537,11.1531],[-85.6906,11.0975],[-85.7026,11.0815],[-85.7223,11.0663],[-85.7443,11.0621]]}},{"type":"Feature","properties":{},"geometry":{"type":"LineString","coordinates":[[-82.8794,8.0707],[-82.8833,8.1306],[-82.9129,8.1996],[-82.9484,8.2569],[-83.0234,8.316],[-83.0273,8.3377],[-82.9975,8.3678],[-82.8616,8.4535],[-82.8448,8.4894],[-82.8426,8.5639],[-82.8557,8.6353],[-82.917,8.7403],[-82.882,8.8053],[-82.8119,8.8574],[-82.74,8.8986],[-82.7278,8.916],[-82.7411,8.9517],[-82.7831,8.9903],[-82.8813,9.0559],[-82.9404,9.0601],[-82.9428,9.2489],[-82.9399,9.4492],[-82.925,9.469],[-82.8889,9.481],[-82.8601,9.5115],[-82.844,9.5708],[-82.801,9.5918],[-82.7234,9.5461],[-82.6441,9.5059],[-82.6113,9.5192],[-82.5865,9.5388],[-82.5692,9.5582],[-82.5636,9.5767]]}},{"type":"Feature","properties":{},"geometry":{"type":"LineString","coordinates":[[-66.876,1.223],[-66.8955,1.2899],[-66.8845,1.3582],[-66.9311,1.458],[-66.9584,1.5642],[-66.9815,1.6008],[-66.9881,1.6802],[-67.0439,1.8232],[-67.0895,1.9403],[-67.1314,1.9999],[-67.1138,2.0506],[-67.1314,2.1013],[-67.1655,2.1426],[-67.2152,2.2755],[-67.1976,2.3328],[-67.2108,2.3901],[-67.2528,2.4295],[-67.3122,2.4717],[-67.3916,2.5599],[-67.4864,2.6437],[-67.5349,2.6767],[-67.568,2.69],[-67.5967,2.7693],[-67.6187,2.7936],[-67.6672,2.8002],[-67.7665,2.8333],[-67.8591,2.7936],[-67.8613,2.8553],[-67.8348,2.8928],[-67.5148,3.1872],[-67.3536,3.3227],[-67.3363,3.3426],[-67.3222,3.374],[-67.3112,3.4159],[-67.3477,3.4638],[-67.4987,3.6911],[-67.5511,3.7338],[-67.6026,3.7688],[-67.6616,3.8643],[-67.7323,4.0865],[-67.7832,4.1982],[-67.7986,4.2839],[-67.7954,4.3807],[-67.8143,4.4551],[-67.8553,4.5069],[-67.8553,4.6655],[-67.8143,4.9308],[-67.8042,5.1325],[-67.8249,5.2705],[-67.7884,5.3755],[-67.6946,5.4475],[-67.6423,5.5588],[-67.6313,5.7094],[-67.5752,5.8331],[-67.4739,5.93],[-67.4394,6.0255],[-67.4716,6.1198],[-67.482,6.1803],[-67.5681,6.2418],[-67.7272,6.2849],[-67.8592,6.2899],[-67.9389,6.2419],[-68.1431,6.1975],[-68.4718,6.1565],[-68.7365,6.1568],[-68.9372,6.1982],[-69.0899,6.1844],[-69.1945,6.1153],[-69.2681,6.0997],[-69.3108,6.1376],[-69.3571,6.148],[-69.4271,6.124],[-69.4392,6.1349],[-69.5948,6.3215],[-69.739,6.4944],[-69.9042,6.7003],[-70.095,6.9379],[-70.1292,6.9536],[-70.1881,6.952],[-70.2661,6.9479],[-70.3875,6.9726],[-70.4707,7.0071],[-70.5355,7.0406],[-70.6551,7.0828],[-70.7371,7.0901],[-70.8107,7.0776],[-71.0133,6.9945],[-71.1286,6.9867],[-71.2178,6.9852],[-71.4572,7.0263],[-71.6209,7.0329],[-71.8113,7.0058],[-71.8927,6.9903],[-72.0066,7.0326],[-72.0843,7.0969],[-72.1567,7.2497],[-72.2077,7.3702],[-72.2963,7.3945],[-72.3946,7.4151],[-72.443,7.4549],[-72.472,7.5243],[-72.479,7.6132],[-72.4689,7.758],[-72.4596,7.8099],[-72.446,7.9661],[-72.3917,8.0477],[-72.3576,8.0873],[-72.3642,8.1528],[-72.3904,8.287],[-72.4166,8.382],[-72.5257,8.4897],[-72.6654,8.6276],[-72.7255,8.8483],[-72.7964,9.109],[-72.8521,9.1352],[-72.9045,9.1221],[-72.9601,9.1352],[-73.0093,9.24],[-73.0584,9.2596],[-73.1367,9.2228],[-73.1932,9.1941],[-73.3367,9.1679],[-73.3662,9.1941],[-73.3563,9.2269],[-73.2956,9.322],[-73.2243,9.4436],[-73.1413,9.5546],[-73.0641,9.6682],[-73.0065,9.7891],[-72.9674,10.0297],[-72.9404,10.1958],[-72.8693,10.4912],[-72.7391,10.7272],[-72.6901,10.8359],[-72.5723,10.9772],[-72.518,11.0539],[-72.4461,11.1143],[-72.2485,11.1964],[-72.0123,11.6019],[-71.9581,11.6664],[-71.7195,11.7268],[-71.5361,11.7741],[-71.4002,11.8235],[-71.3556,11.8497],[-71.3197,11.8619]]}},{"type":"Feature","properties":{},"geometry":{"type":"LineString","coordinates":[[-13.7293,12.6739],[-14.0648,12.6753],[-14.3492,12.6764],[-14.7082,12.678],[-14.9606,12.679],[-15.1961,12.6799],[-15.3779,12.5889],[-15.5748,12.4904],[-15.8395,12.4379],[-16.1442,12.4574],[-16.2415,12.4433],[-16.3423,12.3995],[-16.4163,12.3677],[-16.5213,12.3487],[-16.6569,12.3644],[-16.7118,12.3549]]}},{"type":"Feature","properties":{},"geometry":{"type":"LineString","coordinates":[[-11.3894,12.4044],[-11.4567,12.4176],[-11.5737,12.4263],[-11.8081,12.3873],[-11.8885,12.4033],[-12.0424,12.3981],[-12.1519,12.3766],[-12.2912,12.328],[-12.3991,12.3401],[-12.4574,12.3784],[-12.5342,12.3758],[-12.6208,12.3962],[-12.713,12.4331],[-12.7973,12.4519],[-12.8882,12.52],[-12.9307,12.5323],[-12.9605,12.5144],[-12.9857,12.4916],[-13.0119,12.4776],[-13.0613,12.49],[-13.0798,12.5363],[-13.0644,12.5811],[-13.0598,12.615],[-13.0829,12.6335],[-13.1385,12.6397],[-13.2281,12.6396],[-13.3726,12.6536],[-13.4057,12.6623],[-13.7293,12.6739]]}},{"type":"Feature","properties":{},"geometry":{"type":"LineString","coordinates":[[0.9005,10.9933],[0.643,10.9831],[0.5491,10.9554],[0.4927,10.955],[0.4907,10.9782],[0.4841,10.992],[0.1593,11.0696],[-0.0686,11.1156]]}},{"type":"Feature","properties":{},"geometry":{"type":"LineString","coordinates":[[-139.0565,60.0016],[-139.1852,60.0836],[-139.137,60.1727],[-139.0793,60.2794],[-139.0793,60.3437],[-139.2348,60.3397],[-139.468,60.3337],[-139.6763,60.3283],[-139.8307,60.2529],[-139.9733,60.1831],[-140.1969,60.2375],[-140.4528,60.2997],[-140.5254,60.2183],[-140.7627,60.2591],[-141.0021,60.3002],[-141.0021,60.5925],[-141.0021,60.8847],[-141.0021,61.1769],[-141.0021,61.4691],[-141.0021,61.7613],[-141.0021,62.0535],[-141.0021,62.3457],[-141.0021,62.6379],[-141.0021,62.9301],[-141.0021,63.2223],[-141.0021,63.5145],[-141.0021,63.8067],[-141.0021,64.0989],[-141.0021,64.3911],[-141.0021,64.6833],[-141.0021,64.9755],[-141.0021,65.2677],[-141.0021,65.5599],[-141.0021,65.8521],[-141.0021,66.0]]}},{"type":"Feature","properties":{},"geometry":{"type":"LineString","coordinates":[[-130.622,54.7089],[-130.5753,54.7697],[-130.4932,54.8342],[-130.3125,54.9459],[-130.2141,55.0259],[-130.064,55.2261],[-130.0179,55.2849],[-130.0149,55.3317],[-130.0218,55.3718],[-130.0376,55.4165],[-130.0685,55.4828],[-130.11,55.5809],[-130.1225,55.691],[-130.0916,55.7862],[-130.0251,55.8882],[-130.0141,55.9505],[-130.0229,56.0145],[-130.056,56.0652],[-130.0979,56.1093],[-130.2147,56.0828],[-130.4131,56.1225],[-130.4771,56.2306],[-130.6491,56.2637],[-130.7417,56.3408],[-130.9302,56.3786],[-131.0829,56.4048],[-131.1994,56.4492],[-131.3358,56.5012],[-131.4719,56.5567],[-131.5751,56.5988],[-131.6515,56.5961],[-131.8243,56.59],[-131.8331,56.6848],[-131.886,56.7421],[-131.8662,56.7928],[-131.9625,56.8187],[-132.1043,56.8568],[-132.0629,56.9534],[-132.0315,57.0265],[-132.157,57.0482],[-132.338,57.0795],[-132.2794,57.1453],[-132.2322,57.1985],[-132.3017,57.2763],[-132.4425,57.4067],[-132.5505,57.4999],[-132.6915,57.6451],[-132.8155,57.7727],[-132.9168,57.877],[-133.0014,57.949],[-133.1204,58.0777],[-133.2753,58.2229],[-133.4226,58.3371],[-133.4011,58.4109],[-133.5464,58.5035],[-133.6739,58.5971],[-133.8207,58.705],[-133.9657,58.7579],[-134.0692,58.7955],[-134.2185,58.8499],[-134.297,58.8985],[-134.3296,58.9397],[-134.3635,58.9687],[-134.3931,59.0092],[-134.4102,59.0562],[-134.4408,59.0853],[-134.622,59.1553],[-134.6772,59.1993],[-134.8024,59.25],[-134.9072,59.2712],[-134.9438,59.2883],[-135.0713,59.4414],[-135.0508,59.4961],[-135.0367,59.5507],[-135.051,59.5787],[-135.2608,59.695],[-135.3679,59.7433],[-135.4759,59.7933],[-135.7026,59.7288],[-135.9346,59.6626],[-136.0972,59.6384],[-136.3218,59.6048],[-136.2471,59.5329],[-136.278,59.4803],[-136.3478,59.456],[-136.4663,59.4591],[-136.4667,59.2799],[-136.5787,59.1523],[-136.8133,59.15],[-136.9393,59.1061],[-137.1262,59.0409],[-137.2776,58.9882],[-137.4386,58.9031],[-137.5209,58.9154],[-137.4842,58.9912],[-137.5437,59.1194],[-137.5933,59.2263],[-137.6966,59.2811],[-137.8706,59.3736],[-138.0011,59.4429],[-138.1875,59.5419],[-138.3176,59.6111],[-138.4536,59.6834],[-138.6323,59.7783],[-138.7055,59.9013],[-138.8688,59.9457],[-139.0434,59.9932],[-139.0565,60.0016]]}},{"type":"Feature","properties":{},"geometry":{"type":"LineString","coordinates":[[-123.3136,48.993],[-123.1821,48.993],[-123.0864,48.993],[-123.0492,48.993],[-122.9417,48.993],[-122.7888,48.993],[-122.6864,48.993]]}},{"type":"Feature","properties":{},"geometry":{"type":"LineString","coordinates":[[-88.8941,15.8906],[-88.9372,15.8898],[-89.1136,15.9007],[-89.2328,15.8887],[-89.2375,15.8944],[-89.2276,16.1428],[-89.2124,16.5271],[-89.2013,16.809],[-89.1904,17.0847],[-89.1822,17.2912],[-89.1711,17.5723],[-89.1615,17.8148]]}},{"type":"Feature","properties":{},"geometry":{"type":"LineString","coordinates":[[-75.2845,-0.1065],[-75.3405,-0.1422],[-75.3984,-0.146],[-75.476,-0.1571],[-75.5838,-0.1228],[-75.6263,-0.1228],[-75.632,-0.1576],[-75.5606,-0.2001],[-75.4911,-0.2484],[-75.466,-0.3217],[-75.4247,-0.4089],[-75.3252,-0.5065],[-75.2632,-0.5554],[-75.2594,-0.5901],[-75.2787,-0.6539],[-75.2836,-0.7071],[-75.2496,-0.9518],[-75.2724,-0.9668],[-75.3092,-0.9681],[-75.3482,-0.9668],[-75.3801,-0.9403],[-75.4081,-0.9243],[-75.4204,-0.9622],[-75.4492,-1.0712],[-75.5139,-1.3164],[-75.5705,-1.5312],[-75.6417,-1.6073],[-75.7445,-1.7281],[-75.8855,-1.8934],[-76.0898,-2.1332],[-76.2409,-2.2439],[-76.3601,-2.3313],[-76.4994,-2.4323],[-76.6791,-2.5626],[-76.8808,-2.6359],[-77.1615,-2.7377],[-77.3601,-2.8097],[-77.5065,-2.86],[-77.659,-2.9124],[-77.8606,-2.9817],[-77.9385,-3.047],[-78.0679,-3.2068],[-78.1282,-3.2839],[-78.1833,-3.3502],[-78.1947,-3.3805],[-78.1874,-3.3998],[-78.161,-3.4321],[-78.1585,-3.4652],[-78.1949,-3.4858],[-78.2263,-3.4891],[-78.2404,-3.4726],[-78.2507,-3.4361],[-78.2842,-3.399],[-78.323,-3.3883],[-78.3454,-3.3974],[-78.3473,-3.4313],[-78.3981,-3.5948],[-78.3999,-3.6743],[-78.4214,-3.7058],[-78.4198,-3.7769],[-78.471,-3.843],[-78.4935,-3.902],[-78.5091,-3.9522],[-78.5504,-3.9869],[-78.5651,-4.0416],[-78.6034,-4.1573],[-78.648,-4.2482],[-78.6794,-4.3259],[-78.6851,-4.384],[-78.6612,-4.4251],[-78.6529,-4.4582],[-78.6744,-4.5177],[-78.686,-4.5624],[-78.743,-4.5927],[-78.8615,-4.665],[-78.9076,-4.7145],[-78.9258,-4.7707],[-78.9142,-4.8187],[-78.9192,-4.8584],[-78.9754,-4.8732],[-78.9952,-4.908],[-79.0333,-4.9692],[-79.0763,-4.9907],[-79.1867,-4.9582],[-79.2681,-4.9576],[-79.3309,-4.9278],[-79.3994,-4.84],[-79.4558,-4.7662],[-79.5019,-4.6706],[-79.5161,-4.5392],[-79.5777,-4.5006],[-79.6385,-4.4549],[-79.711,-4.4676],[-79.7973,-4.4764],[-79.8451,-4.4459],[-79.9629,-4.3904],[-80.0635,-4.3275],[-80.1396,-4.2961],[-80.1975,-4.311],[-80.2322,-4.349],[-80.2934,-4.4168],[-80.3835,-4.4637],[-80.4242,-4.4614],[-80.4786,-4.4301],[-80.4885,-4.3937],[-80.4438,-4.3358],[-80.3529,-4.2085],[-80.4538,-4.2052],[-80.4885,-4.1655],[-80.4935,-4.1192],[-80.51,-4.0696],[-80.4901,-4.01],[-80.4372,-3.9786],[-80.3579,-4.0034],[-80.3033,-4.0051],[-80.2669,-3.9489],[-80.2305,-3.924],[-80.1941,-3.9059],[-80.1793,-3.8777],[-80.2176,-3.7877],[-80.2289,-3.7388],[-80.2173,-3.7107],[-80.2189,-3.6545],[-80.2206,-3.6132],[-80.2438,-3.5768],[-80.2454,-3.5222],[-80.2652,-3.4924],[-80.2719,-3.461],[-80.2735,-3.4246],[-80.2983,-3.4065],[-80.3247,-3.3879]]}},{"type":"Feature","properties":{},"geometry":{"type":"LineString","coordinates":[[-69.9659,-4.236],[-70.0172,-4.162],[-70.0948,-4.0922],[-70.1675,-4.0502],[-70.1984,-3.9952],[-70.2403,-3.8827],[-70.2984,-3.8443],[-70.3395,-3.8143],[-70.3792,-3.8187],[-70.4211,-3.8496],[-70.4858,-3.8694],[-70.5297,-3.8664],[-70.7062,-3.789],[-70.7351,-3.7815],[-70.6217,-3.6046],[-70.419,-3.2883],[-70.2901,-3.0873],[-70.1471,-2.8641],[-70.074,-2.7502],[-70.0645,-2.7308],[-70.0647,-2.7017],[-70.0958,-2.6582],[-70.1647,-2.6399],[-70.2444,-2.6066],[-70.2946,-2.5525],[-70.3641,-2.5293],[-70.4182,-2.4907],[-70.5168,-2.4531],[-70.5759,-2.4183],[-70.648,-2.4057],[-70.7054,-2.342],[-70.9146,-2.2186],[-70.9686,-2.2068],[-71.0273,-2.2258],[-71.1134,-2.2454],[-71.1964,-2.313],[-71.3001,-2.3348],[-71.397,-2.3341],[-71.4475,-2.2937],[-71.4961,-2.2792],[-71.5595,-2.2242],[-71.6715,-2.1821],[-71.7525,-2.1527],[-71.8027,-2.1663],[-71.8673,-2.2277],[-71.9325,-2.2887],[-71.9843,-2.3266],[-72.0538,-2.3246],[-72.1368,-2.3806],[-72.2185,-2.4005],[-72.3007,-2.4093],[-72.3956,-2.4289],[-72.5007,-2.395],[-72.5867,-2.3652],[-72.6254,-2.3516],[-72.6601,-2.361],[-72.7142,-2.3922],[-72.8112,-2.4055],[-72.8871,-2.4085],[-72.9411,-2.394],[-72.9897,-2.3398],[-73.0682,-2.3121],[-73.1545,-2.2783],[-73.1727,-2.2084],[-73.1602,-2.1563],[-73.1265,-2.081],[-73.1452,-2.0033],[-73.1815,-1.8804],[-73.1969,-1.8302],[-73.224,-1.7877],[-73.2665,-1.7723],[-73.3495,-1.7839],[-73.4403,-1.7374],[-73.4963,-1.693],[-73.5252,-1.6389],[-73.4943,-1.5366],[-73.5214,-1.4497],[-73.5755,-1.4014],[-73.6102,-1.3165],[-73.6643,-1.2489],[-73.7358,-1.2141],[-73.8072,-1.218],[-73.8632,-1.1967],[-73.927,-1.1252],[-73.9868,-1.0981],[-74.0544,-1.0286],[-74.1808,-0.9977],[-74.2464,-0.9706],[-74.2839,-0.9278],[-74.3344,-0.8509],[-74.3286,-0.8084],[-74.3531,-0.7666],[-74.3749,-0.6914],[-74.4179,-0.5806],[-74.4652,-0.5176],[-74.5138,-0.4702],[-74.5551,-0.4298],[-74.6164,-0.3701],[-74.6917,-0.3353],[-74.7554,-0.2986],[-74.7805,-0.2445],[-74.8017,-0.2001],[-74.8375,-0.2033],[-74.8888,-0.1994],[-74.9453,-0.1882],[-75.005,-0.1559],[-75.0547,-0.1167],[-75.1384,-0.0505],[-75.1841,-0.0418],[-75.2246,-0.0418],[-75.2845,-0.1065]]}},{"type":"Feature","properties":{},"geometry":{"type":"LineString","coordinates":[[-66.876,1.223],[-67.0653,1.1784],[-67.0823,1.1854],[-67.0937,1.21],[-67.0883,1.4006],[-67.0901,1.6156],[-67.1192,1.7036],[-67.2058,1.8448],[-67.3206,2.0321],[-67.3519,2.0858],[-67.4004,2.1167],[-67.4578,2.1211],[-67.4996,2.1079],[-67.5561,2.073],[-67.6092,2.0351],[-67.7119,1.9221],[-67.8151,1.7901],[-67.8755,1.7606],[-67.9362,1.7485],[-67.9898,1.7525],[-68.0328,1.7881],[-68.0771,1.8601],[-68.1303,1.9557],[-68.1938,1.987],[-68.2184,1.9576],[-68.2395,1.9014],[-68.2559,1.8455],[-68.2133,1.7745],[-68.1766,1.7198],[-68.2396,1.7217],[-68.4434,1.7216],[-68.6785,1.7215],[-68.9132,1.7214],[-69.1243,1.7213],[-69.3197,1.7212],[-69.3944,1.7258],[-69.4702,1.7579],[-69.5429,1.7732],[-69.5813,1.7707],[-69.65,1.7395],[-69.7396,1.7349],[-69.7999,1.7052],[-69.8486,1.7088],[-69.8495,1.5439],[-69.8508,1.3088],[-69.8522,1.0595],[-69.7981,1.0784],[-69.7513,1.0766],[-69.717,1.0591],[-69.6209,1.0733],[-69.5676,1.0658],[-69.5171,1.0595],[-69.4703,1.0586],[-69.4415,1.0388],[-69.4028,1.0424],[-69.3614,1.064],[-69.3118,1.0505],[-69.2587,1.0154],[-69.2245,0.9631],[-69.1939,0.8983],[-69.1632,0.8641],[-69.165,0.802],[-69.166,0.7533],[-69.1768,0.7128],[-69.1632,0.6867],[-69.1533,0.6588],[-69.1561,0.6425],[-69.1741,0.6354],[-69.2128,0.6299],[-69.2542,0.6254],[-69.283,0.6272],[-69.3055,0.6525],[-69.3271,0.6552],[-69.3587,0.6516],[-69.392,0.6669],[-69.4208,0.6984],[-69.4721,0.7299],[-69.527,0.7164],[-69.5649,0.7002],[-69.6036,0.6804],[-69.6387,0.6596],[-69.6738,0.6651],[-69.7189,0.6498],[-69.7567,0.6264],[-69.8071,0.6075],[-69.8621,0.5985],[-69.9251,0.5894],[-69.9854,0.5859],[-70.0539,0.5786],[-70.0579,0.4474],[-70.0657,0.1893],[-70.0709,0.0186],[-70.0705,-0.1389],[-70.0441,-0.1962],[-69.9228,-0.3174],[-69.828,-0.3814],[-69.7474,-0.4525],[-69.6675,-0.4824],[-69.634,-0.5093],[-69.6119,-0.5534],[-69.6009,-0.5997],[-69.5921,-0.6393],[-69.6009,-0.6813],[-69.6207,-0.7209],[-69.6119,-0.7628],[-69.5832,-0.7959],[-69.5744,-0.8378],[-69.5546,-0.8775],[-69.5436,-0.9172],[-69.5193,-0.9458],[-69.4884,-0.9657],[-69.4488,-0.9988],[-69.4443,-1.0296],[-69.4488,-1.0649],[-69.4491,-1.0916],[-69.4114,-1.1522],[-69.4002,-1.195],[-69.4179,-1.2457],[-69.4349,-1.4217],[-69.4786,-1.622],[-69.5065,-1.7749],[-69.5518,-2.0243],[-69.6047,-2.3142],[-69.669,-2.6676],[-69.7326,-3.0167],[-69.7942,-3.3546],[-69.8498,-3.6599],[-69.9111,-3.9966],[-69.9482,-4.2006],[-69.9659,-4.236]]}},{"type":"Feature","properties":{},"geometry":{"type":"LineString","coordinates":[[-66.7619,-10.0],[-66.73,-9.9755],[-66.5753,-9.8999],[-66.4789,-9.8862],[-66.3992,-9.8682],[-66.2636,-9.8261],[-65.9247,-9.7854],[-65.7068,-9.7685],[-65.6371,-9.8091],[-65.5587,-9.7975],[-65.492,-9.7318],[-65.4368,-9.7104],[-65.3961,-9.7124],[-65.3379,-9.7903],[-65.3093,-9.8726],[-65.3281,-9.9356],[-65.3256,-10.0]]}},{"type":"Feature","properties":{},"geometry":{"type":"MultiLineString","coordinates":[[[-69.9659,-4.236],[-69.972,-4.3011],[-70.004,-4.3272],[-70.0533,-4.3331],[-70.1288,-4.2866],[-70.184,-4.2982],[-70.2391,-4.3011],[-70.3169,-4.247],[-70.3437,-4.1937],[-70.4046,-4.1501],[-70.5307,-4.1676],[-70.6346,-4.1687],[-70.7216,-4.1589],[-70.7995,-4.1733],[-70.866,-4.2296],[-70.9156,-4.2953],[-70.9737,-4.3505],[-71.1443,-4.3872],[-71.235,-4.3882],[-71.3168,-4.4243],[-71.4383,-4.4376],[-71.5213,-4.4698],[-71.6684,-4.4873],[-71.8448,-4.5044],[-71.9431,-4.5533],[-71.9824,-4.5746],[-72.0825,-4.6423],[-72.2568,-4.7489],[-72.3528,-4.786],[-72.469,-4.9013],[-72.6084,-5.0096],[-72.6987,-5.0672],[-72.8319,-5.0937],[-72.8871,-5.1228],[-72.9075,-5.1577],[-72.8958,-5.1983],[-72.9183,-5.3025],[-72.9589,-5.4952],[-72.9702,-5.5897],[-72.9799,-5.6349],[-73.0681,-5.7896],[-73.1629,-5.9334],[-73.2094,-6.0287],[-73.2356,-6.0984],[-73.2065,-6.1565],[-73.1677,-6.2607],[-73.1353,-6.3443],[-73.1263,-6.4009],[-73.1374,-6.4658],[-73.1775,-6.5252],[-73.2403,-6.5641],[-73.3255,-6.5747],[-73.4999,-6.6795],[-73.6945,-6.8337],[-73.7581,-6.9057],[-73.7762,-6.9736],[-73.8046,-7.0799],[-73.793,-7.1351],[-73.7582,-7.1728],[-73.7233,-7.2628],[-73.7204,-7.3093],[-73.7495,-7.3354],[-73.8046,-7.3412],[-73.854,-7.3499],[-73.8917,-7.3731],[-73.9295,-7.3673],[-73.9643,-7.3789],[-73.9643,-7.4167],[-73.9527,-7.4602],[-73.9585,-7.5067],[-73.9817,-7.5357],[-74.0021,-7.556],[-73.9817,-7.5851],[-73.9469,-7.6112],[-73.8946,-7.6548],[-73.8221,-7.739],[-73.7669,-7.7535],[-73.7204,-7.7825],[-73.7146,-7.829],[-73.732,-7.8754],[-73.7727,-7.8957],[-73.7756,-7.9364],[-73.7204,-7.9858],[-73.6827,-8.0206],[-73.6449,-8.0728],[-73.6101,-8.1454],[-73.6101,-8.1919],[-73.5724,-8.2499],[-73.5491,-8.2993],[-73.5491,-8.3458],[-73.4881,-8.3922],[-73.4359,-8.4271],[-73.3982,-8.459],[-73.3604,-8.4793],[-73.3517,-8.5142],[-73.3567,-8.567],[-73.3024,-8.654],[-73.2031,-8.7194],[-73.1225,-8.8141],[-73.0705,-8.8828],[-72.974,-8.9931],[-72.9703,-9.1202],[-73.0898,-9.2657],[-73.2094,-9.4114],[-73.0138,-9.4074],[-72.8143,-9.4104],[-72.6055,-9.4521],[-72.4648,-9.4922],[-72.379,-9.5102],[-72.3181,-9.5566],[-72.289,-9.6292],[-72.2658,-9.6885],[-72.26,-9.7743],[-72.1729,-9.844],[-72.1791,-9.9101],[-72.1815,-10.0]],[[-71.5154,-10.0],[-71.3394,-9.9886],[-71.2379,-9.966],[-71.1153,-9.8525],[-71.0417,-9.8187],[-70.9708,-9.7657],[-70.8845,-9.669],[-70.8163,-9.6253],[-70.7585,-9.5717],[-70.6725,-9.5179],[-70.6369,-9.4782],[-70.6079,-9.4637],[-70.5411,-9.4375],[-70.5702,-9.4898],[-70.5922,-9.5435],[-70.5992,-9.6205],[-70.5672,-9.7046],[-70.5938,-9.7675],[-70.6369,-9.8237],[-70.6376,-9.9717],[-70.6377,-10.0]]]}},{"type":"Feature","properties":{},"geometry":{"type":"LineString","coordinates":[[-17.048,20.8061],[-17.064,20.8989],[-17.0424,21.008],[-17.0059,21.1424],[-16.9646,21.3292],[-16.8364,21.3294],[-16.607,21.3297],[-16.3777,21.3299],[-16.1484,21.3302],[-15.9191,21.3305],[-15.6898,21.3308],[-15.4605,21.3311],[-15.2312,21.3313],[-15.0019,21.3316],[-14.7726,21.3319],[-14.5433,21.3321],[-14.314,21.3324],[-14.0846,21.3327],[-13.8553,21.333],[-13.626,21.3332],[-13.3967,21.3335],[-13.1674,21.3338],[-13.0162,21.3339],[-13.0251,21.4668],[-13.0322,21.5721],[-13.0418,21.7138],[-13.0512,21.8548],[-13.0607,21.9957],[-13.0696,22.1282],[-13.0785,22.2604],[-13.0868,22.3833],[-13.0943,22.496],[-13.1073,22.5607],[-13.156,22.6893],[-13.1665,22.7532],[-13.1533,22.8205],[-13.1209,22.8841],[-13.0315,23.0003],[-12.896,23.0896],[-12.7396,23.1927],[-12.6204,23.2713],[-12.5594,23.2908],[-12.3729,23.318],[-12.2262,23.3775],[-12.0833,23.4354],[-12.0234,23.4676],[-12.0163,23.5764],[-12.0163,23.6979],[-12.0163,23.834],[-12.0163,23.9702],[-12.0163,24.1063],[-12.0163,24.2425],[-12.0163,24.3786],[-12.0163,24.5148],[-12.0163,24.651],[-12.0163,24.7871],[-12.0163,24.9232],[-12.0163,25.0594],[-12.0163,25.1955],[-12.0163,25.3317],[-12.0163,25.4679],[-12.0163,25.604],[-12.0163,25.7401],[-12.0163,25.8763],[-12.0163,25.9954],[-11.8667,25.9954],[-11.6803,25.9954],[-11.494,25.9954],[-11.3077,25.9954],[-11.1214,25.9954],[-10.9351,25.9955],[-10.7488,25.9955],[-10.5625,25.9955],[-10.3761,25.9955],[-10.1898,25.9955],[-10.0035,25.9955],[-9.8172,25.9955],[-9.6309,25.9955],[-9.4445,25.9955],[-9.2582,25.9955],[-9.0719,25.9955],[-8.8856,25.9955],[-8.6822,25.9955],[-8.6822,26.1095],[-8.6821,26.2732],[-8.6823,26.4977],[-8.6826,26.7231],[-8.6829,26.9213],[-8.6831,27.1193],[-8.6834,27.2859]]}},{"type":"Feature","properties":{},"geometry":{"type":"LineString","coordinates":[[-8.6834,27.2859],[-8.4953,27.1753],[-8.3073,27.0648],[-8.1192,26.9542],[-7.9312,26.8436],[-7.7431,26.7329],[-7.5551,26.6224],[-7.367,26.5118],[-7.1789,26.4012],[-6.9909,26.2906],[-6.8028,26.18],[-6.6148,26.0694],[-6.4267,25.9588],[-6.2387,25.8482],[-6.0506,25.7376],[-5.8626,25.627],[-5.6745,25.5164],[-5.5169,25.4238],[-5.275,25.2745],[-5.0495,25.1355],[-4.8226,24.9956]]}},{"type":"Feature","properties":{},"geometry":{"type":"LineString","coordinates":[[-8.6834,27.6565],[-8.6834,27.9004],[-8.6834,28.112],[-8.6834,28.3237],[-8.6834,28.4692],[-8.6834,28.6207],[-8.6784,28.6894],[-8.6599,28.7186],[-8.5583,28.7679],[-8.3993,28.8802],[-8.3405,28.9302],[-8.2652,28.9805],[-7.9989,29.1324],[-7.9439,29.1748],[-7.6851,29.3495],[-7.6246,29.3752],[-7.4858,29.3922],[-7.4277,29.425],[-7.3498,29.4947],[-7.2349,29.5749],[-7.1602,29.6127],[-7.1424,29.6196],[-7.0949,29.6252],[-6.8555,29.6016],[-6.7551,29.5839],[-6.6354,29.5688],[-6.5978,29.579],[-6.5657,29.6039],[-6.5206,29.6598],[-6.5107,29.726],[-6.5079,29.7838],[-6.5009,29.8091],[-6.4797,29.8204],[-6.4276,29.8161],[-6.3576,29.8083],[-6.2148,29.8107],[-6.1665,29.819],[-6.0043,29.8313],[-5.775,29.869],[-5.5933,29.918],[-5.4488,29.9569],[-5.2937,30.0587],[-5.1801,30.1662],[-5.0619,30.3264],[-4.9682,30.4654],[-4.7785,30.5524],[-4.6196,30.6048],[-4.5291,30.6255],[-4.3229,30.6989],[-4.1488,30.8096],[-3.9854,30.9135],[-3.8601,30.9272],[-3.702,30.9445],[-3.6668,30.964],[-3.6269,31.0009],[-3.6245,31.0658],[-3.6725,31.1114],[-3.7302,31.1354],[-3.771,31.1618],[-3.8118,31.1666],[-3.8334,31.1978],[-3.8214,31.2555],[-3.8152,31.3088],[-3.7891,31.3618],[-3.7964,31.4371],[-3.8371,31.5123],[-3.8496,31.5664],[-3.8467,31.6199],[-3.8267,31.6619],[-3.7682,31.6895],[-3.7003,31.7001],[-3.6046,31.6868],[-3.4398,31.7046],[-3.0174,31.8343],[-2.9882,31.8742],[-2.9611,31.9639],[-2.9308,32.0425],[-2.8872,32.0688],[-2.8634,32.0747],[-2.7226,32.0958],[-2.5233,32.1257],[-2.4484,32.13],[-2.2313,32.1213],[-2.0728,32.115],[-1.817,32.1048],[-1.6352,32.0995],[-1.477,32.0949],[-1.2753,32.089]]}},{"type":"Feature","properties":{},"geometry":{"type":"LineString","coordinates":[[-8.6834,27.2859],[-8.6834,27.4903],[-8.6834,27.6565]]}},{"type":"Feature","properties":{},"geometry":{"type":"LineString","coordinates":[[-12.2806,14.809],[-12.3025,14.817],[-12.4087,14.889],[-12.4599,14.9746],[-12.5435,15.039],[-12.6596,15.0821],[-12.7352,15.1313],[-12.7703,15.1867],[-12.8132,15.2235],[-12.8585,15.2425],[-12.8626,15.2624],[-12.8519,15.2897],[-12.8627,15.3404],[-12.9309,15.453],[-12.9943,15.5049],[-13.0485,15.4966],[-13.0793,15.5104],[-13.0979,15.5353],[-13.1053,15.5718],[-13.1424,15.6033],[-13.2064,15.6169],[-13.258,15.7004],[-13.297,15.8539],[-13.3476,15.9735],[-13.4096,16.0592],[-13.4541,16.0911],[-13.4869,16.097],[-13.4982,16.1103],[-13.507,16.1352],[-13.5555,16.1441],[-13.6236,16.1183],[-13.6847,16.1269],[-13.7149,16.1688],[-13.7566,16.1725],[-13.8098,16.138],[-13.8685,16.1482],[-13.9326,16.2029],[-13.9682,16.2572],[-13.975,16.3111],[-14.0857,16.4188],[-14.3001,16.5803],[-14.5337,16.656],[-14.7867,16.6459],[-14.9286,16.6535],[-14.9595,16.6789],[-14.9906,16.6769],[-15.0219,16.6475],[-15.0552,16.641],[-15.0906,16.6574],[-15.1126,16.6449],[-15.1214,16.6036],[-15.2106,16.5826],[-15.38,16.582],[-15.5167,16.5566],[-15.6208,16.5066],[-15.7682,16.4851],[-15.959,16.4921],[-16.074,16.5105],[-16.1133,16.5401],[-16.1683,16.5471],[-16.239,16.5313],[-16.3023,16.4513],[-16.3581,16.3072],[-16.4043,16.2249],[-16.441,16.2045],[-16.4801,16.0972],[-16.5021,15.9173],[-16.5352,15.8384]]}},{"type":"Feature","properties":{},"geometry":{"type":"LineString","coordinates":[[-4.8226,24.9956],[-5.1729,24.9954],[-5.6408,24.9952],[-5.9598,24.995],[-6.2872,24.9948],[-6.5941,24.9947],[-6.5674,24.7668],[-6.5389,24.5181],[-6.5105,24.2695],[-6.482,24.0208],[-6.4535,23.7721],[-6.4251,23.5235],[-6.3966,23.2748],[-6.3681,23.0261],[-6.3396,22.7775],[-6.3112,22.5289],[-6.2827,22.2802],[-6.2542,22.0315],[-6.2257,21.7829],[-6.1973,21.5342],[-6.1688,21.2855],[-6.1403,21.0369],[-6.1118,20.7882],[-6.0834,20.5395],[-6.0549,20.2909],[-6.0264,20.0422],[-5.9979,19.7935],[-5.9695,19.5449],[-5.941,19.2962],[-5.9125,19.0475],[-5.8841,18.7989],[-5.8556,18.5502],[-5.8271,18.3016],[-5.7986,18.0529],[-5.7702,17.8042],[-5.7417,17.5556],[-5.7132,17.3069],[-5.6847,17.0582],[-5.6563,16.8096],[-5.6287,16.5687],[-5.5096,16.442],[-5.3599,16.2829],[-5.4036,16.0579],[-5.4556,15.7894],[-5.5125,15.4963],[-5.7239,15.4963],[-5.9278,15.4963],[-6.1318,15.4962],[-6.3357,15.4962],[-6.5397,15.4962],[-6.7436,15.4962],[-6.9476,15.4962],[-7.1515,15.4962],[-7.3555,15.4962],[-7.5594,15.4962],[-7.7634,15.4962],[-7.9673,15.4962],[-8.1713,15.4962],[-8.3752,15.4962],[-8.5791,15.4961],[-8.7831,15.4961],[-8.987,15.4961],[-9.1768,15.4961],[-9.2937,15.5028],[-9.3355,15.5257],[-9.3506,15.6774],[-9.3853,15.6676],[-9.4266,15.6231],[-9.4477,15.5749],[-9.4403,15.5117],[-9.4469,15.4582],[-9.5778,15.4372],[-9.7551,15.4015],[-9.9414,15.3738],[-10.1296,15.3837],[-10.1937,15.3961],[-10.2621,15.416],[-10.4118,15.4379],[-10.4932,15.4398],[-10.5866,15.4348],[-10.6966,15.4227],[-10.732,15.3949],[-10.8151,15.2818],[-10.8956,15.1505],[-10.9482,15.1511],[-11.0074,15.2229],[-11.1693,15.3586],[-11.3656,15.5368],[-11.4552,15.6254],[-11.5027,15.6368],[-11.5967,15.5733],[-11.6759,15.5121],[-11.7602,15.4255],[-11.7984,15.3427],[-11.8288,15.2449],[-11.8422,15.1294],[-11.8728,14.9952],[-11.9409,14.8869],[-12.0216,14.8049],[-12.0816,14.7664],[-12.1047,14.7454],[-12.2806,14.809]]}},{"type":"Feature","properties":{},"geometry":{"type":"LineString","coordinates":[[4.2276,19.1428],[3.9102,19.0837],[3.6835,19.0416],[3.4387,18.9962],[3.4009,18.9884],[3.3565,18.9866],[3.3234,18.9884],[3.256,19.0133],[3.1742,19.0729],[3.1197,19.1032],[3.1061,19.1501],[3.1379,19.2122],[3.1773,19.2682],[3.1923,19.3121],[3.2196,19.3454],[3.2544,19.3726],[3.2559,19.4109],[3.2271,19.4736],[3.2016,19.5604],[3.2027,19.7183],[3.2034,19.7708],[3.2037,19.7897],[3.1303,19.8502],[2.9925,19.9166],[2.8657,19.9559],[2.8079,19.9695],[2.6678,19.9929],[2.4742,20.035],[2.4062,20.0639],[2.2808,20.2103],[2.2193,20.2478],[1.9288,20.2727],[1.8324,20.2968],[1.7532,20.3316],[1.6854,20.3784],[1.6474,20.4589],[1.636,20.5244],[1.6106,20.5556],[1.2902,20.7136],[1.2088,20.7673],[1.1657,20.8174],[1.1641,20.8913],[1.1728,20.982],[1.1591,21.0625],[1.1455,21.1022],[0.9994,21.1978],[0.6719,21.4119],[0.3445,21.626],[0.017,21.8401],[-0.3105,22.0542],[-0.638,22.2683],[-0.9655,22.4825],[-1.293,22.6965],[-1.6204,22.9107],[-1.9479,23.1248],[-2.2754,23.3389],[-2.6029,23.553],[-2.9304,23.7671],[-3.2579,23.9812],[-3.5853,24.1953],[-3.9128,24.4095],[-4.2403,24.6236],[-4.517,24.8045],[-4.8226,24.9956]]}},{"type":"Feature","properties":{},"geometry":{"type":"LineString","coordinates":[[4.2276,19.1428],[4.4458,19.1845],[4.6713,19.2278],[5.0,19.2908]]}},{"type":"Feature","properties":{},"geometry":{"type":"LineString","coordinates":[[0.9005,10.9933],[0.8748,10.8857],[0.8218,10.7526],[0.7875,10.7103],[0.7633,10.3867],[0.78,10.3596],[0.7922,10.3515],[0.9583,10.242],[1.1762,10.0984],[1.33,9.997],[1.3428,9.963],[1.3451,9.7502],[1.3471,9.5675],[1.3789,9.463],[1.3857,9.3617],[1.4243,9.285],[1.5663,9.1372],[1.6002,9.05],[1.6038,8.771],[1.6066,8.5593],[1.6246,8.271],[1.6246,8.0302],[1.6246,7.7259],[1.6247,7.3692],[1.6247,6.9973],[1.5309,6.9924],[1.582,6.877],[1.5908,6.7723],[1.6029,6.7381],[1.5776,6.6874],[1.5985,6.6102],[1.6393,6.5816],[1.7431,6.4262],[1.7779,6.2947],[1.6109,6.2508],[1.6226,6.2168]]}},{"type":"Feature","properties":{},"geometry":{"type":"LineString","coordinates":[[0.2175,14.9115],[0.2287,14.9637],[0.2862,14.9802],[0.433,14.979],[0.7186,14.9549],[0.9474,14.9821],[0.9601,14.9869],[1.1213,15.1261],[1.3002,15.2723],[1.5691,15.2865],[1.8594,15.3017],[2.0882,15.3094],[2.4208,15.3204],[2.6897,15.3299],[3.001,15.3409],[3.0105,15.4083],[3.0294,15.4248],[3.0601,15.4272],[3.2891,15.3911],[3.5043,15.3563],[3.5205,15.4831],[3.7096,15.6417],[3.8165,15.674],[3.843,15.7017],[3.8769,15.7553],[3.898,15.838],[3.9072,15.8968],[3.9471,15.9456],[3.9762,16.0356],[4.0149,16.1927],[4.1213,16.3577],[4.1822,16.5818],[4.1912,16.7982],[4.203,16.9627],[4.2347,16.9964],[4.2337,17.2884],[4.2327,17.5822],[4.2319,17.8305],[4.2309,18.1395],[4.23,18.4106],[4.229,18.7044],[4.2282,18.968],[4.2276,19.1428]]}},{"type":"Feature","properties":{},"geometry":{"type":"LineString","coordinates":[[-0.0686,11.1156],[-0.2995,11.1669],[-0.3126,11.1189],[-0.3457,11.0879],[-0.3956,11.0857],[-0.4303,11.0933],[-0.4535,11.0563],[-0.4917,11.0076],[-0.5452,10.9837],[-0.5977,10.9537],[-0.6272,10.9274],[-0.6485,10.9268],[-0.7014,10.9889],[-0.7716,10.9953],[-0.9029,10.9847],[-0.9618,11.0017],[-1.0425,11.0101],[-1.2326,10.9972],[-1.5368,11.0226],[-1.5865,11.0089],[-1.5997,10.9976],[-1.9006,10.9947],[-2.232,10.9914],[-2.5092,10.9887],[-2.7517,10.9864],[-2.7521,10.997],[-2.8299,10.9984],[-2.8386,10.9775],[-2.9073,10.728],[-2.9149,10.5923],[-2.8784,10.5079],[-2.8372,10.4547],[-2.7912,10.4324],[-2.7866,10.4019],[-2.8235,10.3629],[-2.8203,10.3228],[-2.7771,10.2816],[-2.7665,10.2382],[-2.7885,10.1926],[-2.7832,10.0831],[-2.7507,9.9097],[-2.7498,9.7972],[-2.7805,9.7458],[-2.766,9.6581],[-2.7062,9.5339],[-2.6959,9.4813]]}},{"type":"Feature","properties":{},"geometry":{"type":"LineString","coordinates":[[-13.2927,9.0492],[-13.2342,9.0701],[-13.1784,9.0609],[-13.1299,9.0476],[-13.0773,9.0696],[-13.028,9.1036],[-12.9986,9.1469],[-12.9588,9.2633],[-12.8311,9.3022],[-12.7559,9.3736],[-12.6844,9.4842],[-12.6517,9.5619],[-12.6221,9.6007],[-12.6036,9.6342],[-12.5898,9.6711],[-12.5579,9.705],[-12.5244,9.7872],[-12.5015,9.8622],[-12.428,9.8981],[-12.2777,9.9298],[-12.1423,9.8754],[-11.9228,9.9227],[-11.9111,9.993],[-11.71,9.9942],[-11.4719,9.9955],[-11.2736,9.9965],[-11.2056,9.9777],[-11.1809,9.9253],[-11.1157,9.8431],[-11.0475,9.7863],[-10.9631,9.6616],[-10.8648,9.5164],[-10.7586,9.3853],[-10.6905,9.3143],[-10.6827,9.2894],[-10.6876,9.2611],[-10.7212,9.1945],[-10.75,9.1224],[-10.747,9.0953],[-10.7269,9.0817],[-10.616,9.0592],[-10.6058,8.9788],[-10.6056,8.8676],[-10.5518,8.7638],[-10.5005,8.6876],[-10.5032,8.6603],[-10.6285,8.53],[-10.6774,8.4006],[-10.7022,8.3642],[-10.7121,8.3353],[-10.687,8.3217],[-10.6527,8.3303],[-10.604,8.3195],[-10.5577,8.3157],[-10.4964,8.3621],[-10.3944,8.481],[-10.36,8.4955],[-10.2832,8.4851]]}},{"type":"Feature","properties":{},"geometry":{"type":"LineString","coordinates":[[-117.1283,32.5334],[-116.8421,32.5548],[-116.556,32.5762],[-116.2698,32.5976],[-115.9837,32.619],[-115.6975,32.6405],[-115.4114,32.6619],[-115.1252,32.6833],[-114.8391,32.7047],[-114.7248,32.7153],[-114.788,32.5648],[-114.836,32.5083],[-114.3617,32.3603],[-113.8875,32.2123],[-113.4132,32.0643],[-112.939,31.9163],[-112.4647,31.7682],[-111.9905,31.6202],[-111.5162,31.4722],[-111.042,31.3242],[-110.6885,31.3249],[-110.3351,31.3255],[-109.9817,31.3261],[-109.6282,31.3268],[-109.2748,31.3275],[-109.0478,31.3279],[-108.9213,31.3281],[-108.5679,31.3288],[-108.2144,31.3294],[-108.2138,31.4419],[-108.2132,31.5544],[-108.2125,31.6669],[-108.2118,31.7793],[-107.992,31.7782],[-107.7722,31.777],[-107.5524,31.7759],[-107.3325,31.7748],[-107.1127,31.7736],[-106.8929,31.7725],[-106.673,31.7713],[-106.4532,31.7702],[-106.4454,31.7684],[-106.436,31.7645],[-106.347,31.679],[-106.2557,31.5447],[-106.1481,31.4509],[-106.0241,31.3978],[-105.8127,31.241],[-105.514,30.9808],[-105.2758,30.8073],[-105.0982,30.7206],[-104.9788,30.6459],[-104.9179,30.5834],[-104.8359,30.4477],[-104.6813,30.1344],[-104.6813,29.9905],[-104.6222,29.8543],[-104.504,29.6777],[-104.4006,29.5738],[-104.3122,29.5424],[-104.2155,29.4799],[-104.1106,29.3861],[-103.9897,29.3232],[-103.8529,29.2911],[-103.664,29.2069],[-103.4229,29.0707],[-103.2577,29.0011],[-103.1683,28.9982],[-103.09,29.0419],[-103.0228,29.1322],[-102.9568,29.1904],[-102.892,29.2164],[-102.8657,29.258],[-102.8778,29.3153],[-102.834,29.444],[-102.7342,29.644],[-102.6149,29.7523],[-102.4762,29.7691],[-102.3857,29.8067],[-102.3431,29.865],[-102.2689,29.8712],[-102.1631,29.8253],[-101.9909,29.7957],[-101.7523,29.7825],[-101.6116,29.787],[-101.5687,29.8092],[-101.5464,29.8081],[-101.5446,29.7835],[-101.5093,29.7731],[-101.4404,29.7768],[-101.3803,29.7426],[-101.3035,29.6341],[-101.039,29.4604],[-101.0386,29.4603],[-101.0163,29.4007],[-100.9241,29.3147],[-100.7546,29.1825],[-100.6586,29.0685],[-100.6363,28.9728],[-100.5497,28.8213],[-100.3989,28.6142],[-100.3317,28.5025],[-100.3482,28.4864],[-100.3363,28.4281],[-100.296,28.3277],[-100.2213,28.2426],[-100.1119,28.173],[-100.0014,28.0478],[-99.8896,27.8673],[-99.7543,27.7299],[-99.5953,27.6359],[-99.5053,27.5483],[-99.4843,27.4674],[-99.4858,27.398],[-99.5101,27.3403],[-99.4998,27.2855],[-99.4551,27.2337],[-99.4403,27.1701],[-99.4577,27.0817],[-99.4565,27.0567],[-99.4565,27.0566],[-99.4435,27.0367],[-99.3025,26.8847],[-99.2299,26.7619],[-99.1724,26.5659],[-99.1721,26.5641],[-99.1078,26.4469],[-99.0153,26.399],[-98.8732,26.3812],[-98.7652,26.3404],[-98.6914,26.2765],[-98.5983,26.2379],[-98.4859,26.2246],[-98.3781,26.1824],[-98.275,26.1112],[-98.0828,26.0644],[-97.8014,26.0421],[-97.5872,25.9842],[-97.4403,25.8908],[-97.3756,25.8718],[-97.3582,25.8705],[-97.3497,25.8848],[-97.3387,25.9112],[-97.2818,25.9416],[-97.1462,25.9615]]}},{"type":"Feature","properties":{},"geometry":{"type":"LineString","coordinates":[[-92.2351,14.5454],[-92.209,14.571],[-92.1871,14.6301],[-92.1599,14.691],[-92.1765,14.7613],[-92.1864,14.8184],[-92.1557,14.9013],[-92.1586,14.9636],[-92.1442,15.0019],[-92.0987,15.0267],[-92.0748,15.0742],[-92.2043,15.2377],[-92.2043,15.275],[-92.1872,15.3209],[-92.0822,15.4956],[-91.9573,15.7032],[-91.8194,15.9324],[-91.7366,16.0702],[-91.434,16.0704],[-91.2338,16.0706],[-90.9796,16.0708],[-90.7032,16.0711],[-90.522,16.0712],[-90.4472,16.0727],[-90.4599,16.1624],[-90.4501,16.2614],[-90.417,16.3513],[-90.417,16.391],[-90.4711,16.4396],[-90.5758,16.4678],[-90.6341,16.5107],[-90.6344,16.5651],[-90.66,16.6309],[-90.7107,16.7081],[-90.816,16.7871],[-90.9758,16.8678],[-91.1119,16.9762],[-91.2242,17.1123],[-91.3192,17.1998],[-91.3923,17.2364],[-91.4096,17.2559],[-91.1955,17.2541],[-90.993,17.2524],[-90.9916,17.4475],[-90.9904,17.6207],[-90.9891,17.8164],[-90.622,17.8161],[-90.1836,17.8157],[-89.7288,17.8153],[-89.3715,17.815],[-89.1615,17.8148],[-89.1624,17.902],[-89.1335,17.9708],[-89.0504,17.9997],[-88.9426,17.9396],[-88.8978,17.9145],[-88.8574,17.9288],[-88.8063,17.9655],[-88.7436,18.0716],[-88.5862,18.2905],[-88.523,18.4459],[-88.4613,18.4768],[-88.3724,18.4823],[-88.2957,18.4724],[-88.2489,18.4133],[-88.0396,18.4164],[-88.0418,18.1954],[-87.8256,18.1815]]}},{"type":"Feature","properties":{},"geometry":{"type":"LineString","coordinates":[[2.3892,11.8971],[2.4126,11.9993],[2.3633,12.1884],[2.366,12.2219],[2.4693,12.2628],[2.5984,12.2943],[2.6484,12.2968],[2.6814,12.3128],[2.7285,12.3536],[2.8052,12.3838],[2.8502,12.3737],[2.8782,12.3677],[3.1496,12.1181],[3.2674,11.9919],[3.2991,11.9271],[3.3599,11.8805],[3.4498,11.8519],[3.5317,11.7874],[3.5954,11.6963]]}},{"type":"Feature","properties":{},"geometry":{"type":"LineString","coordinates":[[-84.3483,10.9799],[-84.2555,10.9007],[-84.205,10.8413],[-84.1966,10.8017],[-84.1683,10.7804],[-84.0962,10.7757],[-83.9193,10.7354],[-83.8112,10.7432],[-83.7129,10.7859],[-83.6589,10.8369],[-83.642,10.9172]]}},{"type":"Feature","properties":{},"geometry":{"type":"LineString","coordinates":[[-122.6864,48.993],[-122.26,48.993],[-121.8336,48.993],[-121.4072,48.993],[-120.9809,48.993],[-120.5545,48.993],[-120.1281,48.993],[-119.7017,48.993],[-119.2753,48.9931],[-118.8489,48.9931],[-118.4226,48.9931],[-117.9962,48.9931],[-117.5698,48.9931],[-117.1434,48.9931],[-117.0391,48.9931],[-116.717,48.9931],[-116.2906,48.9931],[-116.0485,48.9931],[-115.8643,48.9931],[-115.4379,48.9931],[-115.0115,48.9931],[-114.5851,48.9931],[-114.1587,48.9931],[-114.0625,48.9931],[-113.7324,48.9931],[-113.306,48.9931],[-112.8796,48.9931],[-112.4532,48.9931],[-112.0268,48.9931],[-111.6004,48.9931],[-111.1741,48.9931],[-110.7477,48.9931],[-110.3213,48.9931],[-109.9994,48.9931],[-109.8949,48.9931],[-109.4685,48.9931],[-109.0422,48.9931],[-108.6158,48.9931],[-108.1894,48.9931],[-107.763,48.9931],[-107.3366,48.9931],[-106.9102,48.9931],[-106.4839,48.9931],[-106.0575,48.9931],[-105.6311,48.9931],[-105.2047,48.9931],[-104.7783,48.9931],[-104.3519,48.9931],[-104.0339,48.9931],[-103.9256,48.9931],[-103.4992,48.9931],[-103.0728,48.9931],[-102.6464,48.9931],[-102.22,48.9931],[-101.7937,48.9931],[-101.3673,48.9931],[-100.9409,48.9931],[-100.5145,48.9931],[-100.0881,48.9931],[-99.6617,48.9931],[-99.2354,48.9931],[-98.809,48.9932],[-98.3826,48.9932],[-97.9562,48.9932],[-97.5298,48.9932],[-97.1034,48.9932],[-96.6771,48.9932],[-96.2507,48.9932],[-95.8243,48.9932],[-95.3979,48.9932],[-95.162,48.9918],[-95.1582,49.2031],[-95.1553,49.3697],[-94.9393,49.3494],[-94.8748,49.319],[-94.8543,49.3046],[-94.8604,49.2586],[-94.8426,49.1192],[-94.8035,49.003],[-94.7128,48.8634],[-94.7126,48.863],[-94.7051,48.8085],[-94.6754,48.7744],[-94.6209,48.7426],[-94.4142,48.7041],[-94.0552,48.659],[-93.8516,48.6073],[-93.8035,48.5489],[-93.7077,48.5255],[-93.5643,48.5369],[-93.4636,48.5613],[-93.3778,48.6166],[-93.2579,48.6289],[-93.1552,48.6254],[-93.0517,48.6199],[-92.9963,48.6118],[-92.8367,48.5678],[-92.7327,48.5318],[-92.5833,48.4651],[-92.5006,48.4353],[-92.4609,48.3659],[-92.4146,48.2766],[-92.3484,48.2766],[-92.2987,48.3289],[-92.1718,48.3384],[-92.0052,48.3018],[-91.8584,48.1976],[-91.6473,48.1046],[-91.5183,48.0583],[-91.3872,48.0585],[-91.2207,48.1046],[-91.0435,48.1937],[-90.916,48.2092],[-90.8403,48.2005],[-90.7973,48.1311],[-90.7444,48.1046],[-90.6071,48.1126],[-90.3201,48.0992],[-90.0918,48.1181],[-90.04,48.0782],[-89.9936,48.0153],[-89.901,47.9955],[-89.7754,48.0153],[-89.5506,47.9999],[-89.4984,47.9979],[-89.4556,47.9962],[-89.2732,48.02],[-89.1856,48.0474],[-89.0626,48.0938],[-88.8987,48.1557],[-88.6118,48.264],[-88.3782,48.3031],[-88.1607,48.2254],[-87.9875,48.1569],[-87.9205,48.1304],[-87.7439,48.0605],[-87.4942,47.9618],[-87.208,47.8485],[-86.9218,47.7352],[-86.6722,47.6364],[-86.4956,47.5666],[-86.4286,47.5401],[-86.2345,47.46],[-86.0404,47.38],[-85.8463,47.3],[-85.6523,47.22],[-85.4582,47.14],[-85.2641,47.0599],[-85.07,46.9799],[-84.876,46.8999],[-84.8271,46.7669],[-84.7794,46.6373],[-84.6658,46.5433],[-84.5618,46.4574],[-84.5016,46.4619],[-84.4405,46.4981],[-84.4017,46.5156],[-84.3367,46.5185],[-84.1922,46.5496],[-84.1495,46.5428],[-84.1252,46.5272],[-84.1232,46.5029],[-84.1281,46.4836],[-84.1505,46.4448],[-84.1152,46.3708],[-84.1078,46.2886],[-84.0884,46.2265],[-84.0292,46.147],[-83.9778,46.0849],[-83.913,46.0729],[-83.7632,46.1091],[-83.6693,46.1227],[-83.6159,46.1168],[-83.5248,46.0587],[-83.4801,46.0238],[-83.4695,45.9947],[-83.5927,45.8172],[-83.3973,45.729],[-83.1793,45.6328],[-82.9194,45.518],[-82.7604,45.4477],[-82.5511,45.3474],[-82.5152,45.2044],[-82.4851,45.0838],[-82.4466,44.9155],[-82.4074,44.7439],[-82.3683,44.573],[-82.3268,44.3916],[-82.2812,44.1922],[-82.2408,44.0153],[-82.1966,43.8222],[-82.1378,43.5709],[-82.1904,43.4741],[-82.3048,43.2632],[-82.4082,43.0726],[-82.4172,43.0174],[-82.4883,42.7395],[-82.5453,42.6247],[-82.6451,42.558],[-82.7442,42.4935],[-82.8678,42.3852],[-83.0037,42.3317],[-83.0731,42.3003],[-83.1095,42.2507],[-83.1497,42.1419],[-83.1419,41.9759],[-83.1217,41.95],[-83.03,41.833],[-82.8662,41.753],[-82.69,41.6752],[-82.4391,41.6749],[-82.2133,41.7787],[-81.9742,41.8887],[-81.7609,41.9868],[-81.5073,42.1035],[-81.2776,42.2092],[-81.0282,42.2472],[-80.6826,42.2998],[-80.5208,42.3244],[-80.2476,42.366],[-80.0357,42.4415],[-79.762,42.539],[-79.4462,42.6515],[-79.1737,42.7485],[-79.0367,42.8023],[-78.9392,42.8637],[-78.9151,42.9091],[-78.9209,42.9352],[-78.946,42.9613],[-78.9808,42.9806],[-79.0117,42.997],[-79.0262,43.0173],[-79.0291,43.0618],[-79.048,43.0873],[-79.066,43.1061],[-79.0592,43.2781],[-79.083,43.3314],[-79.1719,43.4666],[-79.0025,43.5272],[-78.8456,43.5833],[-78.7204,43.6249],[-78.4583,43.6315],[-78.2148,43.6307],[-77.8792,43.6296],[-77.5965,43.6286],[-77.2667,43.6275],[-77.0734,43.6268],[-76.82,43.6288],[-76.6965,43.7848],[-76.5861,43.9243],[-76.4646,44.0576],[-76.2485,44.2141],[-76.1858,44.2422],[-76.1512,44.3039],[-76.0202,44.3626],[-75.8759,44.417],[-75.8193,44.468],[-75.792,44.4971],[-75.4013,44.7723],[-75.1794,44.8994],[-74.9961,44.9701],[-74.8566,45.0039],[-74.7625,44.9991],[-74.7089,45.0039],[-74.6632,45.0039],[-74.4304,45.0042],[-74.0143,45.0047],[-73.5981,45.0052],[-73.3522,45.0054],[-73.182,45.0056],[-72.7659,45.0061],[-72.3498,45.0066],[-71.9336,45.0071],[-71.5175,45.0076],[-71.419,45.2003],[-71.3273,45.2901],[-71.2016,45.2603],[-71.1346,45.2628],[-71.0845,45.294],[-71.0602,45.3091],[-70.9999,45.3372],[-70.9602,45.3331],[-70.9262,45.2907],[-70.898,45.2625],[-70.865,45.2707],[-70.8368,45.3107],[-70.8378,45.3662],[-70.7992,45.4048],[-70.7533,45.4107],[-70.7109,45.4095],[-70.6898,45.4283],[-70.6921,45.4554],[-70.7074,45.4989],[-70.7022,45.5514],[-70.5964,45.644],[-70.4666,45.7068],[-70.4211,45.7382],[-70.4079,45.8019],[-70.3335,45.8681],[-70.2962,45.9061],[-70.2872,45.9392],[-70.3064,45.9798],[-70.3045,46.0574],[-70.2789,46.15],[-70.2483,46.2509],[-70.1797,46.3418],[-70.0672,46.441],[-70.0382,46.5714],[-70.0077,46.7089],[-69.8717,46.8429],[-69.7175,46.9949],[-69.6298,47.0814],[-69.4715,47.2387],[-69.3589,47.3507],[-69.3021,47.402],[-69.2429,47.463],[-69.1463,47.4448],[-69.0502,47.4266],[-69.0643,47.3381],[-69.0537,47.2946],[-69.0486,47.2737],[-69.0031,47.2364],[-68.9372,47.2113],[-68.8874,47.2028],[-68.8287,47.2033],[-68.6685,47.2534],[-68.4804,47.2858],[-68.3769,47.3162],[-68.358,47.3445],[-68.3109,47.3545],[-68.2355,47.3459],[-68.0968,47.2748],[-67.9348,47.1676],[-67.8068,47.0828],[-67.8029,46.9357],[-67.8004,46.7799],[-67.7977,46.6156],[-67.7958,46.4984],[-67.7925,46.3374],[-67.7899,46.2093],[-67.7865,46.0422],[-67.7846,45.9528],[-67.767,45.927],[-67.7776,45.8918],[-67.7823,45.8742],[-67.7811,45.8601],[-67.7741,45.8425],[-67.7753,45.8179],[-67.7917,45.7956],[-67.7999,45.7698],[-67.8022,45.7275],[-67.7846,45.7017],[-67.7553,45.6865],[-67.7307,45.6865],[-67.699,45.6712],[-67.6579,45.6442],[-67.5957,45.6207],[-67.5312,45.6125],[-67.4866,45.6184],[-67.4326,45.6031],[-67.4139,45.5656],[-67.4244,45.5304],[-67.4549,45.514],[-67.4878,45.501],[-67.4937,45.4741],[-67.4772,45.4459],[-67.4538,45.4213],[-67.4279,45.378],[-67.4385,45.3404],[-67.462,45.3087],[-67.4725,45.2759],[-67.4526,45.2477],[-67.3998,45.2102],[-67.3669,45.1738],[-67.3153,45.1538],[-67.2907,45.1679],[-67.2707,45.1867],[-67.2496,45.2008],[-67.2132,45.1925],[-67.171,45.182],[-67.1248,45.1694]]}},{"type":"Feature","properties":{},"geometry":{"type":"LineString","coordinates":[[-1.2753,32.089],[-1.2259,32.1072],[-1.2259,32.1645],[-1.2621,32.2711],[-1.2403,32.3376],[-1.1626,32.3992],[-1.0655,32.4683],[-1.111,32.5523],[-1.1882,32.6085],[-1.2964,32.6757],[-1.3521,32.7034],[-1.45,32.7848],[-1.51,32.8776],[-1.5507,33.0736],[-1.6251,33.1833],[-1.6792,33.3187],[-1.6312,33.5668],[-1.703,33.7169],[-1.7141,33.7818],[-1.7147,33.8582],[-1.6927,33.9903],[-1.7069,34.1761],[-1.7918,34.3679],[-1.7519,34.4332],[-1.7333,34.467],[-1.7394,34.4961],[-1.8166,34.5571],[-1.8496,34.6073],[-1.8324,34.6546],[-1.7922,34.7232],[-1.7956,34.7519],[-1.9209,34.8356],[-2.1318,34.9708],[-2.1908,35.0298],[-2.2196,35.1042]]}},{"type":"Feature","properties":{},"geometry":{"type":"LineString","coordinates":[[-56.4828,1.9421],[-56.5224,1.9748],[-56.5627,2.0051],[-56.6272,2.016],[-56.7044,2.0365],[-56.7612,2.1149],[-56.8198,2.2266],[-56.8405,2.2771],[-56.8864,2.326],[-56.9315,2.3954],[-56.9452,2.4568],[-56.9793,2.5132],[-56.9971,2.5322],[-57.0235,2.609],[-57.0289,2.6375],[-57.0419,2.6411],[-57.0604,2.6657],[-57.0969,2.7478],[-57.1051,2.7683],[-57.1211,2.7755],[-57.1636,2.8333],[-57.1974,2.8533],[-57.2098,2.8828],[-57.2069,2.9634],[-57.225,3.0031],[-57.2306,3.0786],[-57.2316,3.1089],[-57.249,3.1423],[-57.2779,3.1643],[-57.2829,3.2189],[-57.29,3.3536],[-57.3037,3.3771],[-57.4256,3.3755],[-57.4379,3.3623],[-57.4906,3.3543],[-57.5496,3.3528],[-57.5955,3.3685]]}},{"type":"Feature","properties":{},"geometry":{"type":"LineString","coordinates":[[-54.6163,2.3268],[-54.6047,2.3358],[-54.5684,2.3426],[-54.536,2.3433],[-54.4856,2.4161],[-54.402,2.4615],[-54.2567,2.7137],[-54.1955,2.8179],[-54.1881,2.8749],[-54.1707,2.9936],[-54.2031,3.1382],[-54.188,3.1788],[-54.0836,3.3248],[-54.0821,3.3269]]}},{"type":"Feature","properties":{},"geometry":{"type":"LineString","coordinates":[[2.3892,11.8971],[2.3632,11.8401],[2.2872,11.6913],[2.2309,11.6292],[1.9804,11.4184],[1.8576,11.4433],[1.6,11.4006],[1.5614,11.4491],[1.5013,11.4556],[1.4267,11.4471],[1.3997,11.4287],[1.3915,11.408],[1.3648,11.3789],[1.3174,11.2953],[1.2805,11.274],[1.2347,11.261],[1.1787,11.2627],[1.1458,11.2519],[1.1455,11.2104],[1.1356,11.1744],[1.0975,11.1564],[1.0815,11.116],[1.0846,11.0764],[1.0623,11.0582],[1.0138,11.0681],[0.985,11.079],[0.958,11.0278],[0.9246,10.9928],[0.9005,10.9933]]}}]}